<!DOCTYPE html PUBLIC "-//W3C//DTD HTML 4.01 Transitional//EN">
<!-- saved from url=(0171)https://www.ogimet.com/display_synopsc2.php?lang=en&estado=Mexi&tipo=ALL&ord=REV&nil=SI&fmt=txt&ano=2026&mes=04&day=29&hora=19&anof=2026&mesf=04&dayf=30&horaf=19&send=send -->
<html><head><meta http-equiv="Content-Type" content="text/html; charset=UTF-8">
  <title>Display synops by contries</title>
  
  <meta name="Author" content="G. Ballester">
  <meta name="GENERATOR" content="Quanta Plus">
  <meta name="keywords" content="meteorología, temperatura, punto de rocío, sensación térmica,
   índice de calor, humedad relativa, precipitación, viento, mensajes synop, metar, taf">
  <meta name="viewport" content="width=device-width, initial-scale=1">
  <link rel="stylesheet" href="./Display synops by contries_files/ogimet.css">
  <link rel="stylesheet" type="text/css" href="./Display synops by contries_files/cookieconsent.min.css">
<script src="./Display synops by contries_files/cookieconsent.min.js.descarga"></script>
<script>
window.addEventListener("load", function(){
window.cookieconsent.initialise({
  "palette": {
    "popup": {
      "background": "#eb6c44",
      "text": "#ffffff"
    },
    "button": {
      "background": "#f5d948"
    }
  },
  "theme": "classic",
  "position": "top",
  "content": {
    "message": "Las cookies de este sitio web se usan para personalizar el contenido y los anuncios, ofrecer funciones de redes sociales y analizar el tráfico. Ademas, compartimos el uso que haga del sitio web con nuestros partners de redes sociales, publicidad y análisis web, quienes pueden combinarla con otra información que les haya proporcionado o que hayan recopilado a partir del uso que haya hecho de sus servicios. Si continua navegando en estas páginas consideramos que acepta su uso. ",
    "dismiss": "Entendido",
    "link": "Saber más",
    "href": "/cookiespolicy.phtml"
  }
})});
</script>
</head>

<body>
  <pre>################################################################################
# Query made at 04/30/2026 19:18:35 UTC
# Country like Mexi*
# Time interval: from 04/29/2026 18:30  to 04/30/2026 19:30  UTC
################################################################################

################################################################################
#  SYNOPS from 76040, Ejido Nuevo Leon Bc. (Mexico) | 32-24-52N | 115-11-33W | 12 m
################################################################################
202604301500 AAXX 30151 76040 22960 03401 10195 20133 30083 40097 52007
                   333 30/// 60007 70000 91001
                   555 60005==
202604301400 AAXX 30141 76040 22960 03301 10146 20120 30080 40094 52002
                   333 30/// 60005 70000 91001==
202604301300 AAXX 30131 76040 22960 03201 10143 20098 30077 40091
                   333 30/// 59050 60005 70000 91001==
202604301200 AAXX 30121 76040 02902 03301 10154 20117 30076 40090 57012 60001
                   333 10338 20146 30/// 59048 60007 70000 91001
                   555 60005==
202604301100 AAXX 30111 76040 22902 03001 10168 20128 30078 40092 57013
                   333 30/// 60005 70000 91001==
202604300900 AAXX 30091 76040 22902 02501 10193 20154 30088 40102 57002
                   333 30/// 59033 60007 70000 91001
                   555 60005==
202604300800 AAXX 30081 76040 22902 02201 10207 20155 30091 40105 57001
                   333 30/// 60005 70000 91001==
202604300700 AAXX 30071 76040 22902 01901 10222 20166 30093 40107 52004
                   333 30/// 59034 60005 70000 91001==
202604300600 AAXX 30061 76040 02902 01201 10234 20176 30090 40104 52004 60001
                   333 30/// 55008 59036 60007 70000 91001
                   555 60005==
202604300500 AAXX 30051 76040 22902 31201 10246 20186 30092 40106 52008 83030
                   333 30/// 59034 60005 70000 91001==
202604300400 AAXX 30041 76040 22902 41301 10258 20189 30089 40103 84030
                   333 30/// 59033 60005 70000 91001==
202604300300 AAXX 30031 76040 22902 41501 10272 20191 30086 40100 52001 84030
                   333 30/// 59029 60007 70000 91001
                   555 60005==
202604300200 AAXX 30021 76040 22960 41401 10291 20201 30084 40098 57008 84030
                   333 30/// 59025 60005 70000 91001==
202604300000 AAXX 30001 76040 02960 51502 10321 20209 30085 40099 57025 60001 85030
                   333 10338 30/// 59023 60007 70000 91002
                   555 60005==
202604292300 AAXX 29231 76040 22960 52001 10328 20216 30092 40106 57025 85030
                   333 30/// 59020 60005 70000 91002==
202604292200 AAXX 29221 76040 22960 42101 10331 20221 30103 40117 57020 84030
                   333 30/// 59019 60005 70000 91001==
202604292100 AAXX 29211 76040 22960 02601 10334 20226 30110 40124 57021
                   333 30/// 59017 60007 70000 91002
                   555 60005==
202604292000 AAXX 29201 76040 22960 02801 10320 20220 30117 40131 57016
                   333 30/// 59022 60005 70000 91001==
202604291900 AAXX 29191 76040 22960 02802 10311 20214 30123 40137 57013
                   333 30/// 59019 60005 70000 91002==

################################################################################
#  SYNOPS from 76055, San Felipe, B. C. N. (Mexico) | 31-01-41N | 114-50-48W | 25 m
################################################################################
202604301800 AAXX 30181 76055 02980 80701 10260 20156 30068 40097 57004 60001 88030
                   333 10270 20171 30/// 59056 60007 70000 91002
                   555 60005==
202604301700 AAXX 30171 76055 22980 80601 10252 20181 30070 40100 57002 88030
                   333 30/// 59057 60005 70000 91002==
202604301600 AAXX 30161 76055 22980 40702 10247 20191 30069 40099 52011 84030
                   333 30/// 59053 60005 70000 91002==
202604301500 AAXX 30151 76055 22980 02401 10242 20170 30072 40101 52021
                   333 30/// 59048 60007 70000 91001
                   555 60005==
202604301400 AAXX 30141 76055 22980 03001 10204 20159 30072 40102 52020
                   333 30/// 59047 60005 70000 91001==
202604301300 AAXX 30131 76055 22/// /2801 10166 30058 40089 54000
                   333 59046 60005 70000 91002==
202604301200 AAXX 30121 76055 02/// /2801 10170 30051 40082 57015 60001
                   333 59051 60007 70000 91001
                   555 60005==
202604301100 AAXX 30111 76055 22/// /0000 10172 30052 40083 57022
                   333 59049 60005 70000 91000==
202604301000 AAXX 30101 76055 22/// /2701 10175 30058 40089 57020
                   333 59038 60005 70000 91001==
202604300900 AAXX 30091 76055 22/// /0000 10190 30066 40097 57013
                   333 59037 60007 70000 91000
                   555 60005==
202604300800 AAXX 30081 76055 22/// /0000 10202 30074 40105 57007
                   333 59033 60005 70000 91000==
202604300700 AAXX 30071 76055 22/// /1401 10211 30078 40109 57004
                   333 59033 60005 70000 91001==
202604300600 AAXX 30061 76055 02/// /2001 10216 30079 40110 52001 60001
                   333 59030 60007 70000 91001
                   555 60005==
202604300500 AAXX 30051 76055 22/// /1701 10225 30081 40112 52008
                   333 59031 60005 70000 91002==
202604300400 AAXX 30041 76055 22/// /1301 10231 30082 40113 52007
                   333 59029 60005 70000 91002==
202604300300 AAXX 30031 76055 22/// /0701 10241 30078 40109 57001
                   333 59024 60007 70000 91001
                   555 60005==
202604300200 AAXX 30021 76055 22/// /1202 10243 30073 40104 57009
                   333 59025 60005 70000 91003==
202604300100 AAXX 30011 76055 22/// /0903 10247 30075 40106 57027
                   333 59024 60005 70000 91004==
202604300000 AAXX 30001 76055 02/// /1003 10253 30079 40110 57029 60001
                   333 59020 60007 70000 91005
                   555 60005==
202604292300 AAXX 29231 76055 22/// /1004 10252 30082 40113 57032
                   333 59020 60005 70000 91007==
202604292200 AAXX 29221 76055 22980 61204 10256 20169 30102 40131 57017 86010
                   333 30/// 59016 60005 70000 91004==
202604292100 AAXX 29211 76055 22980 70703 10264 20136 30108 40137 57016 87010
                   333 30/// 59019 60007 70000 91004
                   555 60005==
202604292000 AAXX 29201 76055 22980 70605 10260 20143 30114 40143 57013 87010
                   333 30/// 59020 60005 70000 91005==
202604291900 AAXX 29191 76055 22980 81303 10259 20158 30119 40148 57004 88010
                   333 30/// 59020 60005 70000 91003==

################################################################################
#  SYNOPS from 76061, Puerto Penasco, Son. (Mexico) | 31-18-01N | 113-32-53W | 41 m
################################################################################
202604301800 AAXX 30181 76061 02880 51504 10270 20203 30024 40072 57008 60001 85030
                   333 10283 20180 30/// 59061 60007 70000 91005
                   555 60005==
202604301700 AAXX 30171 76061 22880 21205 10258 20175 30024 40071 57007 82030
                   333 30/// 59060 60005 70000 91005==
202604301600 AAXX 30161 76061 22880 20904 10252 20172 30028 40076 52001 82030
                   333 30/// 59055 60005 70000 91004==
202604301500 AAXX 30151 76061 22880 30603 10222 20144 30032 40080 52008 83030
                   333 30/// 59050 60007 70000 91004
                   555 60005==
202604301400 AAXX 30141 76061 22880 40905 10190 20107 30030 40078 52001 84030
                   333 30/// 59045 60005 70000 91005==
202604301300 AAXX 30131 76061 22880 60604 10180 20118 30026 40074 57007 86030
                   333 30/// 59046 60005 70000 91004==
202604301200 AAXX 30121 76061 02860 60603 10186 20144 30024 40071 57017 60001 86030
                   333 10275 20186 30/// 59045 60007 70000 91004
                   555 60005==
202604301100 AAXX 30111 76061 22/// /0804 10193 20132 30029 40082 57023
                   333 59045 60005 70000 91005==
202604301000 AAXX 30101 76061 22/// /0803 10194 20142 30033 40086 57022
                   333 59044 60005 70000 91004==
202604300900 AAXX 30091 76061 22/// /0802 10202 20158 30041 40094 57019
                   333 59040 60007 70000 91003
                   555 60005==
202604300800 AAXX 30081 76061 22/// /1202 10212 20168 30052 40105 57005
                   333 59036 60005 70000 91002==
202604300700 AAXX 30071 76061 22/// /1201 10213 20179 30055 40108 52001
                   333 59033 60005 70000 91002==
202604300600 AAXX 30061 76061 02/// /0000 10215 20173 30060 40113 52014 60001
                   333 55052 59026 60007 70000 91000
                   555 60005==
202604300500 AAXX 30051 76061 22860 71702 10224 20189 30057 40105 52009 87030
                   333 30/// 59025 60005 70000 91003==
202604300400 AAXX 30041 76061 22860 71403 10224 20186 30054 40102 52005 87030
                   333 30/// 59025 60005 70000 91003==
202604300300 AAXX 30031 76061 22870 71003 10226 20174 30046 40093 57008 87030
                   333 30/// 59025 60007 70000 91004
                   555 60005==
202604300200 AAXX 30021 76061 22880 71603 10234 20197 30048 40096 57007 87030
                   333 30/// 59019 60005 70000 91003==
202604300100 AAXX 30011 76061 22880 73402 10238 20184 30049 40096 57011 87030
                   333 30/// 59015 60005 70000 91003==
202604300000 AAXX 30001 76061 02880 72502 10250 20180 30054 40102 57010 60001 87030
                   333 10275 30/// 59011 60007 70000 91006
                   555 60005==
202604292300 AAXX 29231 76061 22880 62407 10244 20166 30056 40103 57015 86030
                   333 30/// 59013 60005 70000 91007==
202604292200 AAXX 29221 76061 22880 72407 10250 20184 30060 40107 57019 87030
                   333 30/// 59019 60005 70000 91007==
202604292100 AAXX 29211 76061 22880 72406 10250 20169 30064 40112 57021 87030
                   333 30/// 59017 60007 70000 91007
                   555 60005==
202604292000 AAXX 29201 76061 22880 72505 10254 20181 30071 40118 57013 87030
                   333 30/// 59017 60005 70000 91007==
202604291900 AAXX 29191 76061 22880 72406 10250 20169 30079 40127 57004 87030
                   333 30/// 59013 60005 70000 91006==

################################################################################
#  SYNOPS from 76113, Altar, Son. (Mexico) | 30-42-52N | 111-50-04W | 421 m
################################################################################
202604300300 AAXX 30031 76113 22960 82202 10260 20117 39645 40114 57005 88030
                   333 30/// 59017 60007 70000 91002
                   555 60005==
202604300100 AAXX 30011 76113 22980 82703 10290 20121 39657 40130 57003 88030
                   333 30/// 58004 60005 70000 91003==
202604300000 AAXX 30001 76113 02980 82401 10299 20118 39650 40123 57004 60001 88030
                   333 10314 30/// 58000 60007 70000 91001
                   555 60005==
202604292300 AAXX 29231 76113 22980 62402 10300 20122 39653 40127 86030
                   333 30/// 58003 60005 70000 91002==
202604292200 AAXX 29221 76113 22980 62502 10310 20127 39660 40135 86030
                   333 30/// 58005 60005 70000 91002==
202604292100 AAXX 29211 76113 22980 42102 10300 20131 39654 40131 52001 84030
                   333 30/// 59008 60007 70000 91002
                   555 60005==

################################################################################
#  SYNOPS from 76118, Pilares De Nacozari, Son. (Mexico) | 30-22-30N | 109-41-29W | 1123 m
################################################################################
202604301800 AAXX 30181 76118 02/// /2601 10214 20036 38864 40083 52009 60001
                   333 59017 60007 70000 91002
                   555 60005==
202604301700 AAXX 30171 76118 22170 33602 10237 38859 40072 52008 83100
                   333 30/// 59025 60005 70000 91002==
202604301600 AAXX 30161 76118 22170 31902 10209 38859 40072 52013 83100
                   333 30/// 59025 60005 70000 91002==
202604301500 AAXX 30151 76118 22170 31902 10199 38855 40066 52011 83100
                   333 30/// 59031 60007 70000 91002
                   555 60005==
202604301400 AAXX 30141 76118 22/// /2500 10194 21048 38851 40063 52003
                   333 59033 60005 70000 91000==
202604301300 AAXX 30131 76118 22/// /0700 10190 21059 38846 40054 57003
                   333 59035 60005 70000 91001==
202604301200 AAXX 30121 76118 02/// /0400 10199 21075 38844 40049 57007 60001
                   333 59034 60007 70000 91000
                   555 60005==
202604301100 AAXX 30111 76118 22/// /1600 10207 21069 38848 40051 57009
                   333 59034 60005 70000 91001==
202604301000 AAXX 30101 76118 22/// /2500 10217 21089 38849 40049 57016
                   333 59033 60005 70000 91001==
202604300900 AAXX 30091 76118 22/// /2700 10215 21081 38851 40049 57014
                   333 59034 60007 70000 91001
                   555 60005==
202604300800 AAXX 30081 76118 22/// /2100 10222 21097 38857 40053 57013
                   333 59027 60005 70000 91001==
202604300700 AAXX 30071 76118 22/// /1401 10228 21092 38865 40060 57003
                   333 59022 60005 70000 91001==
202604300600 AAXX 30061 76118 02/// /1901 10238 21096 38865 40059 52001 60001
                   333 59022 60007 70000 91001
                   555 60005==
202604300500 AAXX 30051 76118 22/// /1901 10242 21081 38870 40064 52014
                   333 59015 60005 70000 91001==
202604300400 AAXX 30041 76118 22/// /2001 10255 21097 38868 40061 52011
                   333 59016 60005 70000 91003==
202604300300 AAXX 30031 76118 22/// /2201 10257 21096 38864 40059
                   333 59014 60007 70000 91002
                   555 60005==
202604300200 AAXX 30021 76118 22/// /1902 10265 21090 38856 40052 57001
                   333 59013 60005 70000 91003==
202604300100 AAXX 30011 76118 22/// /2401 10275 21082 38857 40057 57006
                   333 59012 60005 70000 91003==
202604292300 AAXX 29231 76118 22/// /2101 10287 21088 38857 40062 57015
                   333 59004 60005 70000 91002==
202604292200 AAXX 29221 76118 22170 23602 10288 38863 40065 57013 82100
                   333 30/// 58001 60005 70000 91002==
202604292100 AAXX 29211 76118 22170 33602 10296 38866 40071 57015 83100
                   333 30/// 59005 60007 70000 91002
                   555 60005==
202604292000 AAXX 29201 76118 22170 33602 10292 38872 40081 57012 83100
                   333 30/// 59002 60005 70000 91002==
202604291900 AAXX 29191 76118 22170 13602 10281 38876 40088 57008 81100
                   333 30/// 59003 60005 70000 91002==

################################################################################
#  SYNOPS from 76122, Nuevo Casas Grandes,  Chih. (Mexico) | 30-22-35N | 107-55-53W | 1469 m
################################################################################
202604301800 AAXX 30181 76122 02970 70000 10228 20053 38513 40073 52010 60001 87070
                   333 10228 20172 30/// 59017 60007 70000 91000
                   555 60005==
202604301700 AAXX 30171 76122 22970 70000 10212 20049 38514 40074 52009 87070
                   333 30/// 59021 60005 70000 91000==
202604301600 AAXX 30161 76122 22970 70000 10194 20058 38510 40069 54000 87020
                   333 30/// 59027 60005 70000 91000==
202604301500 AAXX 30151 76122 22970 70000 10186 20076 38503 40058 57002 87020
                   333 30/// 59035 60007 70000 91000
                   555 60005==
202604301400 AAXX 30141 76122 22970 70000 10176 20072 38505 40058 87020
                   333 30/// 59034 60005 70000 91000==
202604301300 AAXX 30131 76122 22970 70000 10180 20063 38510 40061 87010
                   333 30/// 60005 70000 91000==
202604301200 AAXX 30121 76122 02820 72301 10180 20063 38505 40051 60001 87020
                   333 10294 20180 30/// 59028 60007 70000 91001
                   555 60005==
202604300600 AAXX 30061 76122 02820 72502 10225 20053 38522 40049 52006 60001 87020
                   333 30/// 55053 59012 60007 70000 91002
                   555 60005==
202604300500 AAXX 30051 76122 22820 72502 10230 20053 38523 40047 52012 87070
                   333 30/// 59012 60005 70000 91002==
202604300400 AAXX 30041 76122 22820 62502 10236 20046 38521 40043 52012 86070
                   333 30/// 59012 60005 70000 91002==
202604300300 AAXX 30031 76122 22820 72501 10240 20050 38516 40036 52008 87070
                   333 30/// 59014 60007 70000 91002
                   555 60005==
202604300200 AAXX 30021 76122 22868 72502 10250 20044 38511 40031 52003 87070
                   333 30/// 59009 60005 70000 91005==
202604300100 AAXX 30011 76122 22870 72505 10259 20051 38509 40033 57002 87070
                   333 30/// 60005 70000 91005==
202604300000 AAXX 30001 76122 02870 72505 10270 20062 38508 40032 57007 60001 86079
                   333 10294 30/// 59003 60007 70000 91007
                   555 60005==
202604292300 AAXX 29231 76122 22870 72507 10270 20045 38508 40039 57010 87040
                   333 30/// 59004 60005 70000 91007==
202604292200 AAXX 29221 76122 22570 72507 10274 20034 38511 40049 57013 86540
                   333 30/// 59005 60005 70000 91007==
202604292100 AAXX 29211 76122 22570 72507 10272 20048 38515 40061 57015 86540
                   333 30/// 59005 60007 70000 91007
                   555 60005==
202604292000 AAXX 29201 76122 22570 72507 10280 20051 38518 40071 57017 86140
                   333 30/// 59003 60005 70000 91007==
202604291900 AAXX 29191 76122 22570 62506 10280 20039 38524 40084 57013 85140
                   333 30/// 59004 60005 70000 91006==

################################################################################
#  SYNOPS from 76160, Hermosillo, Son. (Mexico) | 29-04-42N | 110-55-49W | 210 m
################################################################################
202604301800 AAXX 30181 76160 02562 70601 10286 20085 39852 40090 57004 60001 87500
                   333 10286 20220 30/// 59029 60007 70000 91002
                   555 60005==
202604301700 AAXX 30171 76160 22562 70701 10274 20080 39859 40098 52010 87500
                   333 30/// 59027 60005 70000 91001==
202604301600 AAXX 30161 76160 22562 70601 10262 20076 39857 40096 87500
                   333 30/// 59028 60005 70000 91001==
202604301500 AAXX 30151 76160 22562 70301 10228 20074 39856 40094 87500
                   333 30/// 59034 60007 70000 91001
                   555 60005==
202604301400 AAXX 30141 76160 22562 83601 10224 20068 39849 40086 88500
                   333 30/// 59040 60005 70000 91001==
202604300500 AAXX 30051 76160 22558 82401 10282 20014 39871 40105 52404 88600
                   333 30/// 60005 70000 91003==
202604300400 AAXX 30041 76160 22558 82801 10288 20045 39864 40098 52026 88600
                   333 30/// 60005 70000 91002==
202604300300 AAXX 30031 76160 22558 82402 10296 20042 39868 40101 52012 88600
                   333 30/// 60007 70000 91005
                   555 60005==
202604300200 AAXX 30021 76160 22558 82403 10308 20001 39467 49691 57392 88500
                   333 30/// 60005 70000 91005==
202604300100 AAXX 30011 76160 22562 82403 10290 20011 39838 40072 57027 88600
                   333 30/// 60005 70000 91006==
202604300000 AAXX 30001 76160 02562 71802 10322 20089 39856 40090 57011 60001 87500
                   333 10345 30/// 59013 60007 70000 91002
                   555 60005==
202604292300 AAXX 29231 76160 22562 72302 10320 20085 39859 40094 57014 87500
                   333 30/// 59010 60005 70000 91003==
202604292200 AAXX 29221 76160 22562 72602 10326 20090 39865 40100 57010 87500
                   333 30/// 59011 60005 70000 91002==
202604292100 AAXX 29211 76160 22562 72301 10330 20082 39866 40102 57015 87500
                   333 30/// 59015 60007 70000 91002
                   555 60005==
202604292000 AAXX 29201 76160 22562 72701 10330 20076 39873 40109 57013 87500
                   333 30/// 59009 60005 70000 91002==
202604291900 AAXX 29191 76160 22562 72302 10338 20100 39874 40111 57011 87500
                   333 30/// 59010 60005 70000 91002==

################################################################################
#  SYNOPS from 76220, Temosachic, Chih. (Mexico) | 28-57-17N | 107-49-40W | 1872 m
################################################################################
202604301800 AAXX 30181 76220 02620 70103 10228 20114 38132 40101 57006 60001 85250
                   333 10246 20086 30/// 59036 60007 70000 91003
                   555 60005==
202604301700 AAXX 30171 76220 22820 70000 10226 20163 38134 40108 57007 87030
                   333 30/// 59037 60005 70000 91000==
202604301600 AAXX 30161 76220 22820 70000 10194 20137 38135 40113 57003 87030
                   333 30/// 59039 60005 70000 91000==
202604301500 AAXX 30151 76220 22820 70000 10162 20111 38138 40117 52001 87030
                   333 30/// 59037 60007 70000 91000
                   555 60005==
202604301400 AAXX 30141 76220 22820 60000 10124 20076 38140 40117 85031
                   333 30/// 59036 60005 70000 91000==
202604301300 AAXX 30131 76220 22820 50000 10086 20045 38138 40107 83035
                   333 30/// 59035 60005 70000 91000==
202604301200 AAXX 30121 76220 02810 30000 10104 20058 38136 40096 60001 83030
                   333 10294 20104 30/// 59033 60007 70000 91000
                   555 60005==
202604300500 AAXX 30051 76220 22805 60000 10168 20030 38168 40081 52021 86040
                   333 30/// 59009 60005 70000 91000==
202604300400 AAXX 30041 76220 22805 62402 10184 20034 38161 40067 52014 86040
                   333 30/// 59013 60005 70000 91002==
202604300300 AAXX 30031 76220 22805 42001 10212 20046 38151 40054 52009 84020
                   333 30/// 59016 60007 70000 91002
                   555 60005==
202604300200 AAXX 30021 76220 22810 72603 10226 20044 38148 40053 52006 87020
                   333 30/// 59014 60005 70000 91003==
202604300100 AAXX 30011 76220 22510 72606 10238 20053 38148 40061 52003 83510
                   333 30/// 59009 60005 70000 91006==
202604300000 AAXX 30001 76220 02510 53003 10260 20063 38142 40064 57007 60001 85500
                   333 10294 30/// 59011 60007 70000 91006
                   555 60005==
202604292300 AAXX 29231 76220 22720 63104 10262 20113 38141 40074 57011 81431
                   333 30/// 59007 60005 70000 91006==
202604292200 AAXX 29221 76220 22720 72403 10264 20127 38144 40089 57014 81434
                   333 30/// 59004 60005 70000 91007==
202604292100 AAXX 29211 76220 22720 72504 10272 20115 38149 40103 57019 81431
                   333 30/// 59004 60007 70000 91004
                   555 60005==
202604292000 AAXX 29201 76220 22820 52702 10280 20121 38153 40118 57018 81031
                   333 30/// 59005 60005 70000 91004==
202604291900 AAXX 29191 76220 22820 52604 10272 20111 38159 40134 57015 81031
                   333 30/// 58001 60005 70000 91006==

################################################################################
#  SYNOPS from 76225, Chihuahua, Chih. (Mexico) | 28-40-14N | 106-01-49W | 1399 m
################################################################################
202604301800 AAXX 30181 76225 02960 71103 10298 20014 38570 40041 57010 60001 84049
                   333 10320 20188 30/// 59045 60007 70000 91005
                   555 60005==
202604301700 AAXX 30171 76225 22959 70502 10290 20018 38575 40049 57004 85047
                   333 31/// 59045 60005 70000 91004==
202604301600 AAXX 30161 76225 22958 70701 10272 20041 38580 40056 52004 86078
                   333 30/// 59039 60005 70000 91003==
202604301500 AAXX 30151 76225 22958 60201 10255 20037 38580 40058 52007 85078
                   333 30/// 59035 60007 70000 91001
                   555 60005==
202604301400 AAXX 30141 76225 22758 72701 10208 20053 38579 40055 52003 86570
                   333 30/// 59033 60005 70000 91002==
202604301300 AAXX 30131 76225 22758 72701 10201 20045 38576 40049 57005 86570
                   333 30/// 59034 60005 70000 91003==
202604301200 AAXX 30121 76225 02940 71101 10202 20049 38573 40041 57011 60001 85080
                   333 10338 20190 30/// 59035 60007 70000 91001
                   555 60005==
202604301100 AAXX 30111 76225 22920 72301 10202 20054 38576 40039 57012 87020
                   333 30/// 59029 60005 70000 91002==
202604301000 AAXX 30101 76225 22920 71101 10210 20034 38581 40039 57006 87020
                   333 30/// 59025 60005 70000 91002==
202604300900 AAXX 30091 76225 22920 72702 10224 20039 38584 40038 57005 87020
                   333 30/// 59026 60007 70000 91003
                   555 60005==
202604300800 AAXX 30081 76225 22920 72701 10212 20048 38588 40040 57002 87020
                   333 30/// 59022 60005 70000 91002==
202604300700 AAXX 30071 76225 22820 80701 10218 20068 38587 40034 54000 85520
                   333 30/// 59028 60005 70000 91002==
202604300600 AAXX 30061 76225 02720 81601 10238 20062 38589 40032 52007 60001 82570
                   333 30/// 55027 59023 60007 70000 91002
                   555 60005==
202604300500 AAXX 30051 76225 22920 82904 10260 20043 38590 40032 52018 83047
                   333 30/// 59020 60005 70000 91006==
202604300400 AAXX 30041 76225 22920 82301 10244 20056 38587 40028 52019 82047
                   333 30/// 59013 60005 70000 91002==
202604300300 AAXX 30031 76225 22820 73602 10280 20044 38582 40022 52018 84020
                   333 30/// 59012 60007 70000 91003
                   555 60005==
202604300200 AAXX 30021 76225 22820 72902 10282 20054 38572 40012 54000 84020
                   333 30/// 59015 60005 70000 91004==
202604300100 AAXX 30011 76225 22860 50202 10304 20034 38568 40009 57010 83010
                   333 30/// 59018 60005 70000 91003==
202604300000 AAXX 30001 76225 02860 50503 10319 20028 38564 40008 57023 60001 85070
                   333 10338 30/// 59020 60007 70000 91005
                   555 60005==
202604292300 AAXX 29231 76225 22860 61402 10326 20026 38572 40022 57023 86070
                   333 30/// 59012 60005 70000 91004==
202604292200 AAXX 29221 76225 22860 71802 10317 20050 38578 40033 57028 87070
                   333 30/// 59013 60005 70000 91004==
202604292100 AAXX 29211 76225 22860 82304 10304 20040 38587 40047 57028 85570
                   333 30/// 59009 60007 70000 91007
                   555 60005==
202604292000 AAXX 29201 76225 22960 71403 10320 20033 38595 40059 57025 87070
                   333 30/// 59006 60005 70000 91007==
202604291900 AAXX 29191 76225 22960 83202 10304 20046 38606 40075 57013 88070
                   333 30/// 59004 60005 70000 91004==

################################################################################
#  SYNOPS from 76243, Piedras Negras, Coah. (Mexico) | 28-41-01N | 100-32-55W | 249 m
################################################################################
202604301800 AAXX 30181 76243 02450 80602 10226 20208 39810 40095 57001 60001 88500
                   333 10236 20210 30/// 59005 60007 70000 91002
                   555 60005==
202604301700 AAXX 30171 76243 22450 80902 10216 20213 39810 40094 57001 88500
                   333 30/// 59010 60005 70000 91003==
202604301600 AAXX 30161 76243 22450 80902 10216 20204 39813 40096 52012 88500
                   333 30/// 59003 60005 70000 91003==
202604301500 AAXX 30151 76243 22450 80902 10222 20207 39811 40093 52010 88500
                   333 30/// 59005 60007 70000 91002
                   555 60005==
202604301400 AAXX 30141 76243 22450 80902 10224 20212 39811 40092 88500
                   333 30/// 59005 60005 70000 91003==
202604301300 AAXX 30131 76243 22430 80902 10226 20214 39801 40081 88500
                   333 30/// 59012 60005 70000 91003==
202604301200 AAXX 30121 76243 02410 80902 10226 20214 39801 40080 60001 88500
                   333 10345 20218 30/// 59003 60007 70000 91002
                   555 60005==
202604300600 AAXX 30061 76243 02910 03003 10270 20238 39803 40080 52017 60001
                   333 10345 20248 30/// 55042 59001 60007 70000
                   91004 555 60005==
202604300500 AAXX 30051 76243 22910 00902 10278 20247 39801 40078 52022
                   333 30/// 58001 60005 70000 91003==
202604300400 AAXX 30041 76243 22910 01101 10286 20252 39795 40071 52023
                   333 30/// 59002 60005 70000 91002==
202604300300 AAXX 30031 76243 22910 01202 10294 20261 39786 40062 52015
                   333 30/// 59009 60007 70000 91003
                   555 60005==
202604300200 AAXX 30021 76243 22410 31302 10302 20269 39779 40055 52005 83400
                   333 30/// 59012 60005 70000 91003==
202604300100 AAXX 30011 76243 22430 41102 10314 20276 39772 40048 57008 84400
                   333 30/// 59016 60005 70000 91004==
202604300000 AAXX 30001 76243 02450 51103 10322 20281 39771 40048 57023 60001 85400
                   333 10345 30/// 59013 60007 70000 91003
                   555 60005==
202604292300 AAXX 29231 76243 22450 61603 10324 20284 39774 40051 57031 86500
                   333 30/// 59013 60005 70000 91003==
202604292200 AAXX 29221 76243 22450 60902 10330 20284 39780 40058 57027 86500
                   333 30/// 59012 60005 70000 91003==
202604292100 AAXX 29211 76243 22450 63602 10326 20288 39794 40073 57021 86500
                   333 30/// 59011 60007 70000 91002
                   555 60005==
202604292000 AAXX 29201 76243 22450 80402 10312 20279 39805 40085 57015 88500
                   333 30/// 59010 60005 70000 91002==
202604291900 AAXX 29191 76243 22450 81001 10304 20280 39807 40087 57009 88500
                   333 30/// 59013 60005 70000 91002==

################################################################################
#  SYNOPS from 76253, Santa Rosalia, Bcs (Mexico) | 27-20-16N | 112-16-21W | 64 m
################################################################################
202604301800 AAXX 3018/ 76253 02881 6//// 10266 20185 30012 40085 52009 60001 86070
                   333 10285 20210 30/// 59035 60007 70000
                   555 60005==
202604301700 AAXX 3017/ 76253 22881 6//// 10272 20181 30007 40081 52003 86070
                   333 30/// 59035 60005 70000==
202604301600 AAXX 3016/ 76253 22881 6//// 10280 20176 30006 40080 52004 86070
                   333 30/// 59036 60005 70000==
202604301500 AAXX 3015/ 76253 22881 7//// 10254 20174 30002 40076 52002 87070
                   333 30/// 59043 60007 70000
                   555 60005==
202604301400 AAXX 30141 76253 22/// /2502 10253 20049 30004 40081 52003
                   333 59043 60005 70000 91003==
202604301300 AAXX 30131 76253 22/// /3002 10246 20043 30002 40079 54000
                   333 59042 60005 70000 91003==
202604301200 AAXX 30121 76253 02/// /3203 10250 20036 30000 40077 57006 60001
                   333 59037 60007 70000 91004
                   555 60005==
202604301100 AAXX 30111 76253 22/// /3005 10248 20040 30001 40078 57013
                   333 59039 60005 70000 91007==
202604301000 AAXX 30101 76253 22/// /3104 10252 20059 30002 40079 57018
                   333 59034 60005 70000 91006==
202604300900 AAXX 30091 76253 22/// /0101 10239 20075 30006 40083 57021
                   333 59037 60007 70000 91002
                   555 60005==
202604300800 AAXX 30081 76253 22/// /0201 10247 20078 30014 40091 57015
                   333 59037 60005 70000 91002==
202604300700 AAXX 30071 76253 22/// /2202 10252 20078 30020 40097 57009
                   333 59036 60005 70000 91004==
202604300600 AAXX 30061 76253 02/// /2901 10245 20063 30027 40104 52004 60001
                   333 59025 60007 70000 91002
                   555 60005==
202604300500 AAXX 30051 76253 22/// /3202 10243 20094 30029 40106 52009
                   333 59025 60005 70000 91003==
202604300400 AAXX 30041 76253 22/// /3301 10236 20126 30029 40106 52005
                   333 59022 60005 70000 91001==
202604300300 AAXX 30031 76253 22/// /0901 10242 20118 30023 40100 57003
                   333 59027 60007 70000 91002
                   555 60005==
202604300200 AAXX 30021 76253 22/// /3402 10245 20124 30020 40097 57009
                   333 59027 60005 70000 91004==
202604300100 AAXX 30011 76253 22/// /3404 10257 20095 30024 40101 57008
                   333 59016 60005 70000 91007==
202604300000 AAXX 30001 76253 02/// /3403 10259 20116 30026 40103 57011 60001
                   333 59014 60007 70000 91006
                   555 60005==
202604292300 AAXX 29231 76253 22/// /0104 10278 20118 30029 40106 57012
                   333 59013 60005 70000 91007==
202604292200 AAXX 29221 76253 22/// /3603 10267 20127 30032 40109 57010
                   333 59014 60005 70000 91006==
202604292100 AAXX 2921/ 76253 22981 4//// 10252 20206 30037 40111 57009 84030
                   333 30/// 59011 60007 70000
                   555 60005==
202604292000 AAXX 2920/ 76253 22981 5//// 10264 20206 30041 40114 57002 85030
                   333 30/// 59018 60005 70000==
202604291900 AAXX 2919/ 76253 22981 4//// 10248 20185 30042 40116 54000 84030
                   333 30/// 59011 60005 70000==

################################################################################
#  SYNOPS from 76256, Empalme, Son. (Mexico) | 27-57-26N | 110-47-50W | 10 m
################################################################################
202604301800 AAXX 30181 76256 02980 60000 10350 20012 30077 40088 57004 60001 86030
                   333 10350 20252 30/// 59038 60007 70000 91000
                   555 60005==
202604301700 AAXX 30171 76256 22980 60000 10336 20000 30079 40090 57001 86030
                   333 30/// 59040 60005 70000 91000==
202604301600 AAXX 30161 76256 22980 60000 10309 21003 30080 40092 52007 86030
                   333 30/// 59039 60005 70000 91000==
202604301500 AAXX 30151 76256 22980 60000 10296 20000 30081 40092 52007 86030
                   333 30/// 59037 60007 70000 91000
                   555 60005==
202604301400 AAXX 30141 76256 22580 62201 10264 21004 30080 40091 52004 86400
                   333 30/// 60005 70000 91001==
202604301300 AAXX 30131 76256 22880 62201 10252 20017 30073 40084 86030
                   333 30/// 59043 60005 70000 91002==
202604301200 AAXX 30121 76256 02960 02202 10255 20029 30074 40086 60001
                   333 10350 20255 30/// 59042 60007 70000 91002
                   555 60005==
202604301100 AAXX 30111 76256 22960 02502 10258 20028 30076 40087
                   333 30/// 59038 60005 70000 91002==
202604300400 AAXX 3004/ 76256 22/// ///// 10290 20023 30091 40100 52005
                   333 60005 70000==
202604300300 AAXX 3003/ 76256 22/// ///// 10297 20012 30090 40099 52007
                   333 59020 60007 70000
                   555 60005==
202604300200 AAXX 3002/ 76256 22/// ///// 10311 20014 30083 40092 52003
                   333 59020 60005 70000==
202604300100 AAXX 30011 76256 22980 53007 10322 20049 30087 40098 57003 85060
                   333 30/// 59018 60005 70000 91007==
202604300000 AAXX 30001 76256 02980 53006 10342 20033 30083 40094 57014 60001 85060
                   333 10350 30/// 59025 60007 70000 91006
                   555 60005==
202604292300 AAXX 2923/ 76256 22/// ///// 10358 20007 30080 57025
                   333 59029 60005 70000==
202604292200 AAXX 29221 76256 22980 02807 10331 20091 30090 40101 57021
                   333 30/// 59024 60005 70000 91007==
202604292100 AAXX 29211 76256 22980 02806 10339 20084 30097 40108 57019
                   333 30/// 59022 60007 70000 91006
                   555 60005==
202604292000 AAXX 29201 76256 22980 02805 10333 20078 30105 40117 57014
                   333 30/// 59012 60005 70000 91005==
202604291900 AAXX 29191 76256 22980 02802 10320 20097 30110 40122 57009
                   333 30/// 59013 60005 70000 91002==

################################################################################
#  SYNOPS from 76258, Ciudad Obregon, Son. (Mexico) | 27-22-20N | 109-55-56W | 37 m
################################################################################
202604301800 AAXX 30181 76258 02875 43606 10350 20072 30031 40073 57003 60001 82052
                   333 10352 20200 30/// 59041 60007 70000 91006
                   555 60005==
202604301700 AAXX 30171 76258 22875 53604 10320 20078 30036 40078 52003 82054
                   333 30/// 59039 60005 70000 91005==
202604301600 AAXX 30161 76258 22875 63404 10270 20089 30039 40082 52011 84052
                   333 30/// 59041 60005 70000 91004==
202604301500 AAXX 30151 76258 22875 60703 10250 20112 30034 40077 52011 84072
                   333 30/// 59046 60007 70000 91003
                   555 60005==
202604301400 AAXX 30141 76258 22870 73603 10216 20094 30033 40076 52006 81022
                   333 30/// 59045 60005 70000 91004==
202604301300 AAXX 3013/ 76258 22/// ///// 30028 40069 52001
                   333 59045 60005 70000==
202604301200 AAXX 3012/ 76258 02/// ///// 30023 40064 57010 60001
                   333 59046 60007 70000
                   555 60005==
202604301100 AAXX 3011/ 76258 22/// ///// 30027 40068 57010
                   333 59039 60005 70000==
202604301000 AAXX 3010/ 76258 22/// ///// 30027 40068 57015
                   333 59044 60005 70000==
202604300900 AAXX 3009/ 76258 22/// ///// 30033 40074 57017
                   333 59045 60007 70000
                   555 60005==
202604300800 AAXX 3008/ 76258 22/// ///// 30037 40078 57015
                   333 59046 60005 70000==
202604300700 AAXX 3007/ 76258 22/// ///// 30042 40083 57009
                   333 59039 60005 70000==
202604300600 AAXX 3006/ 76258 02/// ///// 30050 40091 52005 60001
                   333 59033 60007 70000
                   555 60005==
202604300500 AAXX 3005/ 76258 22/// ///// 30052 40093 52009
                   333 59031 60005 70000==
202604300400 AAXX 3004/ 76258 22/// ///// 30051 40092 52009
                   333 59032 60005 70000==
202604300300 AAXX 30031 76258 22950 02503 10244 20084 30045 40087 52006
                   333 30/// 59032 60007 70000 91003
                   555 60005==
202604300200 AAXX 30021 76258 22970 62604 10282 20063 30043 40085 52001 86008
                   333 30/// 59028 60005 70000 91007==
202604300100 AAXX 3001/ 76258 22/// ///// 30042 40083 57007
                   333 59028 60005 70000==
202604300000 AAXX 3000/ 76258 02/// ///// 30039 40080 57013 60001
                   333 59031 60007 70000
                   555 60005==
202604292300 AAXX 2923/ 76258 22/// ///// 30042 40083 57016
                   333 59024 60005 70000==
202604292200 AAXX 2922/ 76258 22/// ///// 30049 40090 57017
                   333 59022 60005 70000==
202604292100 AAXX 2921/ 76258 22/// ///// 30052 40093 57020
                   333 59021 60007 70000
                   555 60005==
202604292000 AAXX 2920/ 76258 22/// ///// 30058 40100 57017
                   333 59014 60005 70000==
202604291900 AAXX 2919/ 76258 22/// ///// 30066 40108 57014
                   333 59013 60005 70000==

################################################################################
#  SYNOPS from 76305, Loreto, B. C. S. (Mexico) | 26-00-42N | 111-20-57W | 6 m
################################################################################
202604301800 AAXX 30181 76305 02970 20502 10333 20125 30085 40092 52001 60001 82030
                   333 10336 20224 30/// 59040 60007 70000 91004
                   555 60005==
202604301700 AAXX 30171 76305 22970 30502 10305 20144 30088 40094 52005 83030
                   333 30/// 59039 60005 70000 91003==
202604301600 AAXX 30161 76305 22970 50402 10300 20187 30086 40092 52010 85030
                   333 30/// 59039 60005 70000 91003==
202604301500 AAXX 30151 76305 22970 32401 10270 20173 30084 40091 52014 83030
                   333 30/// 59043 60007 70000 91002
                   555 60005==
202604301400 AAXX 30141 76305 22970 30401 10238 20160 30083 40089 52011 83030
                   333 30/// 59042 60005 70000 91002==
202604301300 AAXX 30131 76305 22970 53101 10236 20143 30076 40083 52001 85030
                   333 30/// 59042 60005 70000 91001==
202604301200 AAXX 30121 76305 02970 53101 10238 20151 30070 40077 57010 60001 85030
                   333 10325 20232 30/// 59041 60007 70000 91002
                   555 60005==
202604301100 AAXX 30111 76305 22970 52201 10240 20164 30072 40079 57015 85030
                   333 30/// 59038 60005 70000 91002==
202604301000 AAXX 30101 76305 22970 52101 10242 20186 30075 40082 57018 85030
                   333 30/// 59041 60005 70000 91001==
202604300900 AAXX 30091 76305 22/// /1901 10239 20172 30080 40088 57018
                   333 59039 60007 70000 91001
                   555 60005==
202604300800 AAXX 30081 76305 22/// /0000 10242 20162 30087 40095 57018
                   333 59041 60005 70000 91000==
202604300700 AAXX 30071 76305 22/// /0000 10248 20178 30093 40101 57014
                   333 59040 60005 70000 91000==
202604300600 AAXX 30061 76305 02/// /1501 10250 20153 30098 40106 57007 60001
                   333 59034 60007 70000 91001
                   555 60005==
202604300500 AAXX 30051 76305 22/// /1701 10249 20149 30105 40113 52007
                   333 59028 60005 70000 91001==
202604300400 AAXX 30041 76305 22/// /2101 10257 20154 30107 40115 52013
                   333 59021 60005 70000 91003==
202604300300 AAXX 30031 76305 22970 72202 10270 20173 30105 40112 52009 85055
                   333 30/// 59014 60007 70000 91003
                   555 60005==
202604300200 AAXX 30021 76305 22970 60202 10280 20149 30098 40105 52001 84055
                   333 30/// 59019 60005 70000 91004==
202604300100 AAXX 30011 76305 22970 50304 10292 20123 30094 40101 57007 83035
                   333 30/// 59025 60005 70000 91006==
202604300000 AAXX 30001 76305 02970 50403 10298 20167 30096 40103 57018 60001 82035
                   333 10325 30/// 59019 60007 70000 91006
                   555 60005==
202604292300 AAXX 29231 76305 22970 70403 10300 20147 30097 40104 57020 83055
                   333 30/// 59022 60005 70000 91005==
202604292200 AAXX 29221 76305 22970 40503 10318 20145 30101 40108 57028 84005
                   333 30/// 59017 60005 70000 91006==
202604292100 AAXX 29211 76305 22970 20504 10314 20169 30114 40121 57012 82010
                   333 30/// 59008 60007 70000 91006
                   555 60005==
202604292000 AAXX 29201 76305 22970 30503 10315 20145 30117 40124 57009 83010
                   333 30/// 59009 60005 70000 91005==
202604291900 AAXX 29191 76305 22970 60502 10304 20159 30129 40136 52004 86010
                   333 30/// 59004 60005 70000 91004==

################################################################################
#  SYNOPS from 76311, Choix, Sin. (Mexico) | 26-43-00N | 108-19-31W | 236 m
################################################################################
202604301800 AAXX 30181 76311 12/80 /0000 10369 20138 39792 40059 57006 60002 8///4
                   333 10381 20195 30/// 59047 70000 91000==
202604301700 AAXX 30171 76311 02/80 /0000 10358 20144 39797 40065 57003
                   333 30/// 59049 70000 91000==
202604301600 AAXX 30161 76311 02/80 /0000 10317 20134 39799 40067 52004
                   333 30/// 59050 70000 91000==
202604301500 AAXX 30151 76311 22/80 /0000 10263 20120 39798 40066 52008
                   333 30/// 59050 60002 70000 91000==
202604301400 AAXX 30141 76311 02/80 /0000 10220 20109 39800 40068 52006
                   333 30/// 59045 70000 91000==
202604301300 AAXX 30131 76311 02/70 /0000 10208 20117 39795 40062 52001 8///2
                   333 30/// 59049 70000 91000==
202604301200 AAXX 30121 76311 02/20 /0000 10218 20115 39790 40056 57010 60001 8///5
                   333 10428 20205 30/// 59052 60007 70000 91000==
202604301100 AAXX 30111 76311 02/20 /0000 10227 20116 39794 40058 8///7
                   333 30/// 59050 70000 91000==
202604301000 AAXX 30101 76311 22/20 /0000 10239 20118 39794 40057 57021 8///7
                   333 30/// 59050 60005 70000 91000==
202604300900 AAXX 30091 76311 22/20 /0000 10246 20117 39800 40062 57020 8///7
                   333 30/// 59047 60007 70000 91000
                   555 60005==
202604300700 AAXX 30071 76311 22/20 /0000 10267 20134 39815 40075 57002 8///7
                   333 30/// 59029 60005 70000 91000==
202604300600 AAXX 30061 76311 02/20 /0000 10278 20134 39820 40079 52009 60001 8///5
                   333 30/// 59022 60007 70000 91000
                   555 60005==
202604300500 AAXX 30051 76311 22/20 /0000 10298 20140 39818 40077 52017 8///5
                   333 30/// 59021 60005 70000 91000==
202604300400 AAXX 30041 76311 22/20 /0000 10310 20133 39817 40075 52018 8///7
                   333 30/// 59015 60005 70000 91000==
202604300300 AAXX 30031 76311 22920 80000 10328 20143 39811 40068 52016 88007
                   333 30/// 59015 60007 70000 91000
                   555 60005==
202604300200 AAXX 30021 76311 22970 80000 10343 20150 39801 40058 52007 88007
                   333 30/// 59022 60005 70000 91000==
202604300100 AAXX 30011 76311 22980 40000 10363 20167 39799 40057 52003 84005
                   333 30/// 59022 60005 70000 91000==
202604300000 AAXX 30001 76311 02980 40000 10382 20178 39795 40054 57011 60001 84005
                   333 10428 30/// 59026 60007 70000 91000
                   555 60005==
202604292300 AAXX 29231 76311 22980 40000 10414 20161 39794 40055 57022 84005
                   333 30/// 59030 60005 70000 91000==
202604292200 AAXX 29221 76311 02/80 /0000 10415 20153 39796 40060 57032 8///5
                   333 30/// 59031 70000 91000==
202604292100 AAXX 29211 76311 22/80 /0000 10414 20146 39806 40072 57033 8///5
                   333 30/// 59026 60007 70000 91000
                   555 60005==
202604292000 AAXX 29201 76311 22/80 /0000 10403 20157 39816 40083 57030 8///6
                   333 30/// 59021 60005 70000 91000==
202604291900 AAXX 29191 76311 02/80 /0000 10399 20283 39828 40097 57021 8///5
                   333 30/// 59013 70000 91000==

################################################################################
#  SYNOPS from 76323, Hidalgo Del Parral, Chih. (Mexico) | 26-55-07N | 105-40-35W | 1748 m
################################################################################
202604301800 AAXX 30181 76323 02960 03001 10314 20252 38234 40026 57007 60001
                   333 10320 20168 30/// 59046 60007 70000 91001
                   555 60005==
202604301700 AAXX 30171 76323 22860 53001 10286 20043 38238 40038 57002 82036
                   333 30/// 59038 60005 70000 91001==
202604301600 AAXX 30161 76323 22860 50000 10272 20041 38239 40043 57001 85030
                   333 30/// 59036 60005 70000 91000==
202604301500 AAXX 30151 76323 22860 80000 10234 20032 38241 40048 52004 82038
                   333 30/// 59036 60007 70000 91000
                   555 60005==
202604301400 AAXX 30141 76323 22860 70000 10192 20026 38240 40045 82036
                   333 30/// 59037 60005 70000 91000==
202604301300 AAXX 30131 76323 22960 80000 10176 20040 38240 40036 88020
                   333 30/// 59034 60005 70000 91000==
202604301200 AAXX 30121 76323 02910 50000 10188 20036 38237 40021 60001 85006
                   333 10354 20180 30/// 59032 60007 70000 91000
                   555 60005==
202604300600 AAXX 30061 76323 02810 60000 10236 20023 38258 40014 52011 60001 86020
                   333 30/// 55070 59021 60007 70000 91000
                   555 60005==
202604300500 AAXX 30051 76323 22810 80000 10240 20031 38257 40010 52019 88020
                   333 30/// 59018 60005 70000 91000==
202604300400 AAXX 30041 76323 22810 80000 10246 20047 38254 40003 52020 88020
                   333 30/// 59016 60005 70000 91000==
202604300300 AAXX 30031 76323 22810 80000 10258 20051 38247 49995 52014 88020
                   333 30/// 59019 60007 70000 91000
                   555 60005==
202604300200 AAXX 30021 76323 22860 83601 10284 20045 38238 49986 52001 88020
                   333 30/// 59019 60005 70000 91001==
202604300100 AAXX 30011 76323 22860 63601 10310 20013 38234 49984 57017 81038
                   333 30/// 59020 60005 70000 91001==
202604300000 AAXX 30001 76323 02860 32101 10326 21011 38233 49989 57023 60001 81038
                   333 10354 30/// 59016 60007 70000 91001
                   555 60005==
202604292300 AAXX 29231 76323 22860 62101 10334 20001 38242 40007 57031 82038
                   333 30/// 59005 60005 70000 91001==
202604292200 AAXX 29221 76323 22860 53301 10352 20022 38250 40020 57026 82068
                   333 30/// 59003 60005 70000 91001==
202604292100 AAXX 29211 76323 22960 43301 10348 20012 38257 40032 57024 84006
                   333 30/// 59009 60007 70000 91001
                   555 60005==
202604292000 AAXX 29201 76323 22960 53301 10342 20005 38273 40058 57003 85006
                   333 30/// 58001 60005 70000 91001==

################################################################################
#  SYNOPS from 76342, Monclova, Coah. (Mexico) | 26-54-01N | 101-26-01W | 616 m
################################################################################
202604301800 AAXX 30181 76342 02862 60202 10310 20216 39386 40059 57013 60001 83074
                   333 10315 20248 30/// 59039 60007 70000 91003
                   555 60005==
202604301700 AAXX 30171 76342 22462 60202 10303 20214 39396 40071 57003 86600
                   333 30/// 59031 60005 70000 91003==
202604301600 AAXX 30161 76342 22460 83602 10269 20202 39402 40077 52005 88700
                   333 30/// 59020 60005 70000 91003==
202604301500 AAXX 30151 76342 22460 83602 10258 20198 39399 40073 52008 88700
                   333 30/// 59018 60007 70000 91003
                   555 60005==
202604301400 AAXX 30141 76342 22460 83602 10253 20200 39399 40071 88700
                   333 30/// 59017 60005 70000 91002==
202604301300 AAXX 30131 76342 22460 83401 10254 20219 39397 40067 52010 88700
                   333 30/// 60005 70000 91003==
202604301200 AAXX 30121 76342 02940 03602 10258 20220 39391 40059 60001
                   333 10394 20250 30/// 59023 60007 70000 91002
                   555 60005==
202604301000 AAXX 30101 76342 22940 00502 10270 20221 39387 40050 52002
                   333 30/// 59025 60005 70000 91002==
202604300800 AAXX 30081 76342 22940 00901 10290 20211 39384 40043 57004
                   333 30/// 59025 60005 70000 91002==
202604300700 AAXX 30071 76342 22940 01401 10292 20213 39385 40043 52000
                   333 30/// 59021 60005 70000 91002==
202604300600 AAXX 30061 76342 02940 01602 10302 20208 39387 40043 52008 60001
                   333 10394 20260 30/// 59017 60007 70000 91002
                   555 60005==
202604300500 AAXX 30051 76342 22940 01601 10310 20204 39388 40044 52023
                   333 30/// 59012 60005 70000 91002==
202604300400 AAXX 30041 76342 22940 01402 10320 20202 39385 40041 52018
                   333 30/// 59009 60005 70000 91002==
202604300300 AAXX 30031 76342 22940 00702 10328 20202 39378 40033 52009
                   333 30/// 59009 60007 70000 91002
                   555 60005==
202604300200 AAXX 30021 76342 22940 00201 10340 20195 39365 40020 57013
                   333 30/// 59013 60005 70000 91001==
202604300100 AAXX 30011 76342 22840 60501 10350 20193 39367 40023 57027 86030
                   333 30/// 59007 60005 70000 91002==
202604300000 AAXX 30001 76342 02962 00503 10368 20187 39369 40026 57032 60001
                   333 10394 30/// 59003 60007 70000 91003
                   555 60005==
202604292300 AAXX 29231 76342 22862 70703 10384 20178 39378 40038 57030 87030
                   333 30/// 58005 60005 70000 91003==
202604292200 AAXX 29221 76342 22862 60703 10388 20203 39394 40057 57022 86030
                   333 30/// 58014 60005 70000 91003==
202604292100 AAXX 29211 76342 22862 62903 10380 20207 39401 40067 57024 86030
                   333 30/// 58014 60007 70000 91003
                   555 60005==
202604292000 AAXX 29201 76342 22962 00702 10374 20224 39408 40076 57020
                   333 30/// 58011 60005 70000 91003==
202604291900 AAXX 29191 76342 22962 00903 10362 20233 39416 40086 57006
                   333 30/// 58009 60005 70000 91003==

################################################################################
#  SYNOPS from 76373, Tepehuanes, Dgo. (Mexico) | 25-19-55N | 105-43-25W | 1821 m
################################################################################
202604301800 AAXX 30181 76373 02975 03404 10293 21057 38171 40080 57019 60001
                   333 10345 20085 30/// 59035 60007 70000 91004
                   555 60005==
202604301700 AAXX 30171 76373 22975 03304 10254 21057 38181 40099 57012
                   333 30/// 59035 60005 70000 91004==
202604301600 AAXX 30161 76373 22975 02904 10236 21047 38186 40108 57002
                   333 30/// 59036 60005 70000 91004==
202604301500 AAXX 30151 76373 22975 03004 10195 21036 38190 40114 52003
                   333 30/// 59034 60007 70000 91004
                   555 60005==
202604301400 AAXX 30141 76373 22975 02903 10133 21007 38193 40115 52007
                   333 30/// 59032 60005 70000 91003==
202604301300 AAXX 3013/ 76373 22/// ///// 10085 21019 38188 40094 54000
                   333 59033 60005 70000==
202604301200 AAXX 3012/ 76373 02/// ///// 10100 21020 38187 40080 57003 60001
                   333 59029 60007 70000==
202604301100 AAXX 3011/ 76373 22/// ///// 10110 21035 38186 40066 57008
                   333 59031 60005 70000==
202604301000 AAXX 3010/ 76373 02/// ///// 10127 21036 38188 40056 57009
                   333 59025 70000==
202604300900 AAXX 3009/ 76373 22/// ///// 10134 21025 38190 40047 57009
                   333 59025 60007 70000
                   555 60005==
202604300800 AAXX 3008/ 76373 22/// ///// 10146 20008 38194 40042 57006
                   333 59025 60005 70000==
202604300700 AAXX 3007/ 76373 22/// ///// 10176 21002 38197 40037 52001
                   333 59023 60005 70000==
202604300600 AAXX 3006/ 76373 02/// ///// 10178 21015 38199 40033 52009 60001
                   333 59021 60007 70000
                   555 60005==
202604300500 AAXX 3005/ 76373 22/// ///// 10206 21032 38200 40030 52016
                   333 59020 60005 70000==
202604300400 AAXX 3004/ 76373 22/// ///// 10220 21027 38196 40024 52019
                   333 59019 60005 70000==
202604300300 AAXX 3003/ 76373 22/// ///// 10241 21033 38190 40019 52024
                   333 59018 60007 70000==
202604300200 AAXX 3002/ 76373 22/// ///// 10264 21033 38184 40018 52021
                   333 59018 60005 70000==
202604300100 AAXX 3001/ 76373 02/// ///// 10289 21034 38177 40019 52015
                   333 59017 70000==
202604300000 AAXX 30001 76373 02975 02506 10322 21037 38166 40002 57007 60001
                   333 10345 30/// 59018 60007 70000 91006
                   555 60005==
202604292300 AAXX 29231 76373 22975 02405 10335 21022 38163 40010 57021
                   333 30/// 59018 60005 70000 91005==
202604292200 AAXX 29221 76373 22975 01107 10340 21021 38162 40021 57032
                   333 30/// 59019 60005 70000 91007==
202604292100 AAXX 29211 76373 22975 01207 10337 21018 38173 40046 57033
                   333 30/// 59013 60007 70000 91007
                   555 60005==
202604292000 AAXX 29201 76373 22975 00505 10329 21031 38184 40070 57032
                   333 30/// 59011 60005 70000 91005==
202604291900 AAXX 29191 76373 22975 01005 10318 21032 38194 40092 57028
                   333 30/// 59012 60005 70000 91005==

################################################################################
#  SYNOPS from 76382, Torreon, Coah. (Mexico) | 25-31-11N | 103-24-58W | 1121 m
################################################################################
202604301800 AAXX 30181 76382 02980 51804 10357 20211 38845 40029 57015 60001 85008
                   333 10366 20225 30/// 59047 60007 70000 91004
                   555 60005==
202604301700 AAXX 30171 76382 22980 53203 10336 20214 38852 40039 57007 85001
                   333 30/// 59048 60005 70000 91003==
202604301600 AAXX 30161 76382 22980 61402 10313 20221 38857 40047 52002 86002
                   333 30/// 59044 60005 70000 91002==
202604301500 AAXX 30151 76382 22980 40902 10289 20216 38860 40051 52009 84002
                   333 30/// 59042 60007 70000 91002
                   555 60005==
202604301400 AAXX 30141 76382 22980 63201 10252 20195 38859 40050 52010 86004
                   333 30/// 59034 60005 70000 91002==
202604301300 AAXX 30131 76382 22980 60000 10236 20174 38855 40043 52015 86001
                   333 30/// 59031 60005 70000 91002==
202604301200 AAXX 30121 76382 02460 63201 10240 20163 38851 40035 52007 60001 82501
                   333 10400 20225 30/// 59033 60007 70000 91004
                   555 60005==
202604301100 AAXX 30111 76382 22960 63201 10238 20145 38849 40028 52005 86001
                   333 30/// 59027 60005 70000 91003==
202604301000 AAXX 30101 76382 22960 43201 10238 20137 38840 40013 57010 84001
                   333 30/// 59036 60005 70000 91001==
202604300900 AAXX 30091 76382 22960 30901 10248 20157 38844 40012 57010 83001
                   333 30/// 59028 60007 70000 91001
                   555 60005==
202604300800 AAXX 30081 76382 22460 60202 10259 20150 38844 40008 57010 82501
                   333 30/// 59028 60005 70000 91003==
202604300700 AAXX 30071 76382 22460 60000 10268 20170 38850 40011 57001 82510
                   333 30/// 59025 60005 70000 91000==
202604300600 AAXX 30061 76382 02860 42901 10276 20158 38854 40012 52005 60001 84010
                   333 10400 20200 30/// 55041 59021 60007 70000
                   91002 555 60005==
202604300500 AAXX 30051 76382 22460 60000 10277 20175 38854 40009 52012 86500
                   333 30/// 59021 60005 70000 91000==
202604300400 AAXX 30041 76382 22460 60000 10286 20188 38851 40003 52011 86500
                   333 30/// 59020 60005 70000 91000==
202604300300 AAXX 30031 76382 22460 60000 10299 20188 38849 49999 52009 84508
                   333 30/// 59017 60007 70000 91000
                   555 60005==
202604300200 AAXX 30021 76382 22460 60000 10322 20197 38842 49991 52002 86500
                   333 30/// 59016 60005 70000 91000==
202604300100 AAXX 30011 76382 22480 80903 10344 20185 38840 49991 57010 86501
                   333 30/// 59015 60005 70000 91003==
202604300000 AAXX 30001 76382 02480 81603 10362 20201 38840 49995 57014 60001 86501
                   333 10400 30/// 59012 60007 70000 91003
                   555 60005==
202604292300 AAXX 29231 76382 22480 73601 10384 20190 38840 40000 57035 84401
                   333 30/// 59013 60005 70000 91001==
202604292200 AAXX 29221 76382 22480 72503 10388 20195 38850 40016 57034 84401
                   333 30/// 59008 60005 70000 91003==
202604292100 AAXX 29211 76382 22480 73603 10380 20192 38854 40025 57038 84501
                   333 30/// 59013 60007 70000 91003
                   555 60005==
202604292000 AAXX 29201 76382 22580 73401 10370 20178 38875 40054 57025 84504
                   333 30/// 59010 60005 70000 91003==
202604291900 AAXX 29191 76382 22580 73403 10384 20162 38884 40068 57017 82504
                   333 30/// 59011 60005 70000 91007==

################################################################################
#  SYNOPS from 76390, Saltillo, Coah. (Mexico) | 25-21-05N | 101-01-25W | 1796 m
################################################################################
202604301800 AAXX 30181 76390 02950 20202 10288 20170 38192 40050 57012 60001 82006
                   333 10298 20162 30/// 59038 60007 70000 91005
                   555 60005==
202604301700 AAXX 30171 76390 22950 20202 10270 20168 38202 40067 57002 82006
                   333 30/// 59032 60005 70000 91005==
202604301600 AAXX 30161 76390 22950 40202 10234 20169 38204 40073 52002 84006
                   333 30/// 59030 60005 70000 91004==
202604301500 AAXX 30151 76390 22950 81601 10212 20166 38204 40073 52002 88006
                   333 30/// 59028 60007 70000 91003
                   555 60005==
202604301400 AAXX 30141 76390 22850 72701 10190 20149 38204 40071 52004 83026
                   333 30/// 59030 60005 70000 91002==
202604301300 AAXX 30131 76390 22860 61601 10168 20128 38202 40065 52007 83025
                   333 30/// 59026 60005 70000 91002==
202604301200 AAXX 30121 76390 02958 41601 10175 20129 38202 40059 52003 60001 84005
                   333 10342 20164 30/// 59016 60007 70000 91002
                   555 60005==
202604301100 AAXX 30111 76390 22950 52001 10172 20134 38200 40050 85005
                   333 30/// 59016 60005 70000 91002==
202604301000 AAXX 30101 76390 22950 61801 10177 20133 38195 40035 57013 86005
                   333 30/// 59021 60005 70000 91002==
202604300900 AAXX 30091 76390 22950 51801 10181 20140 38199 40033 57019 85005
                   333 30/// 59021 60007 70000 91002
                   555 60005==
202604300700 AAXX 30071 76390 22950 62501 10199 20158 38208 40029 57009 86005
                   333 30/// 59024 60005 70000 91002==
202604300600 AAXX 30061 76390 02950 02501 10203 20155 38218 40035 52004 60001
                   333 10342 20198 30/// 59016 60007 70000 91002
                   555 60005==
202604300500 AAXX 30051 76390 22950 02701 10210 20164 38218 40030 52011
                   333 30/// 59018 60005 70000 91002==
202604300400 AAXX 30041 76390 22950 52901 10234 20179 38217 40023 52015 85005
                   333 30/// 59019 60005 70000 91002==
202604300300 AAXX 30031 76390 22950 02902 10241 20187 38214 40016 52014
                   333 30/// 59016 60007 70000 91003
                   555 60005==
202604300200 AAXX 30021 76390 22950 72902 10255 20196 38207 40005 52005 87005
                   333 30/// 59019 60005 70000 91004==
202604300100 AAXX 30011 76390 22958 83202 10270 20208 38202 40000 54000 88006
                   333 30/// 59022 60005 70000 91003==
202604300000 AAXX 30001 76390 02959 71803 10292 20197 38200 40000 57006 60001 87006
                   333 10342 30/// 59016 60007 70000 91003
                   555 60005==
202604292300 AAXX 29231 76390 22559 73203 10322 20231 38202 40006 57016 87500
                   333 30/// 59012 60005 70000 91003==
202604292200 AAXX 29221 76390 22559 61803 10316 20194 38202 40011 57020 86400
                   333 30/// 59012 60005 70000 91003==
202604292100 AAXX 29211 76390 22559 62902 10332 20225 38206 40020 57024 83406
                   333 30/// 59012 60007 70000 91003
                   555 60005==
202604292000 AAXX 29201 76390 22959 52502 10310 20232 38218 40041 57016 85005
                   333 30/// 59008 60005 70000 91003==
202604291900 AAXX 29191 76390 22959 42903 10308 20181 38222 40052 57012 84005
                   333 30/// 59012 60005 70000 91003==

################################################################################
#  SYNOPS from 76402, Ciudad Constitucion, B. C. S. (Mexico) | 25-00-36N | 111-39-48W | 49 m
################################################################################
202604301800 AAXX 30181 76402 02950 32907 10324 20052 30046 40103 57001 60001 83005
                   333 10330 20150 36/// 59036 60007 70000 91012
                   555 60005==
202604301700 AAXX 30171 76402 22958 42905 10308 20084 30050 40107 52005 84005
                   333 30/// 59034 60005 70000 91008==
202604301600 AAXX 30161 76402 22857 62702 10252 20132 30046 40104 52000 82035
                   333 30/// 59039 60005 70000 91003==
202604301500 AAXX 30151 76402 22857 62501 10204 20146 30047 40104 52001 82035
                   333 30/// 59039 60007 70000 91003
                   555 60005==
202604301400 AAXX 30141 76402 22856 63001 10176 20137 30045 40102 57001 83035
                   333 30/// 59043 60005 70000 91002==
202604301300 AAXX 30131 76402 22856 42701 10158 20137 30046 40103 57001 84050
                   333 30/// 59045 60005 70010 91001==
202604301200 AAXX 30121 76402 02810 12801 10164 20139 30046 40103 57013 60011 81060
                   333 10340 20160 30/// 59047 60007 70010 91002
                   555 60005==
202604301100 AAXX 30111 76402 22810 22702 10172 20137 30046 40103 82050
                   333 30/// 59041 60005 70010 91002==
202604301000 AAXX 30101 76402 22810 61901 10180 20145 30047 40103 57022 86060
                   333 30/// 59038 60005 70010 91001==
202604300900 AAXX 30091 76402 22810 62601 10188 20139 30058 40115 57008 86060
                   333 30/// 59032 60017 70010 91003
                   555 60005==
202604300800 AAXX 30081 76402 22/// /2802 10192 30056 40111 57015
                   333 59033 60005 70010 91003==
202604300700 AAXX 30071 76402 22510 52803 10194 20138 30069 40125 52001 85600
                   333 30/// 59035 60015 70010 91004==
202604300600 AAXX 30061 76402 02/// /2804 10196 30066 40121 52001 60001
                   333 59035 60007 70000 91006
                   555 60005==
202604300500 AAXX 30051 76402 22910 22804 10206 20128 30071 40127 52006 82005
                   333 30/// 59031 60005 70000 91004==
202604300400 AAXX 30041 76402 22910 32602 10218 20118 30068 40124 57002 83005
                   333 30/// 59033 60005 70000 91003==
202604300300 AAXX 30031 76402 22810 82803 10232 20114 30065 40121 57006 84035
                   333 30/// 59016 60007 70000 91005
                   555 60005==
202604300200 AAXX 30021 76402 22850 82904 10244 20112 30065 40121 52002 84035
                   333 30/// 59005 60005 70000 91007==
202604300100 AAXX 30011 76402 22858 73005 10260 20102 30070 40126 52007 85055
                   333 30/// 59004 60005 70000 91010==
202604300000 AAXX 30001 76402 02856 72908 10278 20077 30072 40128 52003 60001 82035
                   333 10340 30/// 59003 60007 70000 91011
                   555 60005==
202604292300 AAXX 29231 76402 22858 72807 10300 20063 30063 40119 57011 82035
                   333 30/// 59016 60005 70000 91013==
202604292200 AAXX 29221 76402 22858 72808 10328 20054 30063 40120 57015 82057
                   333 30/// 59015 60005 70000 91011==
202604292100 AAXX 29211 76402 22958 72706 10324 20022 30068 40125 57014 87007
                   333 30/// 59010 60007 70000 91010
                   555 60005==
202604292000 AAXX 29201 76402 22958 72806 10330 20064 30074 40131 57010 87007
                   333 30/// 59007 60005 70000 91009==
202604291900 AAXX 29191 76402 22958 72705 10330 20051 30078 40135 57008 87007
                   333 30/// 59004 60005 70000 91008==

################################################################################
#  SYNOPS from 76405, La Paz, Bcs (Mexico) | 24-07-43N | 110-19-14W | 22 m
################################################################################
202604301800 AAXX 30181 76405 02880 43602 10353 20107 30069 40095 57009 60001 81011
                   333 10358 20216 30/// 59036 60007 70000 91005
                   555 60005==
202604301700 AAXX 30171 76405 22880 62101 10322 20144 30072 40097 57002 81016
                   333 30/// 59038 60005 70000 91004==
202604301600 AAXX 30161 76405 22980 61702 10275 20130 30081 40106 52010 86001
                   333 30/// 59030 60005 70000 91006==
202604301500 AAXX 30151 76405 22880 61803 10252 20132 30078 40104 52010 84051
                   333 30/// 59032 60007 70000 91005
                   555 60005==
202604301400 AAXX 30141 76405 22975 61602 10234 20134 30074 40100 52005 86001
                   333 30/// 59036 60005 70000 91005==
202604301300 AAXX 30131 76405 22857 61702 10228 20149 30070 40096 52005 82021
                   333 30/// 59039 60005 70000 91005==
202604301200 AAXX 30121 76405 02820 21702 10220 20160 30068 40093 57006 60001 82030
                   333 10339 20216 30/// 59036 60007 70000 91004
                   555 60005==
202604301100 AAXX 30111 76405 22820 32102 10223 20164 30069 40095 57010 83030
                   333 30/// 59034 60005 70000 91003==
202604301000 AAXX 30101 76405 22/// /1602 10225 20148 30065 40092 57017
                   333 59035 60005 70000 91004==
202604300900 AAXX 30091 76405 22/// /1702 10235 20177 30074 40101 57014
                   333 59029 60007 70000 91004
                   555 60005==
202604300800 AAXX 30081 76405 22/// /2201 10240 20189 30079 40106 57009
                   333 59035 60005 70000 91002==
202604300700 AAXX 30071 76405 22/// /2101 10248 20205 30082 40109 57006
                   333 59035 60005 70000 91002==
202604300600 AAXX 30061 76405 02/// /1301 10251 20168 30088 40115 52006 60001
                   333 55106 59028 60007 70000 91001
                   555 60005==
202604300500 AAXX 30051 76405 22/// /3501 10256 20202 30088 40115 52009
                   333 59030 60005 70000 91003==
202604300400 AAXX 30041 76405 22920 53001 10268 20190 30088 40113 52009 85008
                   333 30/// 59025 60005 70000 91003==
202604300300 AAXX 30031 76405 22920 53401 10271 20194 30082 40107 52004 85008
                   333 30/// 59028 60007 70000 91003
                   555 60005==
202604300200 AAXX 30021 76405 22970 53302 10287 20145 30079 40104 57000 85006
                   333 30/// 59024 60005 70000 91004==
202604300100 AAXX 30011 76405 22880 63202 10289 20183 30079 40103 57005 81016
                   333 30/// 59021 60005 70000 91007==
202604300000 AAXX 30001 76405 02880 63004 10323 20147 30078 40103 57013 60001 81016
                   333 10339 30/// 59021 60007 70000 91006
                   555 60005==
202604292300 AAXX 29231 76405 22980 63202 10321 20160 30080 40105 57015 86006
                   333 30/// 59019 60005 70000 91005==
202604292200 AAXX 29221 76405 22980 63304 10330 20178 30083 40109 57018 86006
                   333 30/// 59014 60005 70000 91006==
202604292100 AAXX 29211 76405 22980 53303 10324 20149 30091 40116 57014 85006
                   333 30/// 59011 60007 70000 91008
                   555 60005==
202604292000 AAXX 29201 76405 22980 53204 10322 20196 30094 40120 57015 85006
                   333 30/// 59011 60005 70000 91008==
202604291900 AAXX 29191 76405 22980 53305 10329 20140 30102 40127 57009 85001
                   333 30/// 59008 60005 70000 91008==

################################################################################
#  SYNOPS from 76412, Culiacan, Sin. (Mexico) | 24-38-05N | 107-26-27W | 21 m
################################################################################
202604301800 AAXX 30181 76412 02866 71801 10324 20106 30053 40077 57001 60001 87050
                   333 10328 20175 30/// 59025 60007 70000 91001
                   555 60005==
202604301700 AAXX 30171 76412 22866 63601 10296 20148 30054 40078 52005 86050
                   333 30/// 59034 60005 70000 91001==
202604301600 AAXX 30161 76412 22866 60602 10271 20170 30055 40079 52011 86050
                   333 30/// 59036 60005 70000 91002==
202604301500 AAXX 30151 76412 22866 71701 10236 20178 30054 40078 52009 87020
                   333 30/// 59039 60007 70000 91001
                   555 60005==
202604301400 AAXX 30141 76412 22866 51001 10215 20171 30048 40073 52000 85020
                   333 30/// 59041 60005 70000 91002==
202604301300 AAXX 30131 76412 22866 30902 10185 20145 30043 40068 57004 83020
                   333 30/// 59045 60005 70000 91002==
202604301200 AAXX 30121 76412 02966 01002 10181 20152 30044 40069 57005 60001
                   333 10404 20175 30/// 59041 60007 70000 91002
                   555 60005==
202604301100 AAXX 30111 76412 22966 00902 10175 20144 30048 40072 57007
                   333 30/// 59037 60005 70000 91002==
202604301000 AAXX 30101 76412 22966 01102 10178 20137 30047 40071 57008
                   333 30/// 60005 70000 91002==
202604300900 AAXX 30091 76412 22966 01202 10184 20138 30049 40073 57012
                   333 30/// 59040 60007 70000 91002
                   555 60005==
202604300800 AAXX 30081 76412 22966 01602 10197 20149 30055 40079 57008
                   333 30/// 60005 70000 91002==
202604300700 AAXX 30071 76412 22966 01002 10199 20126 30055 40078 57006
                   333 30/// 59037 60005 70000 91002==
202604300600 AAXX 30061 76412 02966 00000 10216 20140 30061 40085 52005 60001
                   333 30/// 55094 60007 70000 91001
                   555 60005==
202604300500 AAXX 30051 76412 22866 12401 10234 20158 30063 40087 52014 81010
                   333 30/// 60005 70000 91001==
202604300400 AAXX 30041 76412 22866 13002 10253 20152 30060 40084 52014 81010
                   333 30/// 59030 60005 70000 91002==
202604300300 AAXX 30031 76412 22866 22602 10265 20123 30056 40080 52011 82010
                   333 30/// 59027 60007 70000 91002
                   555 60005==
202604300200 AAXX 30021 76412 22866 22602 10291 20116 30050 40073 52002 82010
                   333 30/// 59028 60005 70000 91003==
202604300100 AAXX 30011 76412 22866 32603 10321 20153 30047 40070 57001 83010
                   333 30/// 59022 60005 70000 91005==
202604300000 AAXX 30001 76412 02866 32804 10355 20129 30045 40068 57008 60001 83010
                   333 10404 30/// 59022 60007 70000 91005
                   555 60005==
202604292300 AAXX 29231 76412 22866 42806 10348 20137 30047 40071 57014 84010
                   333 30/// 59017 60005 70000 91007==
202604292200 AAXX 29221 76412 22866 42706 10382 20081 30047 40071 57024 84010
                   333 30/// 59020 60005 70000 91006==
202604292100 AAXX 29211 76412 22866 32705 10401 20072 30053 40077 57025 83020
                   333 30/// 59018 60007 70000 91005
                   555 60005==
202604292000 AAXX 29201 76412 22866 32903 10393 20071 30061 40085 57026 83020
                   333 30/// 59016 60005 70000 91004==
202604291900 AAXX 29191 76412 22866 32804 10379 20060 30071 40095 57020 83020
                   333 30/// 59011 60005 70000 91004==

################################################################################
#  SYNOPS from 76423, Durango, Dgo. (Mexico) | 24-03-41N | 104-36-01W | 1873 m
################################################################################
202604301800 AAXX 30181 76423 02982 30902 10308 20019 38128 40058 57016 60001 83004
                   333 10320 20153 30/// 59041 60007 70000 91002
                   555 60005==
202604301700 AAXX 30171 76423 22982 30603 10272 20026 38135 40072 57007 83004
                   333 30/// 59040 60005 70000 91003==
202604301600 AAXX 30161 76423 22982 40701 10260 20038 38141 40082 52002 84004
                   333 30/// 59036 60005 70000 91001==
202604301500 AAXX 30151 76423 22984 12701 10206 20042 38144 40086 52008 81002
                   333 30/// 59033 60007 70000 91001
                   555 60005==
202604301400 AAXX 30141 76423 22984 12302 10168 20030 38143 40081 81002
                   333 30/// 59034 60005 70000 91002==
202604301300 AAXX 30131 76423 22984 42402 10158 20025 38140 40070 84004
                   333 30/// 59031 60005 70000 91002==
202604301200 AAXX 30121 76423 02960 42402 10167 20031 38136 40057 57003 60001 84004
                   333 10350 20159 30/// 59028 60007 70000 91002
                   555 60005==
202604300900 AAXX 30091 76423 22960 00000 10178 20030 38139 40031 57009
                   333 30/// 60007 70000 91000
                   555 60005==
202604300800 AAXX 30081 76423 22960 00000 10186 20032 38143 40028 57004
                   333 30/// 60005 70000 91000==
202604300700 AAXX 30071 76423 22960 00000 10206 20025 38146 40024 52000
                   333 30/// 60005 70000 91000==
202604300600 AAXX 30061 76423 02960 20000 10220 20023 38148 40020 52011 60001 82004
                   333 10350 20151 30/// 55095 20000 59024 60007
                   70000 91000 555 60005==
202604300500 AAXX 30051 76423 22960 82103 10237 20033 38146 40013 52019 88004
                   333 30/// 59023 60005 70000 91003==
202604300400 AAXX 30041 76423 22960 72104 10248 21002 38146 40011 52020 87004
                   333 30/// 59018 60005 70000 91004==
202604300300 AAXX 30031 76423 22960 52502 10264 21023 38137 40001 52018 82074
                   333 30/// 59022 60007 70000 91003
                   555 60005==
202604300200 AAXX 30021 76423 22960 42602 10282 21059 38127 49992 52008 84004
                   333 30/// 59024 60005 70000 91004==
202604300100 AAXX 30011 76423 22980 72503 10310 21043 38126 49997 54000 87004
                   333 30/// 59021 60005 70000 91004==
202604300000 AAXX 30001 76423 02982 72203 10332 20012 38119 49997 57017 60001 87004
                   333 10350 30/// 59022 60007 70000 91003
                   555 60005==
202604292300 AAXX 29231 76423 22982 81502 10342 20014 38119 40008 57028 88004
                   333 30/// 59029 60005 70000 91003==
202604292200 AAXX 29221 76423 22982 81303 10334 20009 38126 40026 57032 88004
                   333 30/// 59015 60005 70000 91003==
202604292100 AAXX 29211 76423 22982 71702 10320 20005 38136 40048 57033 87004
                   333 30/// 59009 60007 70000 91002
                   555 60005==
202604292000 AAXX 29201 76423 22982 71101 10328 20028 38147 40070 57028 87004
                   333 30/// 59004 60005 70000 91002==
202604291900 AAXX 29191 76423 22982 61402 10320 20042 38157 40089 57020 82034
                   333 30/// 59001 60005 70000 91002==

################################################################################
#  SYNOPS from 76458, Colonia Juan Carras-Co Mazatlan, Sin. (Mexico) | 23-13-02N | 106-24-40W | 3 m
################################################################################
202604301800 AAXX 30181 76458 02970 11704 10296 20230 30081 40085 52012 60001 81002
                   333 10304 20222 30/// 59027 60007 70000 91007
                   555 60005==
202604301700 AAXX 30171 76458 22970 21702 10296 20205 30077 40081 52008 82001
                   333 30/// 59034 60005 70000 91003==
202604301600 AAXX 30161 76458 22970 11602 10286 20220 30072 40075 52007 81001
                   333 30/// 59039 60005 70000 91003==
202604301500 AAXX 30151 76458 22970 21201 10266 20221 30070 40073 52004 82001
                   333 30/// 59041 60007 70000 91002
                   555 60005==
202604301400 AAXX 30141 76458 22970 11201 10244 20227 30070 40073 52002 81001
                   333 30/// 59035 60005 70000 91002==
202604301300 AAXX 30131 76458 22970 10701 10232 20216 30065 40068 57007 81001
                   333 30/// 59038 60005 70000 91001==
202604301200 AAXX 30121 76458 02960 11001 10235 20218 30066 40069 57009 60001 81002
                   333 10304 20225 30/// 59039 60007 70000 91001
                   555 60005==
202604301100 AAXX 30111 76458 22960 13500 10239 20218 30067 40071 57018 81002
                   333 30/// 59037 60005 70000 91001==
202604301000 AAXX 30101 76458 22960 70101 10240 20210 30072 40076 57015 87007
                   333 30/// 59033 60005 70000 91002==
202604300900 AAXX 30091 76458 22960 73301 10244 20211 30075 40078 57020 87007
                   333 30/// 59033 60007 70000 91002
                   555 60005==
202604300800 AAXX 30081 76458 22960 63001 10251 20222 30086 40089 57012 86002
                   333 30/// 59028 60005 70000 91003==
202604300700 AAXX 30071 76458 22960 62601 10254 20222 30087 40090 57008 86002
                   333 30/// 59029 60005 70000 91003==
202604300600 AAXX 30061 76458 02960 72401 10258 20226 30095 40098 52013 60001 87007
                   333 30/// 55093 59021 60007 70000 91003
                   555 60005==
202604300500 AAXX 30051 76458 22960 03001 10261 20219 30098 40101 52019
                   333 30/// 59018 60005 70000 91002==
202604300400 AAXX 30041 76458 22960 02401 10264 20221 30095 40098 52019
                   333 30/// 59016 60005 70000 91002==
202604300300 AAXX 30031 76458 22960 02501 10265 20211 30082 40086 52009
                   333 30/// 59028 60007 70000 91004
                   555 60005==
202604300200 AAXX 30021 76458 22960 62301 10268 20220 30079 40082 52006 86001
                   333 30/// 59023 60005 70000 91004==
202604300100 AAXX 30011 76458 22970 52002 10279 20232 30076 40079 57003 85001
                   333 30/// 59022 60005 70000 91006==
202604300000 AAXX 30001 76458 02970 62603 10287 20211 30074 40077 57012 60001 86006
                   333 10304 30/// 59023 60007 70000 91006
                   555 60005==
202604292300 AAXX 29231 76458 22970 62603 10284 20209 30073 40076 57019 86006
                   333 30/// 59025 60005 70000 91007==
202604292200 AAXX 29221 76458 22970 72704 10286 20205 30079 40082 57025 87006
                   333 30/// 59021 60005 70000 91007==
202604292100 AAXX 29211 76458 22970 62503 10286 20231 30085 40089 57023 86006
                   333 30/// 59019 60007 70000 91007
                   555 60005==
202604292000 AAXX 29201 76458 22970 62303 10289 20219 30092 40095 57020 86006
                   333 30/// 59015 60005 70000 91005==
202604291900 AAXX 29191 76458 22970 62402 10283 20232 30104 40107 57007 86006
                   333 30/// 59009 60005 70000 91006==

################################################################################
#  SYNOPS from 76471, Sombrerete, Zac. (Mexico) | 23-38-19N | 103-38-11W | 2352 m
################################################################################
202604301800 AAXX 30181 76471 02966 03604 10296 20028 37687 40042 57008 60001
                   333 10296 20126 30/// 59031 60007 70000 91007
                   555 60005==
202604301700 AAXX 30171 76471 22966 03604 10287 20036 37693 40056 52001
                   333 30/// 59031 60005 70000 91008==
202604301600 AAXX 30161 76471 22966 23504 10258 20051 37699 40069 52010 82001
                   333 30/// 59028 60005 70000 91007==
202604301500 AAXX 30151 76471 22966 13601 10204 20044 37695 40067 52008 81001
                   333 30/// 59029 60007 70000 91002
                   555 60005==
202604301400 AAXX 30141 76471 22966 13601 10161 20029 37693 40061 81001
                   333 30/// 59029 60005 70000 91002==
202604301300 AAXX 30131 76471 22966 41801 10128 20011 37689 40050 84010
                   333 30/// 59026 60005 70000 91002==
202604301200 AAXX 30121 76471 02966 41801 10130 20004 37687 40036 60001 84010
                   333 10345 20128 30/// 59026 60007 70000 91002
                   555 60005==
202604300600 AAXX 30061 76471 02866 50000 10206 20000 37702 49990 52010 60001 85010
                   333 10345 20129 30/// 55073 20000 59016 60007
                   70000 91000 555 60005==
202604300500 AAXX 30051 76471 22866 60000 10214 20003 37701 49982 52016 86010
                   333 30/// 59017 60005 70000 91000==
202604300400 AAXX 30041 76471 22866 33001 10222 20000 37697 49973 52016 83010
                   333 30/// 59020 60005 70000 91002==
202604300300 AAXX 30031 76471 22866 32901 10237 21005 37692 49964 52012 82041
                   333 30/// 59017 60007 70000 91002
                   555 60005==
202604300200 AAXX 30021 76471 22866 50000 10250 21008 37685 49957 52005 85010
                   333 30/// 59020 60005 70000 91001==
202604300100 AAXX 30011 76471 22866 63501 10276 21003 37681 49956 57006 86010
                   333 30/// 59020 60005 70000 91002==
202604300000 AAXX 30001 76471 02866 62901 10300 20006 37679 49963 57016 60001 86010
                   333 10345 30/// 59017 60007 70000 91003
                   555 60005==
202604292300 AAXX 29231 76471 22866 72901 10314 20013 37681 49976 57023 87010
                   333 30/// 59014 60005 70000 91003==
202604292200 AAXX 29221 76471 22866 72701 10320 20022 37686 49995 57025 87010
                   333 30/// 59012 60005 70000 91003==
202604292100 AAXX 29211 76471 22866 62401 10327 20021 37695 40017 57023 86010
                   333 30/// 59007 60007 70000 91003
                   555 60005==
202604292000 AAXX 29201 76471 22866 62801 10322 20029 37703 40039 57021 86010
                   333 30/// 59005 60005 70000 91003==
202604291900 AAXX 29191 76471 22866 61201 10317 20028 37711 40060 57016 86010
                   333 30/// 59007 60005 70000 91002==

################################################################################
#  SYNOPS from 76491, Ciudad Victoria, Tamps. (Mexico) | 23-44-32N | 099-10-11W | 335 m
################################################################################
202604301800 AAXX 30181 76491 02760 80000 10326 20263 39692 40067 57013 60001 88400
                   333 10390 20230 30/// 59019 60007 70000 91000
                   555 60005==
202604301700 AAXX 30171 76491 22660 63601 10306 20253 39703 40079 57001 86400
                   333 30/// 59012 60005 70000 91001==
202604301600 AAXX 30161 76491 22960 03601 10294 20237 39708 40085 52010
                   333 30/// 59013 60005 70000 91001==
202604301500 AAXX 30151 76491 22960 00000 10276 20226 39705 40082 52012
                   333 30/// 59013 60007 70000 91000
                   555 60005==
202604301400 AAXX 30141 76491 22960 00000 10248 20215 39704 40080 52012
                   333 30/// 59011 60005 70000 91000==
202604301300 AAXX 30131 76491 22560 20000 10228 20207 39698 40073 52012 82400
                   333 30/// 59015 60005 70000 91000==
202604301200 AAXX 30121 76491 02956 00000 10232 20211 39693 40067 52002 60001
                   333 10390 20230 30/// 59012 60007 70000 91000
                   555 60005==
202604301100 AAXX 30111 76491 22956 03601 10240 20216 39692 40064 57001
                   333 30/// 59009 60005 70000 91001==
202604301000 AAXX 30101 76491 22956 01800 10244 20217 39686 40057 57011
                   333 30/// 59015 60005 70000 91001==
202604300900 AAXX 30091 76491 22956 01800 10244 20220 39691 40061 57011
                   333 30/// 59013 60007 70000 91001
                   555 60005==
202604300800 AAXX 30081 76491 22956 00000 10254 20225 39693 40061 57009
                   333 30/// 59019 60005 70000 91000==
202604300700 AAXX 30071 76491 22956 00000 10252 20226 39697 40064 52002
                   333 30/// 59026 60005 70000 91000==
202604300600 AAXX 30061 76491 02956 00000 10258 20232 39702 40069 52013 60001
                   333 10390 20205 30/// 55100 20000 59026 60007
                   70000 91000 555 60005==
202604300500 AAXX 30051 76491 22956 00000 10272 20249 39702 40068 52016
                   333 30/// 59028 60005 70000 91000==
202604300400 AAXX 30041 76491 22956 00000 10290 20259 39695 40060 52015
                   333 30/// 59026 60005 70000 91000==
202604300300 AAXX 30031 76491 22956 00000 10310 20269 39689 40054 52019
                   333 30/// 59024 60007 70000 91000
                   555 60005==
202604300200 AAXX 30021 76491 22956 03601 10320 20279 39686 40051 52020
                   333 30/// 59009 60005 70000 91001==
202604300100 AAXX 30011 76491 22956 00000 10340 20287 39680 40046 52007
                   333 30/// 59017 60005 70000 91000==
202604300000 AAXX 30001 76491 02760 20902 10366 20292 39670 40036 57011 60001 82400
                   333 10390 30/// 59022 60007 70000 91003
                   555 60005==
202604292300 AAXX 29231 76491 22760 20902 10380 20301 39666 40034 57026 82400
                   333 30/// 59032 60005 70000 91003==
202604292200 AAXX 29221 76491 22760 20000 10376 20303 39673 40043 57030 82400
                   333 30/// 59028 60005 70000 91000==
202604292100 AAXX 29211 76491 22960 00000 10370 20307 39681 40053 57030
                   333 30/// 59020 60007 70000 91000
                   555 60005==
202604292000 AAXX 29201 76491 22960 00000 10364 20307 39692 40066 57023
                   333 30/// 59003 60005 70000 91000==
202604291900 AAXX 29191 76491 22760 20000 10348 20295 39703 40078 57018 82400
                   333 30/// 58002 60005 70000 91000==

################################################################################
#  SYNOPS from 76499, Soto La Marina, Tamps. (Mexico) | 23-45-51N | 098-12-28W | 19 m
################################################################################
202604301800 AAXX 30181 76499 02957 51304 10364 20241 30043 40065 57015 60001 85004
                   333 10367 20202 30/// 60007 70000 91004
                   555 60005==
202604301500 AAXX 30151 76499 22958 00000 10304 20256 30058 40080 52011
                   333 30/// 60007 70000 91000
                   555 60005==
202604301400 AAXX 30141 76499 22958 00000 10250 20226 30055 40077
                   333 30/// 59017 60005 70000 91000==
202604301200 AAXX 30121 76499 02958 00000 10204 20199 30047 40069 60001
                   333 10388 20202 30/// 59021 60007 70000 91000
                   555 60005==

################################################################################
#  SYNOPS from 76519, Colotlan, Jal. (Mexico) | 22-06-26N | 103-16-04W | 1674 m
################################################################################
202604301800 AAXX 3018/ 76519 02960 2//// 10338 20027 38307 40059 57013 60001 82001
                   333 10340 20127 30/// 59033 60007 70000
                   555 60005==
202604301700 AAXX 3017/ 76519 22960 8//// 10320 20044 38317 40078 54000 88002
                   333 30/// 59030 60005 70000==
202604301600 AAXX 3016/ 76519 22960 8//// 10268 20069 38320 40087 52007 88002
                   333 30/// 59027 60005 70000==
202604301500 AAXX 3015/ 76519 22960 8//// 10214 20073 38320 40088 52009 88002
                   333 30/// 59027 60007 70000
                   555 60005==
202604301400 AAXX 3014/ 76519 22960 7//// 10168 20050 38317 40082 87002
                   333 30/// 59028 60005 70000==
202604301300 AAXX 3013/ 76519 22960 6//// 10135 20021 38313 40069 86001
                   333 30/// 59027 60005 70000==
202604301200 AAXX 3012/ 76519 02960 4//// 10133 20030 38311 40056 60001 84001
                   333 10378 20127 30/// 59026 60007 70000
                   555 60005==
202604300600 AAXX 3006/ 76519 02960 0//// 10203 20055 38317 49998 52013 60001
                   333 10378 20200 30/// 55104 59023 60007 70000
                   555 60005==
202604300500 AAXX 3005/ 76519 22960 0//// 10218 20058 38316 49990 52020
                   333 30/// 59020 60005 70000==
202604300400 AAXX 3004/ 76519 22960 0//// 10253 20060 38312 49981 52019
                   333 30/// 59024 60005 70000==
202604300300 AAXX 3003/ 76519 22960 1//// 10264 20045 38304 49971 52011 81001
                   333 30/// 59027 60007 70000
                   555 60005==
202604300200 AAXX 3002/ 76519 22960 2//// 10306 20060 38296 49963 57004 82001
                   333 30/// 59024 60005 70000==
202604300100 AAXX 3001/ 76519 22960 4//// 10335 20042 38293 49966 57014 84001
                   333 30/// 59024 60005 70000==
202604300000 AAXX 3000/ 76519 02960 4//// 10358 20026 38293 49976 57022 60001 84001
                   333 10378 30/// 59016 60007 70000
                   555 60005==
202604292300 AAXX 2923/ 76519 22960 4//// 10372 20024 38300 49996 57023 84001
                   333 30/// 59017 60005 70000==
202604292200 AAXX 2922/ 76519 22960 4//// 10376 20033 38307 40016 57025 84001
                   333 30/// 59013 60005 70000==
202604292100 AAXX 2921/ 76519 22960 4//// 10374 20041 38315 40038 57025 84001
                   333 30/// 59014 60007 70000
                   555 60005==
202604292000 AAXX 2920/ 76519 22960 6//// 10362 20040 38323 40059 57024 86001
                   333 30/// 59013 60005 70000==
202604291900 AAXX 2919/ 76519 22960 8//// 10346 20046 38332 40080 57015 88002
                   333 30/// 59015 60005 70000==

################################################################################
#  SYNOPS from 76525, Zacatecas, Zac. La Bufa, Zac.  (Mexico) | 22-46-44N | 102-34-00W | 2512 m
################################################################################
202604301800 AAXX 30181 76525 02980 13305 10236 21117 37466 40026 57004 60001 81005
                   333 10240 20184 30/// 59030 60007 70000 91006
                   555 60005==
202604301700 AAXX 30171 76525 22980 63306 10228 21172 37471 40034 52004 86005
                   333 30/// 59030 60005 70000 91006==
202604301600 AAXX 30161 76525 22980 63004 10217 21130 37471 40035 52006 86004
                   333 30/// 59029 60005 70000 91005==
202604301500 AAXX 30151 76525 22980 73205 10201 21058 37470 40031 52011 87005
                   333 30/// 59028 60007 70000 91006
                   555 60005==
202604301400 AAXX 30141 76525 22980 73206 10190 21045 37467 40024 52009 87005
                   333 30/// 59027 60005 70000 91007==
202604301300 AAXX 30131 76525 22970 23207 10191 21046 37465 40016 52006 82005
                   333 30/// 59026 60005 70000 91007==
202604301200 AAXX 30121 76525 02960 23107 10192 21048 37460 40003 57004 60001 82005
                   333 10304 20184 30/// 59029 60007 70000 91008
                   555 60005==
202604301100 AAXX 30111 76525 22960 03208 10194 21058 37458 49995 57008
                   333 30/// 59028 60005 70000 91009==
202604301000 AAXX 30101 76525 22960 03309 10195 21056 37459 49990 57013
                   333 30/// 59027 60005 70000 91010==
202604300900 AAXX 30091 76525 22860 13310 10198 21061 37463 49990 57012 81050
                   333 30/// 59025 60007 70000 91010
                   555 60005==
202604300800 AAXX 30081 76525 22860 13308 10210 21069 37466 49988 57013 81050
                   333 30/// 59028 60005 70000 91009==
202604300700 AAXX 30071 76525 22860 23309 10219 21072 37472 49993 57002 82050
                   333 30/// 59028 60005 70000 91009==
202604300600 AAXX 30061 76525 02860 23009 10218 21075 37475 49996 52005 60001 82050
                   333 10304 20194 30/// 55113 20000 59029 60007
                   70000 91009 555 60005==
202604300500 AAXX 30051 76525 22960 12707 10222 21069 37479 40000 52012 81005
                   333 30/// 59019 60005 70000 91007==
202604300400 AAXX 30041 76525 22960 10405 10240 21070 37474 49994 52011 81005
                   333 30/// 59022 60005 70000 91005==
202604300300 AAXX 30031 76525 22960 30505 10241 21071 37470 49991 52007 83005
                   333 30/// 59020 60007 70000 91006
                   555 60005==
202604300200 AAXX 30021 76525 22960 32101 10252 21059 37467 49990 52003 83005
                   333 30/// 59019 60005 70000 91003==
202604300100 AAXX 30011 76525 22970 61904 10261 21061 37463 49989 57006 86005
                   333 30/// 59018 60005 70000 91006==
202604300000 AAXX 30001 76525 02970 72006 10265 21082 37463 49994 57013 60001 87006
                   333 10304 30/// 59013 60007 70000 91006
                   555 60005==
202604292300 AAXX 29231 76525 22970 72203 10274 21084 37464 40000 57020 87005
                   333 30/// 59014 60005 70000 91004==
202604292200 AAXX 29221 76525 22970 72503 10265 21098 37469 40013 57022 87005
                   333 30/// 59013 60005 70000 91004==
202604292100 AAXX 29211 76525 22970 71905 10265 21083 37476 40029 57020 87005
                   333 30/// 59011 60007 70000 91005
                   555 60005==
202604292000 AAXX 29201 76525 22970 61803 10250 21084 37484 40045 57017 86005
                   333 30/// 59012 60005 70000 91005==
202604291900 AAXX 29191 76525 22970 63504 10238 21085 37491 40058 57009 86005
                   333 30/// 59010 60005 70000 91006==

################################################################################
#  SYNOPS from 76539, San Luis Potosi,  S.L.P. (Mexico) | 22-10-32N | 100-59-14W | 1874 m
################################################################################
202604301800 AAXX 30181 76539 02962 01302 10338 20154 38130 40060 57012 60001
                   333 10340 20123 30/// 59029 60007 70000 91002
                   555 60005==
202604301700 AAXX 30171 76539 22962 61102 10322 20192 38135 40073 57007 86008
                   333 30/// 59030 60005 70000 91002==
202604301600 AAXX 30161 76539 22962 21401 10297 20199 38138 40084 52001 82002
                   333 30/// 59030 60005 70000 91001==
202604301500 AAXX 30151 76539 22962 11401 10260 20175 38142 40093 52009 81002
                   333 30/// 59018 60007 70000 91001
                   555 60005==
202604301400 AAXX 30141 76539 22562 22301 10197 20134 38142 40094 52011 82100
                   333 30/// 59022 60005 70000 91001==
202604301300 AAXX 30131 76539 22962 50000 10132 20094 38137 40083 52007 85008
                   333 30/// 60005 70000 91000==
202604301200 AAXX 30121 76539 02956 00000 10129 20075 38133 40069 52006 60001
                   333 10363 20125 30/// 59029 60007 70000 91000
                   555 60005==
202604301100 AAXX 30111 76539 22956 00301 10138 20077 38131 40056 52002
                   333 30/// 59028 60005 70000 91001==
202604301000 AAXX 30101 76539 22956 00000 10152 20081 38130 40042 57007
                   333 30/// 59028 60005 70000 91000==
202604300900 AAXX 30091 76539 22956 03101 10158 20078 38127 40027 57015
                   333 30/// 59031 60007 70000 91001
                   555 60005==
202604300800 AAXX 30081 76539 22956 00301 10171 20079 38129 40018 57013
                   333 30/// 59031 60005 70000 91002==
202604300700 AAXX 30071 76539 22956 00301 10190 20092 38137 40017 57002
                   333 30/// 59028 60005 70000 91002==
202604300600 AAXX 30061 76539 02956 00000 10210 20105 38142 40014 52007 60001
                   333 10363 20122 30/// 55082 59026 60007 70000
                   91000 555 60005==
202604300500 AAXX 30051 76539 22956 01201 10215 20108 38142 40008 52011
                   333 30/// 59025 60005 70000 91002==
202604300400 AAXX 30041 76539 22956 01201 10220 20108 38139 49998 52013
                   333 30/// 59026 60005 70000 91003==
202604300300 AAXX 30031 76539 22556 21202 10251 20126 38135 49989 52013 82500
                   333 30/// 59024 60007 70000 91005
                   555 60005==
202604300200 AAXX 30021 76539 22556 21202 10269 20134 38131 49983 52008 82500
                   333 30/// 59019 60005 70000 91006==
202604300100 AAXX 30011 76539 22561 31803 10290 20142 38126 49981 57002 83500
                   333 30/// 59019 60005 70000 91006==
202604300000 AAXX 30001 76539 02561 11202 10309 20144 38122 49983 57013 60001 81500
                   333 10363 30/// 59017 60007 70000 91004
                   555 60005==
202604292300 AAXX 29231 76539 22862 31102 10350 20136 38123 49995 57019 83010
                   333 30/// 59014 60005 70000 91003==
202604292200 AAXX 29221 76539 22862 61102 10349 20137 38128 40012 57023 86010
                   333 30/// 59015 60005 70000 91003==
202604292100 AAXX 29211 76539 22862 61102 10357 20148 38135 40032 57024 86010
                   333 30/// 59014 60007 70000 91004
                   555 60005==
202604292000 AAXX 29201 76539 22862 61102 10357 20157 38142 40053 57023 86010
                   333 30/// 59017 60005 70000 91004==
202604291900 AAXX 29191 76539 22962 41501 10347 20183 38151 40075 57017 84007
                   333 30/// 59018 60005 70000 91002==

################################################################################
#  SYNOPS from 76548, Tampico, Tamps (Mexico) | 22-23-15N | 097-55-32W | 8 m
################################################################################
202604301800 AAXX 30181 76548 02472 60903 10302 20235 30074 40083 52004 60001 86200
                   333 10318 20250 30/// 59021 60007 70000 91006
                   555 60005==
202604301700 AAXX 30171 76548 22472 41003 10314 20243 30075 40084 52003 84200
                   333 30/// 59024 60005 70000 91007==
202604301600 AAXX 30161 76548 22472 51403 10306 20264 30080 40089 52008 84206
                   333 30/// 59018 60005 70000 91006==
202604301500 AAXX 30151 76548 22472 51203 10282 20248 30070 40079 84204
                   333 30/// 59031 60007 70000 91006
                   555 60005==
202604301400 AAXX 30141 76548 22472 51202 10272 20249 30072 40081 84204
                   333 30/// 59023 60005 70000 91003==
202604301300 AAXX 30131 76548 22470 51402 10254 20236 30072 40081 83406
                   333 30/// 59016 60005 70000 91002==
202604300600 AAXX 30061 76548 02460 51405 10272 20243 30082 40091 52002 60001 85400
                   333 10328 20250 30/// 55097 59031 60007 70000
                   91008 555 60005==
202604300500 AAXX 30051 76548 22460 41305 10266 20228 30082 40091 52009 84400
                   333 30/// 59029 60005 70000 91009==
202604300400 AAXX 30041 76548 22460 21304 10266 20240 30081 40090 52013 81104
                   333 30/// 59032 60005 70000 91008==
202604300300 AAXX 30031 76548 22460 31303 10266 20237 30080 40089 52022 82104
                   333 30/// 59026 60007 70000 91008
                   555 60005==
202604300200 AAXX 30021 76548 22460 41205 10268 20230 30073 40082 52013 82104
                   333 30/// 59034 60005 70000 91009==
202604300100 AAXX 30011 76548 22468 41204 10272 20228 30068 40077 57001 81104
                   333 30/// 59018 60005 70000 91009==
202604300000 AAXX 30001 76548 02972 21206 10290 20241 30058 40067 57022 60001 82004
                   333 10328 30/// 59013 60007 70000 91011
                   555 60005==
202604292300 AAXX 29231 76548 22472 41206 10302 20248 30060 40069 57025 81104
                   333 30/// 59014 60005 70000 91012==
202604292200 AAXX 29221 76548 22472 31206 10314 20252 30069 40078 57021 81104
                   333 30/// 59012 60005 70000 91011==
202604292100 AAXX 29211 76548 22472 31206 10310 20238 30080 40089 57015 82204
                   333 30/// 59010 60007 70000 91010
                   555 60005==
202604292000 AAXX 29201 76548 22472 31207 10312 20237 30085 40094 57014 82204
                   333 30/// 59008 60005 70000 91010==
202604291900 AAXX 29191 76548 22472 71404 10308 20239 30090 40099 57008 82204
                   333 30/// 59012 60005 70000 91006==

################################################################################
#  SYNOPS from 76556, Tepic, Nay. (Mexico) | 21-31-07N | 104-53-02W | 923 m
################################################################################
202604301800 AAXX 30181 76556 02970 03602 10318 20239 39086 40093 52005 60001
                   333 10323 20182 30/// 59022 60007 70000 91005
                   555 60005==
202604301700 AAXX 30171 76556 22970 02302 10310 20224 39087 40097 52009
                   333 30/// 59027 60005 70000 91004==
202604301600 AAXX 30161 76556 22970 11601 10275 20212 39086 40099 52012 81004
                   333 30/// 59030 60005 70000 91003==
202604301500 AAXX 30151 76556 22970 21401 10234 20190 39081 40095 52009 82004
                   333 30/// 59033 60007 70000 91003
                   555 60005==
202604301400 AAXX 30141 76556 22970 31802 10198 20174 39078 40091 52006 83004
                   333 30/// 59033 60005 70000 91003==
202604301300 AAXX 30131 76556 22970 62302 10190 20172 39074 40085 57000 86004
                   333 30/// 60005 70000 91002==
202604301200 AAXX 30121 76556 02970 22002 10193 20177 39073 40081 57008 60001 82008
                   333 10356 20183 30/// 59032 60007 70000 91003
                   555 60005==
202604301100 AAXX 30111 76556 22960 31801 10196 20181 39072 40078 57016 83008
                   333 30/// 59032 60005 70000 91003==
202604301000 AAXX 30101 76556 22960 01801 10200 20187 39074 40077 57019
                   333 30/// 59032 60005 70000 91002==
202604300900 AAXX 30091 76556 22960 01403 10204 20188 39080 40080 57017
                   333 30/// 59028 60007 70000 91003
                   555 60005==
202604300800 AAXX 30081 76556 22960 01403 10208 20191 39087 40084 57010
                   333 30/// 59026 60005 70000 91003==
202604300700 AAXX 30071 76556 22960 00902 10215 20195 39093 40086 57004
                   333 30/// 59026 60005 70000 91003==
202604300600 AAXX 30061 76556 02960 00901 10219 20201 39097 40086 52004 60001
                   333 30/// 55106 59023 60007 70000 91002
                   555 60005==
202604300500 AAXX 30051 76556 22960 00502 10221 20203 39098 40084 52009
                   333 30/// 59022 60005 70000 91002==
202604300400 AAXX 30041 76556 22960 03603 10226 20202 39097 40082 52011
                   333 30/// 59020 60005 70000 91003==
202604300300 AAXX 30031 76556 22960 23401 10238 20212 39092 40075 52011 82008
                   333 30/// 59023 60007 70000 91003
                   555 60005==
202604300200 AAXX 30021 76556 22960 43203 10251 20215 39088 40070 52011 84008
                   333 30/// 59022 60005 70000 91004==
202604300100 AAXX 30011 76556 22970 33203 10267 20221 39086 40069 52007 83001
                   333 30/// 59018 60005 70000 91006==
202604300000 AAXX 30001 76556 02970 33404 10288 20232 39082 40067 57007 60001 83001
                   333 10356 30/// 59022 60007 70000 91008
                   555 60005==
202604292300 AAXX 29231 76556 22970 43405 10310 20241 39078 40065 57017 84001
                   333 30/// 59024 60005 70000 91008==
202604292200 AAXX 29221 76556 22970 03203 10329 20245 39079 40070 57024
                   333 30/// 59023 60005 70000 91007==
202604292100 AAXX 29211 76556 22970 43206 10342 20247 39089 40085 57019 84004
                   333 30/// 59016 60007 70000 91009
                   555 60005==
202604292000 AAXX 29201 76556 22970 33203 10351 20245 39094 40095 57019 83001
                   333 30/// 59016 60005 70000 91006==
202604291900 AAXX 29191 76556 22970 43203 10346 20235 39102 40108 57013 84004
                   333 30/// 59013 60005 70000 91006==

################################################################################
#  SYNOPS from 76571, Aguascalientes, Ags. (Mexico) | 21-51-04N | 102-17-28W | 1877 m
################################################################################
202604301800 AAXX 30181 76571 02965 52702 10334 20058 38120 40043 57014 60001 85004
                   333 10340 20152 30/// 59029 60007 70000 91004
                   555 60005==
202604301700 AAXX 30171 76571 22965 60000 10290 20082 38129 40060 57003 86004
                   333 30/// 59028 60005 70000 91002==
202604301600 AAXX 30161 76571 22965 50000 10264 20083 38132 40067 52005 85004
                   333 30/// 59028 60005 70000 91003==
202604301500 AAXX 30151 76571 22970 00000 10230 20073 38134 40069 52013
                   333 30/// 59027 60007 70000 91002
                   555 60005==
202604301400 AAXX 30141 76571 22970 00000 10208 20085 38132 40064 52008
                   333 30/// 59026 60005 70000 91000==
202604301300 AAXX 30131 76571 22970 00000 10164 20073 38137 40064 52017
                   333 30/// 59017 60005 70000 91000==
202604301200 AAXX 30121 76571 02965 00000 10160 20084 38121 40035 54000 60001
                   333 10372 20158 30/// 60007 70000 91002
                   555 60005==
202604301100 AAXX 30111 76571 22960 00000 10168 20106 38124 40028 52004
                   333 30/// 60005 70000 91001==
202604301000 AAXX 30101 76571 22960 00000 10182 20059 38120 40012 57004
                   333 30/// 60005 70000 91002==
202604300900 AAXX 30091 76571 22960 00000 10198 20052 38121 40003
                   333 30/// 60007 70000 91004
                   555 60005==
202604300800 AAXX 30081 76571 22960 00000 10204 20049 38120 49993
                   333 30/// 60005 70000 91003==
202604300700 AAXX 30071 76571 22960 00000 10210 20056 38124 49990
                   333 30/// 60005 70000 91002==
202604300000 AAXX 30001 76571 02965 62802 10346 20056 38105 49971 57016 60001 86004
                   333 10372 30/// 59018 60007 70000 91004
                   555 60005==
202604292200 AAXX 29221 76571 22965 62503 10360 20060 38113 40001 57027 86007
                   333 30/// 59016 60005 70000 91005==
202604292100 AAXX 29211 76571 22965 62602 10356 20071 38121 40020 57028 86007
                   333 30/// 59014 60007 70000 91006
                   555 60005==
202604292000 AAXX 29201 76571 22965 63002 10342 20077 38133 40043 57024 86007
                   333 30/// 59011 60005 70000 91005==
202604291900 AAXX 29191 76571 22965 73101 10330 20081 38140 40059 57020 87004
                   333 30/// 59014 60005 70000 91006==

################################################################################
#  SYNOPS from 76573, Lagos De Moreno, Jal. (Mexico) | 21-20-54N | 101-56-30W | 1907 m
################################################################################
202604301800 AAXX 30181 76573 02/// /1602 10314 38099 40037 57010 60001
                   333 59025 60007 70000 91005
                   555 60005==
202604301700 AAXX 30171 76573 22/// /2101 10305 38105 40047 57002
                   333 59027 60005 70000 91003==
202604301600 AAXX 30161 76573 22/// /1502 10280 38107 40050 52009
                   333 59028 60005 70000 91004==
202604301500 AAXX 30151 76573 22/// /0402 10247 38109 40052 52013
                   333 59024 60007 70000 91003
                   555 60005==
202604301400 AAXX 30141 76573 22/// /3502 10221 38107 40047 52014
                   333 59025 60005 70000 91005==
202604301300 AAXX 30131 76573 22/// /3601 10194 38098 40030 52005
                   333 59031 60005 70000 91003==
202604301200 AAXX 30121 76573 02/// /0601 10187 38096 40020 54000 60001
                   333 59027 60007 70000 91002
                   555 60005==
202604301100 AAXX 30111 76573 22/// /2401 10204 38093 40007 57005
                   333 59026 60005 70000 91002==
202604301000 AAXX 30101 76573 22/// /2201 10215 38093 49999 57011
                   333 59024 60005 70000 91003==
202604300900 AAXX 30091 76573 22/// /1701 10211 38096 49995 57009
                   333 59023 60007 70000 91002
                   555 60005==
202604300800 AAXX 30081 76573 22/// /1801 10225 38098 49991 57006
                   333 59025 60005 70000 91003==
202604300700 AAXX 30071 76573 22/// /1701 10236 38104 49993 52005
                   333 59026 60005 70000 91005==
202604300600 AAXX 30061 76573 02/// /2101 10256 38105 49989 52012 60001
                   333 59025 60007 70000 91003
                   555 60005==
202604300500 AAXX 30051 76573 22/// /0903 10271 38104 49986 52016
                   333 59022 60005 70000 91006==
202604300400 AAXX 30041 76573 22/// /0302 10277 38099 49978 52012
                   333 59022 60005 70000 91004==
202604300300 AAXX 30031 76573 22/// /3501 10281 38093 49972 52011
                   333 59019 60007 70000 91002
                   555 60005==
202604300200 AAXX 30021 76573 22/// /1701 10297 38088 49970 52007
                   333 59017 60005 70000 91002==
202604300100 AAXX 30011 76573 22/// /3004 10303 38087 49975 54000
                   333 59013 60005 70000 91009==
202604300000 AAXX 30001 76573 02/// /3001 10333 38082 49976 57015 60001
                   333 59015 60007 70000 91003
                   555 60005==
202604292300 AAXX 29231 76573 22/// /1001 10360 38081 49983 57025
                   333 59018 60005 70000 91004==
202604292200 AAXX 29221 76573 22/// /0902 10361 38087 49998 57030
                   333 59017 60005 70000 91006==
202604292100 AAXX 29211 76573 22/// /1002 10353 38097 40019 57027
                   333 59014 60007 70000 91004
                   555 60005==
202604292000 AAXX 29201 76573 22/// /1402 10349 38106 40036 57026
                   333 59015 60005 70000 91005==
202604291900 AAXX 29191 76573 22/// /1102 10323 38117 40056 57018
                   333 59014 60005 70000 91004==

################################################################################
#  SYNOPS from 76577, Guanajuato, Gto. (Mexico) | 21-00-51N | 101-15-58W | 1996 m
################################################################################
202604301800 AAXX 30181 76577 02570 72002 10308 20102 38024 40042 57003 60001 81107
                   333 10329 20169 30/// 59016 60007 70000 91004
                   555 60005==
202604301700 AAXX 30171 76577 22970 52701 10281 20118 38024 40053 54000 85006
                   333 30/// 59022 60005 70000 91003==
202604301600 AAXX 30161 76577 22970 42502 10248 20102 38027 40068 52009 84003
                   333 30/// 59022 60005 70000 91004==
202604301500 AAXX 30151 76577 22970 11201 10219 20109 38027 40079 81005
                   333 30/// 59024 60007 70000 91003
                   555 60005==
202604301400 AAXX 30141 76577 22970 10201 10186 20102 38024 40085 81030
                   333 30/// 59026 60005 70000 91002==
202604301300 AAXX 30131 76577 22970 10000 10174 20094 38018 40082 81030
                   333 30/// 59028 60005 70000 91001==
202604300000 AAXX 30001 76577 02570 20000 10342 20109 38001 49973 57013 60001 81505
                   333 10390 30/// 59016 60007 70010 91000
                   555 60005==
202604292300 AAXX 29231 76577 22570 21901 10355 20123 38003 49979 57020 81505
                   333 30/// 59016 60005 70010 91002==
202604292200 AAXX 29221 76577 22570 41901 10340 20111 38007 49989 57026 82507
                   333 30/// 59016 60005 70010 91001==
202604292100 AAXX 29211 76577 22570 72001 10358 20114 38014 40002 57026 86507
                   333 30/// 59014 60007 70010 91002
                   555 60005==
202604292000 AAXX 29201 76577 22970 03501 10356 20129 38023 40021 57023
                   333 30/// 59015 60005 70010 91005==
202604291900 AAXX 29191 76577 22570 62103 10332 20095 38033 40043 57016 83506
                   333 30/// 59014 60005 70010 91007==

################################################################################
#  SYNOPS from 76581, Rio Verde, S.L.P. (Mexico) | 21-55-47N | 099-59-16W | 991 m
################################################################################
202604301800 AAXX 3018/ 76581 02975 2//// 10336 20213 38990 40057 57022 60001 82006
                   333 10340 20200 30/// 59030 60007 70000
                   555 60005==
202604301700 AAXX 3017/ 76581 22975 0//// 10306 20211 39001 40072 57008
                   333 30/// 59027 60005 70000==
202604301600 AAXX 3016/ 76581 22975 0//// 10284 20215 39008 40081 52002
                   333 30/// 59025 60005 70000==
202604301500 AAXX 3015/ 76581 22972 0//// 10256 20212 39012 40086 52012
                   333 30/// 59023 60007 70000
                   555 60005==
202604301400 AAXX 3014/ 76581 22968 0//// 10218 20187 39009 40082 52015
                   333 30/// 59026 60005 70000==
202604301300 AAXX 3013/ 76581 22965 0//// 10202 20183 39006 40076 52015
                   333 30/// 59027 60005 70000==
202604301200 AAXX 3012/ 76581 02960 1//// 10210 20185 39000 40066 52008 60001 81006
                   333 10431 20200 30/// 59028 60007 70000
                   555 60005==
202604301100 AAXX 30111 76581 22/// /0101 10209 20197 38994 40052 57001
                   333 59027 60005 70000 91002==
202604301000 AAXX 30101 76581 22/// /0401 10223 20202 38991 40044 57010
                   333 59032 60005 70000 91001==
202604300900 AAXX 30091 76581 22/// /0000 10226 20201 38992 40039 57012
                   333 59034 60007 70000 91000
                   555 60005==
202604300800 AAXX 30081 76581 22/// /1401 10233 20202 38995 40038 57008
                   333 59035 60005 70000 91002==
202604300700 AAXX 30071 76581 22/// /0701 10241 20200 39001 40040 54000
                   333 59034 60005 70000 91003==
202604300600 AAXX 30061 76581 02960 00000 10258 20208 39004 40041 52005 60001
                   333 10431 20210 30/// 55073 20000 59032 60007
                   70000 91000 555 60005==
202604300500 AAXX 30051 76581 22960 00000 10264 20218 39003 40037 52009
                   333 30/// 59031 60005 70000 91000==
202604300400 AAXX 30041 76581 22/// /1503 10273 20186 38999 40033 52011
                   333 59034 60005 70000 91007==
202604300300 AAXX 30031 76581 22/// /1702 10280 20184 38999 40033 52020
                   333 59023 60007 70000 91004
                   555 60005==
202604300200 AAXX 30021 76581 22/// /1403 10291 20185 38994 40028 52021
                   333 59024 60005 70000 91007==
202604300100 AAXX 30011 76581 22968 00000 10318 20205 38988 40021 52013
                   333 30/// 59020 60005 70000 91000==
202604300000 AAXX 30001 76581 02970 00000 10338 20188 38979 40014 57002 60001
                   333 10431 30/// 59018 60007 70000 91000
                   555 60005==
202604292300 AAXX 29231 76581 22/// /1004 10380 20132 38973 40014 57021
                   333 59018 60005 70000 91008==
202604292200 AAXX 29221 76581 22/// /1102 10401 20075 38975 40021 57031
                   333 59016 60005 70000 91006==
202604292100 AAXX 29211 76581 22/// /0702 10420 20041 38981 40032 57039
                   333 59019 60007 70000 91005
                   555 60005==
202604292000 AAXX 29201 76581 22/// /0402 10398 20072 38994 40052 57034
                   333 59020 60005 70000 91006==
202604291900 AAXX 29191 76581 22/// /1901 10380 20151 39006 40070 57027
                   333 59019 60005 70000 91003==

################################################################################
#  SYNOPS from 76585, Matlapa, S.L.P. (Mexico) | 21-19-30N | 098-48-57W | 135 m
################################################################################
202604301800 AAXX 30181 76585 02570 30901 10325 20276 39915 40067 57016 60001 83100
                   333 10330 20263 30/// 59020 60007 70000 91001
                   555 60005==
202604301700 AAXX 30171 76585 22570 30901 10312 20267 39922 40074 57007 83100
                   333 30/// 59022 60005 70000 91001==
202604301600 AAXX 30161 76585 22570 30000 10305 20266 39926 40078 52002 83100
                   333 30/// 59022 60005 70000 91000==
202604301500 AAXX 30151 76585 22570 20000 10280 20252 39931 40083 52012 82100
                   333 30/// 59019 60007 70000 91000
                   555 60005==
202604301400 AAXX 30141 76585 22670 70000 10270 20253 39929 40081 87500
                   333 30/// 59021 60005 70000 91000==
202604301300 AAXX 30131 76585 22670 70000 10264 20251 39924 40076 87500
                   333 30/// 59021 60005 70000 91000==
202604301200 AAXX 30121 76585 02670 70000 10266 20247 39919 40070 60001 87500
                   333 10392 20265 30/// 59021 60007 70000 91000
                   555 60005==
202604300000 AAXX 30001 76585 02970 20901 10368 20266 39898 40047 57007 60001 82006
                   333 10392 30/// 59017 60007 70000 91001
                   555 60005==
202604292300 AAXX 29231 76585 22970 10901 10380 20263 39895 40044 57020 81001
                   333 30/// 59020 60005 70000 91002==
202604292200 AAXX 29221 76585 22970 10901 10390 20274 39898 40048 57027 81006
                   333 30/// 59022 60005 70000 91002==
202604292100 AAXX 29211 76585 22970 60901 10390 20274 39905 40055 57030 86006
                   333 30/// 59020 60007 70000 91002
                   555 60005==
202604292000 AAXX 29201 76585 22670 10901 10374 20279 39915 40066 57029 81100
                   333 30/// 59020 60005 70000 91001==
202604291900 AAXX 29191 76585 22570 23001 10364 20306 39925 40077 57023 81101
                   333 30/// 59019 60005 70000 91001==

################################################################################
#  SYNOPS from 76593, Progreso, Yuc. (Mexico) | 21-16-35N | 089-39-14W | 1 m
################################################################################
202604301800 AAXX 30181 76593 02570 11805 10336 20212 30103 40104 57010 60001 81100
                   333 10352 20210 30/// 59021 60007 70050 91005
                   555 60005==
202604301700 AAXX 30171 76593 22570 11805 10326 20210 30107 40108 57005 81100
                   333 30/// 59027 60005 70050 91005==
202604301600 AAXX 30161 76593 22570 10904 10304 20208 30111 40112 52002 81100
                   333 30/// 59028 60005 70050 91004==
202604301500 AAXX 30151 76593 22570 10905 10286 20207 30112 40113 52009 81100
                   333 30/// 59027 60007 70050 91005
                   555 60005==
202604301400 AAXX 30141 76593 22570 10905 10266 20212 30112 40113 52013 81100
                   333 30/// 59024 60005 70050 91005==
202604301300 AAXX 30131 76593 22570 10904 10244 20217 30109 40110 52013 81100
                   333 30/// 59021 60005 70050 91004==
202604301200 AAXX 30121 76593 02970 01602 10232 20220 30103 40104 52009 60051
                   333 10362 20210 30/// 59024 60007 70050 91002
                   555 60005==
202604301100 AAXX 30111 76593 22950 01604 10237 20224 30099 40100 52003
                   333 30/// 59025 60005 70050 91004==
202604301000 AAXX 30101 76593 22950 01605 10243 20225 30097 40098 57007
                   333 30/// 59025 60005 70050 91005==
202604300900 AAXX 30091 76593 22950 01404 10248 20227 30094 40095 57014
                   333 30/// 59029 60057 70050 91004
                   555 60005==
202604300800 AAXX 30081 76593 22950 01605 10254 20224 30095 40096 57016
                   333 30/// 59028 60005 70050 91005==
202604300700 AAXX 30071 76593 22950 01404 10260 20221 30103 40104 57006
                   333 30/// 59022 60005 70050 91004==
202604300600 AAXX 30061 76593 02570 11605 10266 20257 30109 40110 52006 60051 81100
                   333 10362 20204 30/// 55110 59021 60057 70050
                   91005 555 60055==
202604300500 AAXX 30051 76593 22950 01604 10267 20211 30111 40112 52016
                   333 30/// 59021 60005 70000 91004==
202604300400 AAXX 30041 76593 22950 01405 10268 20233 30110 40111 52022
                   333 30/// 59022 60005 70000 91005==
202604300300 AAXX 30031 76593 22950 00907 10273 20255 30103 40104 52017
                   333 30/// 59022 60007 70000 91007
                   555 60005==
202604300200 AAXX 30021 76593 22950 01209 10272 20245 30095 40096 52009
                   333 30/// 59023 60005 70000 91009==
202604300100 AAXX 30011 76593 22960 01209 10276 20238 30087 40088 57001
                   333 30/// 59028 60005 70000 91009==
202604300000 AAXX 30001 76593 02970 00911 10282 20239 30086 40087 57007 60001
                   333 10362 30/// 59026 60007 70000 91011
                   555 60005==
202604292300 AAXX 29231 76593 22970 00711 10290 20235 30086 40087 57017
                   333 30/// 59026 60005 70000 91011==
202604292200 AAXX 29221 76593 22570 10711 10298 20240 30088 40089 57020 81100
                   333 30/// 59027 60005 70000 91011==
202604292100 AAXX 29211 76593 22570 10509 10303 20235 30093 40094 57031 81100
                   333 30/// 59024 60007 70000 91009
                   555 60005==
202604292000 AAXX 29201 76593 22570 10509 10302 20240 30103 40104 57031 81100
                   333 30/// 59020 60005 70000 91009==
202604291900 AAXX 29191 76593 22570 10508 10306 20243 30108 40109 57031 81100
                   333 30/// 59024 60005 70000 91008==

################################################################################
#  SYNOPS from 76612, Guadalajara, Jal. (Mexico) | 20-42-23N | 103-23-32W | 1554 m
################################################################################
202604301800 AAXX 30181 76612 02862 62401 10314 20086 38437 40066 57005 60001 86010
                   333 10326 20150 30/// 59024 60007 70000 91001
                   555 60005==
202604301700 AAXX 30171 76612 22862 62701 10290 20098 38439 40072 52001 86010
                   333 30/// 59029 60005 70000 91001==
202604301600 AAXX 30161 76612 22962 62201 10262 20107 38443 40079 52010 86002
                   333 30/// 59026 60005 70000 91001==
202604301500 AAXX 30151 76612 22962 43001 10215 20108 38442 40077 52012 84001
                   333 30/// 59025 60007 70000 91001
                   555 60005==
202604301400 AAXX 30141 76612 22962 50300 10180 20115 38438 40069 52009 85001
                   333 30/// 59027 60005 70000 91000==
202604301300 AAXX 30131 76612 22962 40900 10160 20083 38433 40057 52003 84001
                   333 30/// 59027 60005 70000 91000==
202604301200 AAXX 30121 76612 02960 11000 10167 20075 38430 40046 54000 60001 81001
                   333 10383 20166 30/// 59028 60007 70000 91000
                   555 60005==
202604301100 AAXX 30111 76612 22960 02900 10173 20077 38429 40036 57001
                   333 30/// 59026 60005 70000 91001==
202604301000 AAXX 30101 76612 22960 01501 10188 20069 38430 40028 57004
                   333 30/// 59025 60005 70000 91001==
202604300900 AAXX 30091 76612 22960 03001 10216 20070 38430 40019 57009
                   333 30/// 59030 60007 70000 91001
                   555 60005==
202604300800 AAXX 30081 76612 22960 02901 10215 20082 38430 40013 57006
                   333 30/// 59026 60005 70000 91001==
202604300700 AAXX 30071 76612 22960 02901 10226 20069 38434 40011 57001
                   333 30/// 59030 60005 70000 91002==
202604300600 AAXX 30061 76612 02960 03201 10241 20061 38439 40012 52014 60001
                   333 10383 20150 30/// 55111 20000 59023 60007
                   70000 91002 555 60005==
202604300500 AAXX 30051 76612 22960 02903 10258 20066 38436 40004 52016
                   333 30/// 59024 60005 70000 91003==
202604300400 AAXX 30041 76612 22960 03002 10267 20048 38435 40001 52020
                   333 30/// 59020 60005 70000 91002==
202604300300 AAXX 30031 76612 22960 03102 10284 20054 38425 49989 52015
                   333 30/// 59023 60007 70000 91003
                   555 60005==
202604300200 AAXX 30021 76612 22960 23102 10298 20046 38420 49986 52010 82001
                   333 30/// 59020 60005 70000 91002==
202604300100 AAXX 30011 76612 22962 22601 10319 20032 38415 49986 57001 82001
                   333 30/// 59018 60005 70000 91002==
202604300000 AAXX 30001 76612 02962 02901 10357 20024 38410 49988 57016 60001
                   333 10383 30/// 59021 60007 70000 91001
                   555 60005==
202604292300 AAXX 29231 76612 22962 03101 10365 20047 38410 49998 57028
                   333 30/// 59022 60005 70000 91002==
202604292200 AAXX 29221 76612 22962 02801 10362 20031 38416 40014 57034
                   333 30/// 59020 60005 70000 91002==
202604292100 AAXX 29211 76612 22962 32501 10358 20015 38426 40034 57035 83001
                   333 30/// 60007 70000 91001
                   555 60005==
202604292000 AAXX 29201 76612 22962 33202 10350 20017 38438 40056 57030 83001
                   333 30/// 59015 60005 70000 91002==
202604291900 AAXX 29191 76612 22862 43202 10342 20016 38450 40077 57019 82031
                   333 30/// 59010 60005 70000 91002==

################################################################################
#  SYNOPS from 76625, Queretaro, Qro. (Mexico) | 20-33-48N | 100-22-10W | 1901 m
################################################################################
202604301800 AAXX 30181 76625 02570 10305 10300 20102 38112 40056 57010 60001 81400
                   333 10313 20179 30/// 59021 60007 70000 91005
                   555 60005==
202604301700 AAXX 30171 76625 22970 00305 10288 20119 38120 40067 57003
                   333 30/// 59023 60005 70000 91005==
202604301600 AAXX 30161 76625 22970 00403 10253 20086 38122 40072 52007
                   333 30/// 59025 60005 70000 91003==
202604301500 AAXX 30151 76625 22970 00403 10220 20083 38122 40070 52010
                   333 30/// 59025 60007 70000 91003
                   555 60005==
202604301400 AAXX 30141 76625 22970 00302 10195 20078 38122 40066
                   333 30/// 59023 60005 70000 91002==
202604301300 AAXX 30131 76625 22970 00302 10185 20069 38115 40051
                   333 30/// 59025 60005 70000 91002==
202604301200 AAXX 30121 76625 02965 00301 10184 20072 38113 40039 60001
                   333 10357 20179 30/// 59025 60007 70000
                   555 60005==
202604300000 AAXX 30001 76625 02570 20104 10336 20077 38089 49980 57012 60001 81170
                   333 10357 30/// 59018 60007 70000 91004
                   555 60005==
202604292300 AAXX 29231 76625 22570 40104 10343 20077 38093 49993 57020 83270
                   333 30/// 59013 60005 70000 91004==
202604292200 AAXX 29221 76625 22970 10103 10354 20081 38093 40001 57031 81070
                   333 30/// 59019 60005 70000 91003==
202604292100 AAXX 29211 76625 22970 10303 10345 20082 38101 40019 57033 81070
                   333 30/// 59016 60007 70000 91003
                   555 60005==
202604292000 AAXX 29201 76625 22970 10403 10343 20081 38114 40043 57029 81070
                   333 30/// 59013 60005 70000 91003==
202604291900 AAXX 29191 76625 22970 00301 10319 20100 38124 40063 57023
                   333 30/// 59015 60005 70000 91002==

################################################################################
#  SYNOPS from 76632, Pachuca, Hgo. (Mexico) | 20-05-15N | 098-44-58W | 2364 m
################################################################################
202604301800 AAXX 30181 76632 02960 22402 10282 60001 82001
                   333 10300 20113 38/// 60007 70000 91002
                   555 60005==
202604301700 AAXX 30171 76632 22959 12602 10273 81001
                   333 38/// 60005 70000 91002==
202604301600 AAXX 30161 76632 22958 02502 10248
                   333 38/// 60005 70000 91002==
202604301500 AAXX 30151 76632 22956 02601 10225
                   333 38/// 60007 70000 91001
                   555 60005==
202604301400 AAXX 30141 76632 22930 12500 10177 81001
                   333 38/// 60005 70000 91000==
202604301300 AAXX 30131 76632 22920 20000 10137 81031
                   333 38/// 60005 70000 91000==
202604301200 AAXX 30121 76632 02958 02500 10113 60001
                   333 10305 20113 36/// 60007 70000 91000
                   555 60005==
202604301100 AAXX 30111 76632 22956 02500 10121
                   333 36/// 60005 70000 91000==
202604301000 AAXX 30101 76632 22956 02500 10127
                   333 36/// 60005 70000 91000==
202604300900 AAXX 30091 76632 22956 02401 10138
                   333 36/// 60007 70000 91001
                   555 60005==
202604300700 AAXX 30071 76632 22956 32401 10166 83001
                   333 36/// 60005 70000 91001==
202604300600 AAXX 30061 76632 02956 32501 10175 60001 83001
                   333 10300 20108 36/// 55120 20000 60007 70000
                   91001 555 60005==
202604300400 AAXX 30041 76632 22956 22501 10206 82001
                   333 36/// 60005 70000 91002==
202604300300 AAXX 30031 76632 22956 02502 10208
                   333 36/// 60007 70000 91002
                   555 60005==
202604300200 AAXX 30021 76632 22957 12503 10214 81001
                   333 36/// 60005 70000 91003==
202604300100 AAXX 30011 76632 22960 32403 10228 83001
                   333 36/// 60005 70000 91003==
202604300000 AAXX 30001 76632 02965 32704 10254 60001 83008
                   333 10305 30/// 60007 70000 91004
                   555 60005==
202604292300 AAXX 29231 76632 22965 32405 10265 83008
                   333 30/// 60005 70000 91005==
202604292200 AAXX 29221 76632 22965 32303 10280 83008
                   333 30/// 60005 70000 91004==
202604292100 AAXX 29211 76632 22965 32204 10290 83008
                   333 30/// 60007 70000 91004
                   555 60005==
202604292000 AAXX 29201 76632 22965 32204 10290 83008
                   333 30/// 60005 70000 91004==
202604291900 AAXX 29191 76632 22965 32304 10290 83008
                   333 30/// 60005 70000 91004==

################################################################################
#  SYNOPS from 76634, Tulancingo  (Mexico) | 20-05-03N | 098-21-26W | 2197 m
################################################################################
202604301800 AAXX 30181 76634 02969 10702 10308 20039 37814 40036 57008 60001 81001
                   333 10319 20115 30/// 59025 60007 70000 91008
                   555 60005==
202604301700 AAXX 30171 76634 22969 11002 10302 20030 37817 40049 57005 81001
                   333 30/// 59027 60005 70000 91006==
202604301600 AAXX 30161 76634 22969 01601 10277 20037 37821 40065 52000
                   333 30/// 59024 60005 70000 91003==
202604301500 AAXX 30151 76634 22969 01501 10234 20044 37823 40072 52007
                   333 30/// 59023 60007 70000 91005
                   555 60005==
202604301400 AAXX 30141 76634 22969 11502 10178 20023 37821 40071 52008 81001
                   333 30/// 59023 60005 70000 91004==
202604301300 AAXX 30131 76634 22969 11403 10136 20009 37821 40067 52008 81001
                   333 30/// 59019 60005 70000 91005==
202604301200 AAXX 30121 76634 02969 11602 10130 20120 37816 40053 52003 60001 81001
                   333 10325 20115 30/// 59021 60007 70000 91006
                   555 60005==
202604301100 AAXX 3011/ 76634 22/// ///// 10138 37813 40042 57005
                   333 59019 60005 70000==
202604301000 AAXX 3010/ 76634 02/// ///// 10142 37813 40031 57012
                   333 59020 70000==
202604300900 AAXX 3009/ 76634 22/// ///// 10139 37813 40020 57017
                   333 59023 60007 70000
                   555 60005==
202604300800 AAXX 3008/ 76634 22/// ///// 10150 37818 40016 57016
                   333 59022 60005 70000==
202604300700 AAXX 3007/ 76634 22/// ///// 10153 37825 40015 57009
                   333 59022 60005 70000==
202604300600 AAXX 3006/ 76634 02/// ///// 10163 37830 40012 57000 60001
                   333 55114 59026 60007 70000
                   555 60005==
202604300500 AAXX 3005/ 76634 22/// ///// 10163 37834 40008 52008
                   333 59023 60005 70000==
202604300400 AAXX 30041 76634 22968 01401 10204 20034 37834 49991 52012
                   333 30/// 59021 60005 70000 91003==
202604300300 AAXX 30031 76634 22968 01301 10220 20059 37830 49982 52009
                   333 30/// 59022 60007 70000 91005
                   555 60005==
202604300200 AAXX 30021 76634 22968 01501 10228 20061 37826 49976 52008
                   333 30/// 59022 60005 70000 91006==
202604300100 AAXX 30011 76634 22970 11102 10244 20066 37822 49975 52001 81004
                   333 30/// 59020 60005 70000 91009==
202604300000 AAXX 30001 76634 02970 10803 10278 20089 37822 49981 52001 60001 81004
                   333 10325 30/// 59014 60007 70000 91010
                   555 60005==
202604292300 AAXX 29231 76634 22970 10604 10290 20055 37818 49986 57011 81004
                   333 30/// 59016 60005 70000 91011==
202604292200 AAXX 29221 76634 22970 10504 10300 20042 37822 40001 57011 81004
                   333 30/// 59016 60005 70000 91011==
202604292100 AAXX 29211 76634 22970 10703 10316 20066 37821 40011 57018 81004
                   333 30/// 59017 60007 70000 91009
                   555 60005==
202604292000 AAXX 29201 76634 22970 10703 10320 20050 37829 40034 57015 81004
                   333 30/// 59012 60005 70000 91011==
202604291900 AAXX 29191 76634 22570 10504 10312 20028 37833 40051 57012 81600
                   333 30/// 59013 60005 70000 91010==

################################################################################
#  SYNOPS from 76640, Tuxpan. Ver. (Mexico) | 20-57-35N | 097-25-02W | 6 m
################################################################################
202604301800 AAXX 30181 76640 02558 21401 10332 20250 30058 40065 57013 60001 82200
                   333 10350 20242 30/// 59035 60007 70000 91001
                   555 60005==
202604301700 AAXX 30171 76640 22558 31401 10322 20248 30062 40069 57011 83200
                   333 30/// 59036 60005 70000 91001==
202604301600 AAXX 30161 76640 22458 41401 10298 20259 30069 40076 52004 84400
                   333 30/// 59035 60005 70000 91001==
202604301500 AAXX 30151 76640 22358 31401 10278 20261 30071 40078 52008 83200
                   333 30/// 59031 60007 70000 91001
                   555 60005==
202604301400 AAXX 30141 76640 22259 50000 10258 20246 30073 40080 52019 85400
                   333 30/// 59033 60005 70000 91000==
202604301300 AAXX 30131 76640 22158 40000 10252 20246 30065 40072 52007 84200
                   333 30/// 59028 60005 70000 91000==
202604301200 AAXX 30121 76640 02110 40000 10256 20250 30063 40070 57001 60001 84100
                   333 10340 20242 30/// 59027 60007 70000 91000
                   555 60005==
202604301100 AAXX 30111 76640 22110 10000 10260 20254 30054 40061 57015 81100
                   333 30/// 59032 60005 70000 91000==
202604301000 AAXX 30101 76640 22110 40000 10264 20258 30058 40065 57020 84100
                   333 30/// 59029 60005 70000 91000==
202604300900 AAXX 30091 76640 22210 40000 10268 20257 30064 40071 57020 84100
                   333 30/// 59025 60007 70000 91000
                   555 60005==
202604300800 AAXX 30081 76640 22210 40000 10268 20257 30069 40076 57022 84100
                   333 30/// 59026 60005 70000 91000==
202604300700 AAXX 30071 76640 22210 40000 10268 20257 30078 40085 57011 84100
                   333 30/// 59020 60005 70000 91000==
202604300600 AAXX 30061 76640 02210 40000 10274 20260 30084 40091 52002 60001 84100
                   333 10340 20256 30/// 55025 59019 60007 70000
                   91000 555 60005==
202604300500 AAXX 30051 76640 22210 50000 10274 20260 30091 40098 52015 81110
                   333 30/// 59017 60005 70000 91000==
202604300400 AAXX 30041 76640 22310 80000 10276 20259 30089 40096 52016 83110
                   333 30/// 59015 60005 70000 91000==
202604300300 AAXX 30031 76640 22310 81401 10284 20262 30082 40089 52013 83110
                   333 30/// 59016 60007 70000 91001
                   555 60005==
202604300200 AAXX 30021 76640 22410 71401 10290 20259 30076 40083 52011 82110
                   333 30/// 59014 60005 70000 91001==
202604300100 AAXX 30011 76640 22410 71401 10296 20262 30073 40080 52006 82110
                   333 30/// 59011 60005 70000 91001==
202604300000 AAXX 30001 76640 02458 61401 10300 20264 30069 40076 54000 60001 81220
                   333 10340 30/// 59013 60007 70000 91001
                   555 60005==
202604292300 AAXX 29231 76640 22458 61401 10308 20263 30065 40072 57017 81220
                   333 30/// 59011 60005 70000 91001==
202604292200 AAXX 29221 76640 22558 31401 10320 20264 30067 40074 57021 83200
                   333 30/// 59012 60005 70000 91001==
202604292100 AAXX 29211 76640 22558 31402 10322 20270 30069 40076 57024 83200
                   333 30/// 59014 60007 70000 91002
                   555 60005==
202604292000 AAXX 29201 76640 22558 41402 10318 20265 30082 40089 57016 84200
                   333 30/// 59006 60005 70000 91002==
202604291900 AAXX 29191 76640 22458 71401 10304 20259 30088 40095 57016 82610
                   333 30/// 59007 60005 70000 91001==

################################################################################
#  SYNOPS from 76644, Merida / Lic Manuel Crecencio (Mexico) | 20-56-48N | 089-39-07W | 10 m
################################################################################
202604301800 AAXX 30181 76644 02560 11403 10372 20191 30084 40095 57020 60001 81100
                   333 10397 20232 30/// 59027 60007 70000 91006
                   555 60005==
202604301700 AAXX 30171 76644 22960 11403 10356 20199 30094 40105 57010 81001
                   333 30/// 59024 60005 70000 91005==
202604301600 AAXX 30161 76644 22960 11404 10332 20207 30101 40113 57003 81001
                   333 30/// 59023 60005 70000 91007==
202604301500 AAXX 30151 76644 22560 21403 10308 20224 30104 40116 52007 81101
                   333 30/// 59020 60007 70000 91004
                   555 60005==
202604301400 AAXX 30141 76644 22560 11203 10278 20230 30104 40116 52013 81100
                   333 30/// 59020 60005 70000 91006==
202604301300 AAXX 30131 76644 22560 11403 10252 20213 30104 40116 52013 81100
                   333 30/// 59020 60005 70000 91003==
202604301200 AAXX 30121 76644 02960 00902 10232 20220 30097 40108 52006 60001
                   333 10413 20232 30/// 59024 60007 70000 91003
                   555 60005==
202604301100 AAXX 30111 76644 22950 01402 10236 20219 30091 40102 57003
                   333 30/// 59027 60005 70000 91003==
202604301000 AAXX 30101 76644 22950 01403 10244 20220 30091 40102 57010
                   333 30/// 59023 60005 70000 91003==
202604300900 AAXX 30091 76644 22950 01403 10252 20222 30091 40102 57016
                   333 30/// 59023 60007 70000 91003
                   555 60005==
202604300800 AAXX 30081 76644 22950 00903 10258 20222 30094 40105 57013
                   333 30/// 59024 60005 70000 91004==
202604300700 AAXX 30071 76644 22950 01103 10267 20221 30101 40112 57003
                   333 30/// 59020 60005 70000 91004==
202604300600 AAXX 30061 76644 02950 01402 10276 20216 30107 40118 52013 60001
                   333 10413 20240 30/// 55117 59017 60007 70000
                   91003 555 60005==
202604300500 AAXX 30051 76644 22950 00903 10284 20212 30107 40118 52020
                   333 30/// 59011 60005 70000 91004==
202604300400 AAXX 30041 76644 22950 00502 10296 20212 30104 40115 52027
                   333 30/// 59022 60005 70000 91003==
202604300300 AAXX 30031 76644 22950 00503 10304 20215 30094 40105 52024
                   333 30/// 59024 60007 70000 91004
                   555 60005==
202604300200 AAXX 30021 76644 22950 00903 10304 20231 30087 40098 52017
                   333 30/// 59024 60005 70000 91004==
202604300100 AAXX 30011 76644 22950 00103 10316 20229 30077 40088 52007
                   333 30/// 59034 60005 70000 91003==
202604300000 AAXX 30001 76644 02560 10402 10336 20219 30070 40081 57007 60001 81100
                   333 10413 30/// 59031 60007 70000 91003
                   555 60005==
202604292300 AAXX 29231 76644 22560 10903 10377 20180 30070 40081 57021 81100
                   333 30/// 59027 60005 70000 91006==
202604292200 AAXX 29221 76644 22560 10904 10388 20177 30070 40081 57031 81100
                   333 30/// 59027 60005 70000 91007==
202604292100 AAXX 29211 76644 22560 11203 10390 20158 30077 40088 57034 81100
                   333 30/// 59024 60007 70000 91003
                   555 60005==
202604292000 AAXX 29201 76644 22560 11403 10390 20169 30091 40102 57027 81100
                   333 30/// 59016 60005 70000 91004==
202604291900 AAXX 29191 76644 22560 10903 10377 20180 30101 40113 57023 81100
                   333 30/// 59017 60005 70000 91006==

################################################################################
#  SYNOPS from 76647, Valladolid, Yuc. (Mexico) | 20-41-34N | 088-12-57W | 26 m
################################################################################
202604301800 AAXX 30181 76647 02770 11803 10350 20211 30071 40101 57021 60001 81100
                   333 10355 20226 30/// 59027 60007 70000 91003
                   555 60005==
202604301700 AAXX 30171 76647 22770 11402 10338 20211 30080 40110 57012 81200
                   333 30/// 59028 60005 70000 91003==
202604301600 AAXX 30161 76647 22670 11803 10318 20218 30092 40122 52006 81200
                   333 30/// 59021 60005 70000 91003==
202604301500 AAXX 30151 76647 22570 31802 10296 20235 30092 40122 52010 83200
                   333 30/// 59021 60007 70000 91002
                   555 60005==
202604301400 AAXX 30141 76647 22970 01402 10262 20236 30092 40122 52015
                   333 30/// 59019 60005 70000 91002==
202604301300 AAXX 30131 76647 22370 20901 10234 20225 30086 40116 52011 82200
                   333 30/// 59018 60005 70000 91001==
202604301200 AAXX 30121 76647 02370 20901 10230 20224 30082 40112 52007 60001 82200
                   333 10370 20226 30/// 59019 60007 70000 91001
                   555 60005==
202604301100 AAXX 30111 76647 22965 01401 10228 20222 30077 40107 57001
                   333 30/// 59024 60005 70000 91001==
202604301000 AAXX 30101 76647 22965 01401 10230 20222 30075 40105 57011
                   333 30/// 59023 60005 70000 91002==
202604300900 AAXX 30091 76647 22965 01402 10231 20225 30075 40105 57020
                   333 30/// 59022 60007 70000 91002
                   555 60005==
202604300800 AAXX 30081 76647 22965 01402 10237 20225 30078 40108 57022
                   333 30/// 59021 60005 70000 91002==
202604300700 AAXX 30071 76647 22965 01402 10243 20228 30086 40116 57014
                   333 30/// 59022 60005 70000 91002==
202604300600 AAXX 30061 76647 02965 01402 10252 20231 30095 40125 52001 60001
                   333 10370 20226 30/// 59019 60007 70000 91002
                   555 60005==
202604300500 AAXX 30051 76647 22965 01202 10255 20231 30100 40129 52008
                   333 30/// 59019 60005 70000 91002==
202604300400 AAXX 30041 76647 22965 01202 10259 20231 30100 40129 52018
                   333 30/// 59019 60005 70000 91002==
202604300300 AAXX 30031 76647 22965 01402 10267 20229 30094 40123 52022
                   333 30/// 59022 60007 70000 91002
                   555 60005==
202604300200 AAXX 30021 76647 22965 01503 10277 20224 30092 40121 52026
                   333 30/// 59018 60005 70000 91003==
202604300100 AAXX 30011 76647 22965 01402 10291 20218 30082 40111 52015
                   333 30/// 59021 60005 70000 91003==
202604300000 AAXX 30001 76647 02970 01504 10311 20211 30072 40101 52002 60001
                   333 10370 30/// 59025 60007 70000 91004
                   555 60005==
202604292300 AAXX 29231 76647 22970 01403 10329 20199 30066 40095 57014
                   333 30/// 59026 60005 70000 91003==
202604292200 AAXX 29221 76647 22770 21403 10342 20198 30067 40096 57022 82200
                   333 30/// 59022 60005 70000 91003==
202604292100 AAXX 29211 76647 22770 41403 10348 20198 30070 40100 57028 84200
                   333 30/// 59022 60007 70000 91003
                   555 60005==
202604292000 AAXX 29201 76647 22770 41403 10355 20194 30080 40110 57028 84200
                   333 30/// 59017 60005 70000 91003==
202604291900 AAXX 29191 76647 22770 51403 10354 20198 30089 40119 57024 85200
                   333 30/// 59018 60005 70000 91003==

################################################################################
#  SYNOPS from 76654, Manzanillo, Col. (Mexico) | 19-02-40N | 104-19-06W | 2 m
################################################################################
202604301800 AAXX 30181 76654 02956 00102 10319 20240 30103 40105 52004 60001
                   333 10319 20242 30/// 59012 60007 70000 91004
                   555 60005==
202604301700 AAXX 30171 76654 22556 20902 10318 20242 30103 40105 52007 82400
                   333 30/// 59014 60005 70000 91003==
202604301600 AAXX 30161 76654 22556 30902 10303 20233 30103 40105 52014 83400
                   333 30/// 59013 60005 70000 91003==
202604301500 AAXX 30151 76654 22556 42701 10281 20239 30099 40101 52020 84400
                   333 30/// 59014 60007 70000 91002
                   555 60005==
202604301400 AAXX 30141 76654 22556 33601 10261 20232 30096 40098 52018 83400
                   333 30/// 59016 60005 70000 91002==
202604301300 AAXX 30131 76654 22556 41801 10243 20229 30089 40092 52012 84400
                   333 30/// 59020 60005 70000 91003==
202604301200 AAXX 30121 76654 02550 31801 10243 20230 30079 40081 57002 60001 83500
                   333 10297 20242 30/// 59029 60007 70000 91002
                   555 60005==
202604301100 AAXX 30111 76654 22950 03601 10242 20224 30078 40080 57004
                   333 30/// 59026 60005 70000 91002==
202604301000 AAXX 30101 76654 22550 20201 10244 20227 30077 40080 57008 82500
                   333 30/// 59026 60005 70000 91002==
202604300900 AAXX 30091 76654 22550 23601 10247 20227 30080 40083 57009 82500
                   333 30/// 59024 60007 70000 91002
                   555 60005==
202604300800 AAXX 30081 76654 22550 20301 10251 20237 30081 40084 57010 82500
                   333 30/// 60005 70000 91002==
202604300700 AAXX 30071 76654 22950 02701 10253 20231 30085 40087 57003
                   333 30/// 59030 60005 70000 91002==
202604300600 AAXX 30061 76654 02950 02001 10255 20237 30090 40092 52003 60001
                   333 10297 20217 30/// 55095 20000 59029 60007
                   70000 91003 555 60005==
202604300500 AAXX 30051 76654 22950 01201 10256 20238 30091 40093 52009
                   333 30/// 59024 60005 70000 91002==
202604300400 AAXX 30041 76654 22950 01002 10255 20237 30088 40090 52011
                   333 30/// 59025 60005 70000 91002==
202604300300 AAXX 30031 76654 22950 13003 10260 20237 30086 40089 52009 81006
                   333 30/// 59025 60007 70000 91004
                   555 60005==
202604300200 AAXX 30021 76654 22950 12702 10264 20238 30082 40084 52002 81006
                   333 30/// 59025 60005 70000 91004==
202604300100 AAXX 30011 76654 22556 22702 10274 20236 30077 40079 57004 81502
                   333 30/// 59024 60005 70000 91004==
202604300000 AAXX 30001 76654 02956 21803 10296 20240 30077 40080 57013 60001 82008
                   333 10297 30/// 59018 60007 70000 91004
                   555 60005==
202604292300 AAXX 29231 76654 22556 32303 10295 20241 30080 40083 57019 81408
                   333 30/// 59017 60005 70000 91005==
202604292200 AAXX 29221 76654 22556 32104 10293 20240 30081 40083 57026 81408
                   333 30/// 59020 60005 70000 91005==
202604292100 AAXX 29211 76654 22556 42104 10296 20237 30091 40093 57024 81408
                   333 30/// 59016 60007 70000 91007
                   555 60005==
202604292000 AAXX 29201 76654 22956 12006 10291 20232 30099 40101 57017 81002
                   333 30/// 59011 60005 70000 91008==
202604291900 AAXX 29191 76654 22956 22303 10297 20234 30107 40109 57009 82002
                   333 30/// 59015 60005 70000 91005==

################################################################################
#  SYNOPS from 76656, Ciudad Guzman, Jal. (Mexico) | 19-43-03N | 103-27-50W | 1514 m
################################################################################
202604301800 AAXX 30181 76656 02973 51601 10296 20207 38482 40084 57007 60001 85004
                   333 10310 20142 30/// 59024 60007 70000 91001
                   555 60005==
202604301700 AAXX 30171 76656 22973 31801 10276 20181 38488 40098 52001 83003
                   333 30/// 59025 60005 70000 91001==
202604301600 AAXX 30161 76656 22973 31600 10248 20179 38490 40110 52008 83004
                   333 30/// 59027 60005 70000 91000==
202604301500 AAXX 30151 76656 22973 30000 10190 20152 38489 40117 52011 83004
                   333 30/// 59029 60007 70000 91000
                   555 60005==
202604301400 AAXX 30141 76656 22968 00000 10162 20139 38486 40119
                   333 30/// 59028 60005 70000 91000==
202604301300 AAXX 30131 76656 22968 20000 10152 20145 38483 40116 82001
                   333 30/// 59028 60005 70000 91000==
202604301200 AAXX 30121 76656 02960 00000 10150 20130 38478 40113 60001
                   333 10302 20150 30/// 59028 60007 70000 91000
                   555 60005==
202604291900 AAXX 29191 76656 22/// /3001 10351 38495 40101 57022
                   333 59019 60005 70000 91005==

################################################################################
#  SYNOPS from 76658, Colima, Col. (Mexico) | 19-13-06N | 103-43-14W | 446 m
################################################################################
202604301800 AAXX 30181 76658 02960 12502 10308 20185 39610 40112 57012 60001 81001
                   333 10308 20200 30/// 59006 60007 70000 91002
                   555 60005==
202604301700 AAXX 30171 76658 22960 11802 10291 20190 39618 40121 81001
                   333 30/// 59007 60005 70000 91002==
202604301600 AAXX 30161 76658 22560 21601 10267 20188 39621 40125 82100
                   333 30/// 59011 60005 70000 91001==
202604301500 AAXX 30151 76658 22560 32601 10249 20187 39622 40127 83100
                   333 30/// 59012 60007 70000 91001
                   555 60005==
202604292100 AAXX 29211 76658 22960 01804 10341 20195 39593 40087 57023
                   333 30/// 59017 60007 70000 91004
                   555 60005==
202604292000 AAXX 29201 76658 22960 01804 10355 20196 39600 40096 57025
                   333 30/// 59018 60005 70000 91004==
202604291900 AAXX 29191 76658 22960 11803 10357 20182 39609 40107 57023 81001
                   333 30/// 59018 60005 70000 91003==

################################################################################
#  SYNOPS from 76662, Zamora, Mich. (Mexico) | 20-00-35N | 102-16-55W | 1561 m
################################################################################
202604301800 AAXX 30181 76662 02868 21403 10334 20119 38446 40080 52012 60001 82050
                   333 10340 20166 30/// 59028 60007 70000 91003
                   555 60005==
202604301700 AAXX 30171 76662 22868 20601 10304 20117 38444 40082 52019 82050
                   333 30/// 59026 60005 70000 91002==
202604301600 AAXX 30161 76662 22868 20402 10282 20118 38439 40079 52018 82050
                   333 30/// 59027 60005 70000 91002==
202604301500 AAXX 30151 76662 22968 00201 10244 20114 38434 40074 52002
                   333 30/// 59024 60007 70000 91002
                   555 60005==
202604301400 AAXX 30141 76662 22968 00102 10204 20113 38425 40062 57014
                   333 30/// 59029 60005 70000 91002==
202604301300 AAXX 30131 76662 22968 03102 10168 20100 38421 40053
                   333 30/// 59024 60005 70000 91002==
202604301200 AAXX 30121 76662 02960 00901 10172 20108 38432 40058 57001 60001
                   333 10370 20170 30/// 59011 60007 70000 91001
                   555 60005==
202604301100 AAXX 30111 76662 22960 01001 10186 20110 38439 40059 52010
                   333 30/// 59005 60005 70000 91001==
202604300900 AAXX 30091 76662 22960 01201 10202 20114 38433 40035 52004
                   333 30/// 59016 60007 70000 91001
                   555 60005==
202604300800 AAXX 30081 76662 22960 01201 10210 20120 38430 40023 52008
                   333 30/// 59021 60005 70000 91001==
202604300700 AAXX 30071 76662 22960 01401 10218 20126 38426 40012 52012
                   333 30/// 59024 60005 70000 91002==
202604300600 AAXX 30061 76662 02960 01201 10224 20126 38429 40010 52009 60001
                   333 10370 20168 30/// 55/// 20000 59018 60007
                   70000 91001 555 60005==
202604300500 AAXX 30051 76662 22960 01401 10244 20118 38421 49996 57005
                   333 30/// 59019 60005 70000 91002==
202604300400 AAXX 30041 76662 22960 01401 10264 20117 38414 49984 57015
                   333 30/// 59020 60005 70000 91002==
202604300300 AAXX 30031 76662 22960 01902 10280 20111 38420 49990 57016
                   333 30/// 59014 60007 70000 91002
                   555 60005==
202604300200 AAXX 30021 76662 22960 02703 10292 20108 38426 49999 57017
                   333 30/// 59015 60005 70000 91003==
202604300100 AAXX 30011 76662 22968 02903 10312 20099 38429 40006 57024
                   333 30/// 59020 60005 70000 91003==
202604300000 AAXX 30001 76662 02568 52702 10346 20079 38436 40021 57024 60001 84150
                   333 10374 30/// 59021 60007 70000 91003
                   555 60005==
202604292300 AAXX 29231 76662 22568 51602 10360 20078 38443 40037 57024 84150
                   333 30/// 59022 60005 70000 91003==
202604292200 AAXX 29221 76662 22568 52002 10362 20081 38453 40057 57016 84150
                   333 30/// 59014 60005 70000 91003==
202604292100 AAXX 29211 76662 22868 42303 10364 20085 38460 40074 57014 84050
                   333 30/// 59015 60007 70000 91003
                   555 60005==
202604292000 AAXX 29201 76662 22868 41703 10360 20088 38467 40090 57003 84050
                   333 30/// 59013 60005 70000 91003==
202604291900 AAXX 29191 76662 22868 32402 10344 20085 38468 40099 52002 83050
                   333 30/// 59016 60005 70000 91003==

################################################################################
#  SYNOPS from 76665, Morelia, Mich. (Mexico) | 19-43-18N | 101-10-58W | 1915 m
################################################################################
202604301500 AAXX 30151 76665 22962 01801 10247 20131 38105 40077 52012
                   333 30/// 60007 70000 91001
                   555 60005==
202604301400 AAXX 30141 76665 22960 02101 10191 20089 38102 40071 52010
                   333 30/// 60005 70000 91001==
202604301200 AAXX 30121 76665 02958 03601 10170 20077 38094 40049 57003 60001
                   333 10358 20162 30/// 59021 60007 70000 91001
                   555 60005==
202604301100 AAXX 30111 76665 22958 00000 10175 20073 38092 40036 57009
                   333 30/// 59026 60005 70000 91000==
202604301000 AAXX 30101 76665 22958 03600 10184 20078 38093 40029 57007
                   333 30/// 59026 60005 70000 91000==
202604300900 AAXX 30091 76665 22958 00000 10190 20078 38097 40023 57005
                   333 30/// 59023 60007 70000 91000
                   555 60005==
202604300800 AAXX 30081 76665 22958 03601 10199 20067 38100 40019 57003
                   333 30/// 59024 60005 70000 91001==
202604300700 AAXX 30071 76665 22958 03601 10212 20070 38100 40010 52002
                   333 30/// 59026 60005 70000 91001==
202604300600 AAXX 30061 76665 02960 03601 10227 20067 38102 40005 52009 60001
                   333 10358 20176 30/// 55077 20000 59027 60007
                   70000 91001 555 60005==
202604300500 AAXX 30051 76665 22960 03600 10239 20057 38103 40002 52018
                   333 30/// 59021 60005 70000 91000==
202604300400 AAXX 30041 76665 22960 03600 10248 20049 38098 49992 52017
                   333 30/// 59017 60005 70000 91000==
202604300300 AAXX 30031 76665 22960 03601 10260 20038 38093 49984 52012
                   333 30/// 59019 60007 70000 91001
                   555 60005==
202604300200 AAXX 30021 76665 22960 03602 10282 20058 38085 49976 52006
                   333 30/// 59023 60005 70000 91002==
202604300100 AAXX 30011 76665 22962 03602 10299 20054 38081 49975 57006
                   333 30/// 59024 60005 70000 91002==
202604300000 AAXX 30001 76665 02962 03601 10332 20049 38081 49981 57013 60001
                   333 10358 30/// 59021 60007 70000 91001
                   555 60005==
202604292300 AAXX 29231 76665 22962 02402 10335 20029 38079 49987 57021
                   333 30/// 59025 60005 70000 91002==
202604292200 AAXX 29221 76665 22962 01802 10348 20040 38087 40005
                   333 30/// 59021 60005 70000 91002==
202604292100 AAXX 29211 76665 22962 02402 10347 20041 38094 40021
                   333 30/// 59020 60007 70000 91002
                   555 60005==
202604292000 AAXX 29201 76665 22962 01802 10343 20044 38101 40038
                   333 30/// 59022 60005 70000 91002==

################################################################################
#  SYNOPS from 76675, Toluca, Mex. (Mexico) | 19-17-28N | 099-42-51W | 2727 m
################################################################################
202604301800 AAXX 30181 76675 02962 03602 10248 20045 37375 40086 57004 60001
                   333 10260 20054 30/// 59022 60007 70000 91005
                   555 60005==
202604301700 AAXX 30171 76675 22965 02702 10245 20048 37378 40100 57000
                   333 30/// 59021 60005 70000 91005==
202604301600 AAXX 30161 76675 22965 00901 10224 20040 37384 40117 52008
                   333 30/// 59018 60005 70000 91003==
202604301500 AAXX 30151 76675 22965 01801 10183 20043 37379 40116
                   333 30/// 59024 60007 70000 91002
                   555 60005==
202604301400 AAXX 30141 76675 22965 03601 10128 20042 37379 40115
                   333 30/// 59023 60005 70000 91001==
202604301300 AAXX 30131 76675 22965 00000 10079 20028 37376 40105
                   333 30/// 59021 60005 70000 91000==
202604300000 AAXX 30001 76675 02568 10202 10262 20055 37366 49996 57012 60001 81100
                   333 10292 30/// 59015 60007 70000 91007
                   555 60005==
202604292300 AAXX 29231 76675 22570 10502 10270 20030 37367 40012 57015 81100
                   333 30/// 60005 70000 91007==
202604292200 AAXX 29221 76675 22972 00503 10276 20010 37370 40032 57019
                   333 30/// 60005 70000 91007==
202604292100 AAXX 29211 76675 22964 00503 10280 20031 37378 40057 57019
                   333 30/// 60007 70000 91008
                   555 60005==
202604292000 AAXX 29201 76675 22968 00503 10269 20045 37382 40077 57017
                   333 30/// 60005 70000 91007==
202604291900 AAXX 29191 76675 22970 00202 10267 20050 37390 40101 57012
                   333 30/// 60005 70000 91008==

################################################################################
#  SYNOPS from 76680, Mexico Central, D. F. (Mexico) | 19-24-13N | 099-11-48W | 2309 m
################################################################################
202604301800 AAXX 30181 76680 02920 01502 10282 20045 37730 40038 57008 60001
                   333 10288 20169 30/// 59022 60007 70000 91003
                   555 60005==
202604301700 AAXX 30171 76680 22920 00902 10266 20068 37734 40048 57003
                   333 30/// 59023 60005 70000 91002==
202604301600 AAXX 30161 76680 22920 00602 10244 20066 37738 40057 52006
                   333 30/// 59022 60005 70000 91002==
202604301500 AAXX 30151 76680 22920 00102 10220 20103 37738 40058 52010
                   333 30/// 59021 60007 70000 91002
                   555 60005==
202604301400 AAXX 30141 76680 22920 00802 10198 20102 37737 40055 52011
                   333 30/// 59022 60005 70000 91002==
202604301300 AAXX 30131 76680 22920 03600 10172 20092 37732 40044 52006
                   333 30/// 59021 60005 70000 91001==
202604301200 AAXX 30121 76680 02960 03001 10170 20075 37728 40032 52002 60001
                   333 10324 20169 30/// 59015 60007 70000 91002
                   555 60005==
202604301100 AAXX 30111 76680 22962 02601 10172 20073 37727 40021 57006
                   333 30/// 59019 60005 70000 91002==
202604301000 AAXX 30101 76680 22962 01800 10176 20078 37726 40010 57009
                   333 30/// 59020 60005 70000 91002==
202604300900 AAXX 30091 76680 22962 01901 10184 20073 37726 40001 57015
                   333 30/// 59026 60007 70000 91003
                   555 60005==
202604300800 AAXX 30081 76680 22962 02501 10192 20071 37732 49999 57013
                   333 30/// 59026 60005 70000 91003==
202604300700 AAXX 3007/ 76680 22/// ///// 10192 21008 37734 49990 57008
                   333 59028 60005 70000==
202604300600 AAXX 30061 76680 02964 02602 10210 20066 37741 49998 52005 60001
                   333 10324 20156 30/// 55113 20000 59020 60007
                   70000 91004 555 60005==
202604300500 AAXX 30051 76680 22964 02704 10217 20056 37745 49997 52014
                   333 30/// 59015 60005 70000 91005==
202604300400 AAXX 30041 76680 22966 02803 10230 20052 37742 49990 52019
                   333 30/// 59015 60005 70000 91003==
202604300300 AAXX 30031 76680 22964 03503 10243 20046 37736 49981 52025
                   333 30/// 59017 60007 70000 91004
                   555 60005==
202604300200 AAXX 30021 76680 22962 00605 10258 20038 37731 49976 52023
                   333 30/// 59011 60005 70000 91005==
202604300100 AAXX 30011 76680 22960 10405 10271 20031 37723 49970 52008 81001
                   333 30/// 59012 60005 70000 91005==
202604300000 AAXX 30001 76680 02558 20304 10298 20034 37711 49962 57008 60001 81101
                   333 10324 30/// 59019 60007 70000 91005
                   555 60005==
202604292300 AAXX 29231 76680 22556 20504 10311 20033 37708 49967 57026 81101
                   333 30/// 59021 60005 70000 91004==
202604292200 AAXX 29221 76680 22930 00104 10314 20009 37715 49987 57027
                   333 30/// 59018 60005 70000 91005==
202604292100 AAXX 29211 76680 22940 03002 10314 20009 37719 40002 57033
                   333 30/// 59022 60007 70000 91007
                   555 60005==
202604292000 AAXX 29201 76680 22930 03403 10298 20028 37734 40031 57023
                   333 30/// 59014 60005 70000 91004==
202604291900 AAXX 29191 76680 22920 00104 10288 20034 37742 40049 57018
                   333 30/// 59013 60005 70000 91004==

################################################################################
#  SYNOPS from 76683, Tlaxcala, Tlax. (Mexico) | 19-19-29N | 098-14-48W | 2224 m
################################################################################
202604301800 AAXX 30181 76683 02975 02702 10290 20098 37808 40085 57015 60001
                   333 10298 20092 30/// 59025 60007 70000 91002
                   555 60005==
202604301700 AAXX 30171 76683 22975 02302 10265 20092 37816 40104 57006
                   333 30/// 59025 60005 70000 91002==
202604301600 AAXX 30161 76683 22975 02101 10234 20098 37820 40115 52001
                   333 30/// 59024 60005 70000 91001==
202604301500 AAXX 30151 76683 22972 00901 10190 20084 37823 40120 52004
                   333 30/// 59023 60007 70000 91002
                   555 60005==
202604301400 AAXX 30141 76683 22972 01101 10136 20056 37822 40116 52005
                   333 30/// 59024 60005 70000 91001==
202604301300 AAXX 30131 76683 22972 00000 10102 20036 37819 40105 52005
                   333 30/// 59022 60005 70000 91001==
202604301200 AAXX 30121 76683 02970 00201 10097 20036 37821 40094 52005 60001
                   333 10318 20095 30/// 59017 60007 70000 91001
                   555 60005==
202604301100 AAXX 30111 76683 22/// /0000 10094 20027 37817 40077 57003
                   333 59018 60005 70000 91000==
202604301000 AAXX 30101 76683 22/// /0401 10106 20029 37814 40058 57009
                   333 59020 60005 70000 91002==
202604300900 AAXX 30091 76683 22/// /0000 10112 20032 37816 40047 57012
                   333 59020 60007 70000 91000
                   555 60005==
202604300800 AAXX 30081 76683 22/// /0201 10134 20020 37820 40039 57007
                   333 59019 60005 70000 91002==
202604300700 AAXX 30071 76683 22/// /0602 10153 20014 37823 40033 57005
                   333 59020 60005 70000 91004==
202604300600 AAXX 30061 76683 02960 00301 10169 20029 37828 40024 52004 60001
                   333 10318 20082 30/// 55111 20000 59020 60007
                   70000 91004 555 60005==
202604300500 AAXX 30051 76683 22960 00101 10193 20028 37827 40016 52013
                   333 30/// 59018 60005 70000 91004==
202604300400 AAXX 30041 76683 22960 00202 10207 20022 37828 40013 52029
                   333 30/// 59015 60005 70000 91005==
202604300300 AAXX 30031 76683 22960 03404 10227 20021 37824 40008 52026
                   333 30/// 59013 60007 70000 91005
                   555 60005==
202604300200 AAXX 30021 76683 22965 00403 10237 20019 37814 49998 52020
                   333 30/// 59018 60005 70000 91007==
202604300100 AAXX 30011 76683 22960 00804 10290 20070 37799 49985 52003
                   333 30/// 59024 60005 70000 91008==
202604300000 AAXX 30001 76683 02968 00904 10290 20070 37799 49998 57002 60001
                   333 10318 30/// 59016 60007 70000 91007
                   555 60005==
202604292300 AAXX 29231 76683 22770 11202 10309 20082 37795 40007 57015 81100
                   333 30/// 59021 60005 70000 91005==
202604292200 AAXX 29221 76683 22970 01302 10308 20085 37796 40024 57025
                   333 30/// 59021 60005 70000 91007==
202604292100 AAXX 29211 76683 22970 01103 10315 20080 37800 40043 57033
                   333 30/// 59023 60007 70000 91008
                   555 60005==
202604292000 AAXX 29201 76683 22970 01302 10302 20091 37810 40069 57031
                   333 30/// 59022 60005 70000 91006==
202604291900 AAXX 29191 76683 22970 02202 10295 20097 37821 40097 57023
                   333 30/// 59020 60005 70000 91005==

################################################################################
#  SYNOPS from 76685, Puebla, Pue. (Mexico) | 19-03-17N | 098-09-47W | 2180 m
################################################################################
202604301800 AAXX 30181 76685 02970 03201 10300 20044 37844 40062 57007 60001
                   333 10308 20106 30/// 59025 60007 70000 91001
                   555 60005==
202604301700 AAXX 30171 76685 22970 02101 10276 20041 37849 40077 54000
                   333 30/// 59027 60005 70000 91001==
202604301600 AAXX 30161 76685 22970 00000 10256 20041 37852 40086 52005
                   333 30/// 59024 60005 70000 91000==
202604301500 AAXX 30151 76685 22970 00000 10214 20053 37851 40088 52004
                   333 30/// 59023 60007 70000 91000
                   555 60005==
202604301400 AAXX 30141 76685 22960 00000 10166 20030 37849 40085 52005
                   333 30/// 59023 60005 70000 91000==
202604301300 AAXX 30131 76685 22960 00000 10132 20023 37847 40077 52002
                   333 30/// 59023 60005 70000 91000==
202604301200 AAXX 30121 76685 02950 00000 10120 20018 37847 40068 57001 60001
                   333 10330 20117 30/// 59023 60007 70000 91000
                   555 60005==
202604301100 AAXX 30111 76685 22950 00500 10126 20019 37844 40052 57008
                   333 30/// 59023 60005 70000 91000==
202604300700 AAXX 30071 76685 22950 03601 10170 20013 37855 40019 57007
                   333 30/// 59021 60005 70000 91001==
202604300600 AAXX 30061 76685 02950 00502 10190 20021 37861 40018 52006 60001
                   333 10330 20104 30/// 55111 20000 59016 60007
                   70000 91002 555 60005==
202604300500 AAXX 30051 76685 22950 00502 10202 20019 37863 40014 52015
                   333 30/// 59017 60005 70000 91002==
202604300400 AAXX 30041 76685 22950 00502 10210 20022 37862 40009 52020
                   333 30/// 59012 60005 70000 91002==
202604300300 AAXX 30031 76685 22950 03602 10220 20011 37855 49997 52024
                   333 30/// 59014 60007 70000 91003
                   555 60005==
202604300200 AAXX 30021 76685 22950 03602 10234 20013 37848 49989 52017
                   333 30/// 59019 60005 70000 91003==
202604300100 AAXX 30011 76685 22950 00504 10260 20009 37842 49986 52010
                   333 30/// 59019 60005 70000 91005==
202604300000 AAXX 30001 76685 02960 01202 10290 20010 37831 49980 57006 60001
                   333 10330 30/// 59021 60007 70000 91002
                   555 60005==
202604292300 AAXX 29231 76685 22970 01504 10304 20020 37831 49992 57020
                   333 30/// 59020 60005 70000 91004==
202604292200 AAXX 29221 76685 22970 01802 10318 20044 37832 40005 57024
                   333 30/// 59021 60005 70000 91003==
202604292100 AAXX 29211 76685 22960 02302 10320 20037 37837 40024 57032
                   333 30/// 59020 60007 70000 91003
                   555 60005==
202604292000 AAXX 29201 76685 22970 02302 10312 20046 37851 40053 57025
                   333 30/// 59015 60005 70000 91002==
202604291900 AAXX 29191 76685 22970 02102 10302 20039 37856 40070 57020
                   333 30/// 59017 60005 70000 91002==

################################################################################
#  SYNOPS from 76687, Jalapa, Ver. (Mexico) | 19-30-45N | 096-54-15W | 1365 m
################################################################################
202604301700 AAXX 30171 76687 22970 01800 10274 20191 38636 40094 52003
                   333 30/// 59024 60005 70000 91001==
202604301600 AAXX 30161 76687 22670 31800 10250 20188 38638 40099 52008 81131
                   333 30/// 59020 60005 70000 91001==
202604301500 AAXX 30151 76687 22670 31800 10224 20190 38636 40097 52007 81131
                   333 30/// 59019 60007 70000 91001
                   555 60005==
202604301400 AAXX 30141 76687 22670 32700 10192 20175 38633 40094 52007 81131
                   333 30/// 59020 60005 70000 91000==
202604301300 AAXX 30131 76687 22440 32700 10172 20160 38630 40088 52006 83700
                   333 31/// 59021 60005 70000 91000==
202604301200 AAXX 30121 76687 02450 72300 10170 20158 38629 40083 60001 87600
                   333 10330 20170 30/// 59020 60007 70000 91000
                   555 60005==
202604301100 AAXX 30111 76687 22456 32300 10172 20157 38626 40075 83600
                   333 30/// 59022 60005 70000 91000==
202604301000 AAXX 30101 76687 22968 01800 10184 20163 38624 40067 57018
                   333 30/// 59026 60005 70000 91000==
202604300700 AAXX 30071 76687 22450 71800 10212 20184 38642 40071 57007 87600
                   333 30/// 59023 60005 70000 91000==
202604300600 AAXX 30061 76687 02450 72300 10218 20190 38649 40075 54000 60001 87600
                   333 10330 20148 30/// 55104 20000 59022 60007
                   70000 91000 555 60005==
202604300500 AAXX 30051 76687 22450 73200 10220 20192 38650 40072 52003 87600
                   333 30/// 59024 60005 70000 91001==
202604300400 AAXX 30041 76687 22350 72300 10230 20208 38649 40068 52007 87600
                   333 30/// 59026 60005 70000 91000==
202604300300 AAXX 30031 76687 22350 81800 10230 20211 38649 40066 52010 88600
                   333 30/// 59024 60007 70000 91001
                   555 60005==
202604300200 AAXX 30021 76687 22456 41800 10234 20206 38647 40063 52014 84600
                   333 30/// 59022 60005 70000 91000==
202604300100 AAXX 30011 76687 22970 11400 10256 20212 38642 40060 52006 81001
                   333 30/// 59020 60005 70000 91000==
202604300000 AAXX 30001 76687 02964 10901 10282 20216 38639 40061 57001 60001 81009
                   333 10330 30/// 59021 60007 70000 91001
                   555 60005==
202604292300 AAXX 29231 76687 22966 00901 10306 20185 38633 40059 57013
                   333 30/// 59023 60005 70000 91001==
202604292200 AAXX 29221 76687 22966 00901 10322 20112 38636 40069 57015
                   333 30/// 59021 60005 70000 91002==
202604292100 AAXX 29211 76687 22968 00901 10324 20076 38640 40080 57011
                   333 30/// 59019 60007 70000 91001
                   555 60005==
202604292000 AAXX 29201 76687 22970 00901 10320 20074 38646 40094 57014
                   333 30/// 59021 60005 70000 91002==
202604291900 AAXX 29191 76687 22970 00901 10314 20088 38651 40106 57007
                   333 30/// 59022 60005 70000 91002==

################################################################################
#  SYNOPS from 76692, Hacienda Ylang Ylangveracruz, Ver. (Mexico) | 19-08-34N | 096-06-40W | 11 m
################################################################################
202604301800 AAXX 30181 76692 02556 10903 10313 20290 30061 40073 57010 60001 81200
                   333 10323 20256 30/// 59024 60007 70000 91006
                   555 60005==
202604301700 AAXX 30171 76692 22956 00903 10314 20281 30065 40077 57002
                   333 30/// 59028 60005 70000 91006==
202604301600 AAXX 30161 76692 22556 10903 10306 20284 30070 40083 52010 81200
                   333 30/// 59024 60005 70000 91005==
202604301500 AAXX 30151 76692 22956 01403 10289 20268 30070 40083 52018
                   333 30/// 59020 60007 70000 91006
                   555 60005==
202604301400 AAXX 30141 76692 22556 51602 10268 20262 30067 40079 52017 82200
                   333 30/// 59020 60005 70000 91004==
202604301300 AAXX 30131 76692 22556 62001 10264 20263 30060 40073 52008 81230
                   333 30/// 59021 60005 70000 91003==
202604301200 AAXX 30121 76692 02556 31801 10264 20261 30052 40065 57003 60001 81100
                   333 10352 20262 30/// 59021 60007 70000 91003
                   555 60005==
202604301100 AAXX 30111 76692 22956 01800 10262 20259 30050 40062 57015
                   333 30/// 59027 60005 70000 91001==
202604301000 AAXX 30101 76692 22956 02301 10268 20265 30052 40064 57018
                   333 30/// 59027 60005 70000 91002==
202604300900 AAXX 30091 76692 22956 02301 10270 20267 30056 40068 57023
                   333 30/// 59025 60007 70000 91002
                   555 60005==
202604300800 AAXX 30081 76692 22956 00200 10272 20269 30064 40077 57013
                   333 30/// 59020 60005 70000 91002==
202604300700 AAXX 30071 76692 22556 40201 10274 20271 30070 40082 57005 81130
                   333 30/// 59020 60005 70000 91002==
202604300600 AAXX 30061 76692 02520 40201 10276 20270 30078 40091 52007 60001 81830
                   333 10352 20267 30/// 55091 20000 59019 60007
                   70000 91002 555 60005==
202604300500 AAXX 30051 76692 22520 10501 10276 20270 30078 40090 52017 81100
                   333 30/// 59019 60005 70060 91001==
202604300400 AAXX 30041 76692 22520 30000 10276 20273 30075 40087 52019 83200
                   333 30/// 59022 60005 70060 91000==
202604300300 AAXX 30031 76692 22520 20703 10279 20272 30071 40084 52023 82100
                   333 30/// 59020 60007 70060 91005
                   555 60005==
202604300200 AAXX 30021 76692 22520 20903 10281 20274 30061 40073 52015 81101
                   333 30/// 59024 60005 70060 91006==
202604300100 AAXX 30011 76692 22520 20903 10286 20281 30057 40069 81101
                   333 30/// 59020 60005 70060 91007==
202604300000 AAXX 30001 76692 02956 00703 10297 20285 30048 40061 57006 60061
                   333 10352 30/// 59020 60007 70060 91008
                   555 60005==
202604292300 AAXX 29231 76692 22956 00704 10302 20272 30046 40059 57020
                   333 30/// 59021 60005 70060 91008==
202604292100 AAXX 29211 76692 22956 00904 10320 20286 30054 40066 57031
                   333 30/// 59026 60067 70060 91008
                   555 60005==
202604292000 AAXX 29201 76692 22556 20904 10332 20292 30066 40079 57026 82200
                   333 30/// 59019 60005 70060 91007==
202604291900 AAXX 29191 76692 22556 20904 10339 20298 30071 40083 57024 82200
                   333 30/// 59025 60065 70060 91006==

################################################################################
#  SYNOPS from 76695, Campeche, Camp. (Mexico) | 19-50-11N | 090-30-26W | 8 m
################################################################################
202604301800 AAXX 30181 76695 02960 01202 10382 20270 30078 40087 57017 60001
                   333 10384 20226 30/// 59025 60007 70000 91006
                   555 60005==
202604301700 AAXX 30171 76695 22960 01402 10372 20250 30085 40094 57009
                   333 30/// 59025 60005 70000 91006==
202604301600 AAXX 30161 76695 22960 01003 10342 20260 30089 40098 57004
                   333 30/// 59025 60005 70000 91008==
202604301500 AAXX 30151 76695 22960 01303 10318 20254 30095 40104 52005
                   333 30/// 59025 60007 70000 91008
                   555 60005==
202604301400 AAXX 30141 76695 22960 01303 10290 20244 30094 40103 52005
                   333 30/// 59026 60005 70000 91008==
202604301300 AAXX 30131 76695 22960 01302 10264 20245 30093 40102 52012
                   333 30/// 59026 60005 70000 91006==
202604301200 AAXX 30121 76695 02960 01601 10228 20220 30090 40099 52008 60001
                   333 10400 20226 30/// 59019 60007 70000 91004
                   555 60005==
202604301100 AAXX 30111 76695 22956 01501 10228 20221 30102 40111 52015
                   333 30/// 59008 60005 70000 91004==
202604301000 AAXX 30101 76695 22/// /1302 10233 20214 30081 40087 57013
                   333 59026 60005 70000 91005==
202604300900 AAXX 30091 76695 22/// /1401 10238 20211 30082 40088 57019
                   333 59023 60007 70000 91004
                   555 60005==
202604300800 AAXX 30081 76695 22/// /1202 10254 20213 30087 40093 57015
                   333 59015 60005 70000 91005==
202604300700 AAXX 30071 76695 22/// /1202 10261 20211 30094 40100 57005
                   333 59015 60005 70000 91005==
202604300600 AAXX 30061 76695 02960 01301 10261 20216 30101 40110 52009 60001
                   333 10400 20233 30/// 55116 20000 59015 60007
                   70000 91005 555 60005==
202604300500 AAXX 30051 76695 22960 01601 10263 20231 30102 40111 52018
                   333 30/// 59015 60005 70000 91003==
202604300400 AAXX 30041 76695 22960 01201 10273 20234 30099 40108 52018
                   333 30/// 59014 60005 70000 91004==
202604300300 AAXX 30031 76695 22960 00402 10290 20237 30091 40100 52014
                   333 30/// 59016 60007 70000 91004
                   555 60005==
202604300200 AAXX 30021 76695 22960 03502 10295 20241 30084 40093 52009
                   333 30/// 59019 60005 70000 91006==
202604300100 AAXX 30011 76695 22960 03403 10300 20260 30081 40090 52006
                   333 30/// 59019 60005 70000 91009==
202604300000 AAXX 30001 76695 02960 03403 10306 20258 30077 40086 52001 60001
                   333 10400 30/// 59019 60007 70000 91010
                   555 60005==
202604292300 AAXX 29231 76695 22958 03304 10306 20255 30075 40084 57007
                   333 30/// 59021 60005 70000 91009==
202604292200 AAXX 29221 76695 22958 03204 10316 20263 30075 40084 57022
                   333 30/// 59019 60005 70000 91009==
202604292100 AAXX 29211 76695 22958 03003 10328 20256 30077 40086 57027
                   333 30/// 59020 60007 70000 91008
                   555 60005==
202604292000 AAXX 2920/ 76695 22/// ///// 10336 29064
                   333 60005 70000==
202604291900 AAXX 29191 76695 22958 01302 10390 20240 30097 40106 57017
                   333 30/// 59012 60005 70000 91009==

################################################################################
#  SYNOPS from 76698, Felipe Carrillo Puerto, Q. Roo. (Mexico) | 19-34-31N | 088-03-14W | 11 m
################################################################################
202604301800 AAXX 30181 76698 02360 11103 10356 20189 30091 40103 57004 60001 81100
                   333 10372 20208 30/// 59018 60007 70000 91003
                   555 60005==
202604301700 AAXX 30171 76698 22360 11201 10344 20207 30103 40116 52012 81100
                   333 30/// 59012 60005 70000 91002==
202604301600 AAXX 30161 76698 22360 10901 10336 20229 30108 40121 52016 81100
                   333 30/// 59009 60005 70000 91001==
202604301500 AAXX 30151 76698 22360 10801 10312 20224 30095 40107 52000 81100
                   333 30/// 59023 60007 70000 91001
                   555 60005==
202604301400 AAXX 30141 76698 22360 10801 10296 20232 30092 40104 81100
                   333 30/// 59027 60005 70000 91001==
202604301300 AAXX 30131 76698 22360 10901 10256 20236 30092 40105 81100
                   333 30/// 59019 60005 70000 91001==
202604301200 AAXX 30121 76698 02360 10000 10236 20218 30094 40107 60001 81100
                   333 10374 20208 30/// 59015 60007 70000 91000
                   555 60005==
202604300000 AAXX 30001 76698 02360 20000 10306 20224 30095 40108 57001 60001 82200
                   333 10374 30/// 59025 60007 70000 91000
                   555 60005==
202604292300 AAXX 29231 76698 22360 20000 10320 20217 30093 40105 57007 82200
                   333 30/// 59022 60005 70000 91000==
202604292200 AAXX 29221 76698 22360 21301 10340 20202 30090 40103 57018 82200
                   333 30/// 59024 60005 70000 91002==
202604292100 AAXX 29211 76698 22360 21402 10348 20201 30097 40109 57013 82200
                   333 30/// 59019 60007 70000 91003
                   555 60005==
202604292000 AAXX 29201 76698 22360 20901 10356 20197 30099 40112 57016 82200
                   333 30/// 59022 60005 70000 91002==
202604291900 AAXX 29191 76698 22360 20901 10358 20207 30108 40121 57009 82200
                   333 30/// 59016 60005 70000 91001==

################################################################################
#  SYNOPS from 76726, Cuernavaca, Mor. (Mexico) | 18-56-34N | 099-12-55W | 1634 m
################################################################################
202604301800 AAXX 30181 76726 02970 01801 10325 20185 38370 40067 57008 60001
                   333 10325 20170 30/// 59022 60007 70000 91001
                   555 60005==
202604301700 AAXX 30171 76726 22970 01501 10305 20172 38376 40079 52001
                   333 30/// 59021 60005 70000 91001==
202604301600 AAXX 30161 76726 22970 02301 10280 20156 38378 40084 52010
                   333 30/// 59024 60005 70000 91001==
202604301500 AAXX 30151 76726 22970 01801 10250 20131 38378 40085
                   333 30/// 59025 60007 70000 91001
                   555 60005==
202604301400 AAXX 30141 76726 22970 00500 10200 20085 38375 40079
                   333 30/// 59025 60005 70000 91000==
202604301300 AAXX 30131 76726 22970 03500 10180 20063 38368 40064
                   333 30/// 59026 60005 70000 91000==
202604300600 AAXX 30061 76726 02968 03200 10240 20102 38378 40024 60001
                   333 10370 20160 30/// 55107 59009 60007 70000
                   91000 555 60005==
202604300500 AAXX 30051 76726 22968 03200 10250 20115 38377 40019 52027
                   333 30/// 59011 60005 70000 91000==
202604300400 AAXX 30041 76726 22968 00000 10273 20131 38368 40006 52018
                   333 30/// 59020 60005 70000 91000==
202604300200 AAXX 30021 76726 22968 00000 10320 20154 38350 49986 52004
                   333 30/// 59028 60005 70000 91000==
202604300100 AAXX 30011 76726 22968 00000 10328 20160 38350 49992 57001
                   333 30/// 59010 60005 70000 91000==
202604300000 AAXX 30001 76726 02988 01401 10340 20170 38348 49997 57010 60001
                   333 10370 30/// 59016 60007 70000 91001
                   555 60005==
202604292300 AAXX 29231 76726 22988 01601 10358 20188 38346 40003 57025
                   333 30/// 59020 60005 70000 91001==
202604292200 AAXX 29221 76726 22988 01801 10370 20198 38351 40017 57030
                   333 30/// 59019 60005 70000 91001==
202604292100 AAXX 29211 76726 22988 01801 10370 20203 38358 40034 57034
                   333 30/// 59018 60007 70000 91001
                   555 60005==
202604292000 AAXX 29201 76726 22988 03601 10354 20193 38371 40057 57026
                   333 30/// 59015 60005 70000 91001==
202604291900 AAXX 29191 76726 22988 02301 10339 20182 38381 40076 57021
                   333 30/// 59016 60005 70000 91001==

################################################################################
#  SYNOPS from 76737, Orizaba, Ver. (Mexico) | 18-51-55N | 097-05-53W | 1260 m
################################################################################
202604301800 AAXX 30181 76737 02980 01402 10294 20136 38767 40119 52032 60001
                   333 10298 20174 30/// 60007 70000 91006
                   555 60005==
202604301700 AAXX 30171 76737 22978 01401 10284 20136 38761 40116 52048
                   333 30/// 59033 60005 70000 91005==
202604301600 AAXX 30161 76737 22978 01001 10261 20136 38749 40105 52037
                   333 30/// 59038 60005 70000 91003==
202604301500 AAXX 30151 76737 22978 01301 10238 20149 38735 40089 52022
                   333 30/// 60007 70000 91003
                   555 60005==
202604301400 AAXX 30141 76737 22980 00000 10195 20135 38713 40064 57006
                   333 30/// 60005 70000 91001==
202604301300 AAXX 30131 76737 22978 00000 10174 20120 38712 40060 57013
                   333 30/// 60005 70000 91000==
202604301200 AAXX 30121 76737 02978 00000 10177 20123 38713 40058 57018 60001
                   333 10322 20177 30/// 60007 70000 91002
                   555 60005==
202604301100 AAXX 30111 76737 22978 03001 10188 20118 38719 40060 57015
                   333 30/// 60005 70000 91004==
202604301000 AAXX 30101 76737 22978 02501 10195 20112 38725 40062 57009
                   333 30/// 60005 70000 91005==
202604300900 AAXX 30091 76737 22978 21902 10203 20118 38731 40065 57006 82030
                   333 30/// 60007 70000 91005
                   555 60005==
202604300800 AAXX 30081 76737 22978 50101 10209 20146 38734 40065 57007 85030
                   333 30/// 60005 70000 91002==
202604300700 AAXX 30071 76737 22978 43101 10210 20148 38734 40060 57013 84030
                   333 30/// 60005 70000 91002==
202604300600 AAXX 30061 76737 02978 33401 10215 20132 38736 40059 57019 60001 83030
                   333 10322 20159 30/// 55095 60007 70000 91002
                   555 60005==
202604300500 AAXX 30051 76737 22978 53401 10222 20152 38741 40061 57023 85030
                   333 30/// 60005 70000 91002==
202604300400 AAXX 30041 76737 22978 33301 10234 20180 38746 40065 57025 83030
                   333 30/// 60005 70000 91003==
202604300300 AAXX 30031 76737 22978 01801 10243 20182 38755 40073 57030
                   333 30/// 60007 70000 91006
                   555 60005==
202604300200 AAXX 30021 76737 22978 20601 10259 20128 38763 40082 57033 82030
                   333 30/// 60005 70000 91003==
202604300100 AAXX 30011 76737 22978 32501 10269 20131 38771 40092 57030 83030
                   333 30/// 59044 60005 70000 91005==
202604300000 AAXX 30001 76737 02978 21001 10284 20136 38785 40111 57017 60001 82030
                   333 10322 30/// 59022 60007 70000 91005
                   555 60005==
202604292300 AAXX 29231 76737 22978 01401 10296 20144 38796 40128 57004
                   333 30/// 59023 60005 70000 91008==
202604292200 AAXX 29221 76737 22978 01501 10308 20143 38801 40138 52002
                   333 30/// 59020 60005 70000 91008==
202604292100 AAXX 29211 76737 22978 01403 10311 20141 38802 40145
                   333 30/// 59021 60007 70000 91007
                   555 60005==
202604292000 AAXX 29201 76737 22978 01402 10308 20115 38800 40147 52007
                   333 30/// 59023 60005 70000 91008==
202604291900 AAXX 29191 76737 22978 01402 10300 20126 38799 40150 52012
                   333 30/// 59020 60005 70000 91006==

################################################################################
#  SYNOPS from 76741, Coatzacoalcos, Ver. (Mexico) | 18-08-24N | 094-30-39W | 24 m
################################################################################
202604301800 AAXX 30181 76741 02459 20503 30041 57012 60001 82200
                   333 30/// 59035 60007 70000 91005
                   555 60005==
202604301700 AAXX 30171 76741 22459 22302 30048 57005 82200
                   333 30/// 59034 60005 70000 91004==
202604301600 AAXX 30161 76741 22959 02302 30050 52001
                   333 30/// 59029 60005 70000 91004==
202604301500 AAXX 30151 76741 22957 02301 30053 52009
                   333 30/// 59025 60007 70000 91002
                   555 60005==
202604301400 AAXX 30141 76741 22956 00000 30053 52008
                   333 30/// 59023 60005 70000 91000==
202604301300 AAXX 30131 76741 22956 03601 30050 52005
                   333 30/// 60005 70000 91002==
202604301200 AAXX 30121 76741 02450 23601 30044 52000 60001 82100
                   333 30/// 60007 70000 91002
                   555 60005==
202604301100 AAXX 30111 76741 22440 23601 30045 57001 82100
                   333 30/// 60005 70000 91001==
202604301000 AAXX 30101 76741 22440 10501 30045 57003 81100
                   333 30/// 60005 70000 91002==
202604300900 AAXX 30091 76741 22440 20501 30043 57010 82200
                   333 30/// 60007 70000 91002
                   555 60005==
202604300800 AAXX 30081 76741 22940 00501 30046 57014
                   333 30/// 60005 70000 91002==
202604300700 AAXX 30071 76741 22940 00501 30047 57010
                   333 30/// 60005 70000 91003==
202604300600 AAXX 30061 76741 02940 00501 30053 57001 60001
                   333 30/// 55114 59019 60007 70000 91003
                   555 60005==
202604300500 AAXX 30051 76741 22940 00501 30060 52011
                   333 30/// 59015 60005 70000 91002==
202604300400 AAXX 30041 76741 22940 00501 30058 52013
                   333 30/// 59017 60005 70000 91003==
202604300300 AAXX 30031 76741 22940 00501 30054 52014
                   333 30/// 59019 60007 70000 91003
                   555 60005==
202604300200 AAXX 30021 76741 22940 00502 30050 52013
                   333 30/// 59017 60005 70000 91004==
202604300100 AAXX 30011 76741 22940 00502 30044 52005
                   333 30/// 59020 60005 70000 91004==
202604300000 AAXX 30001 76741 02957 03604 30040 57002 60001
                   333 30/// 59038 60007 70000 91006
                   555 60005==
202604292300 AAXX 29231 76741 22457 13603 30036 57011 81100
                   333 30/// 59048 60005 70000 91005==
202604292200 AAXX 29221 76741 22957 03603 30040 57020
                   333 30/// 59051 60005 70000 91005==
202604292100 AAXX 29211 76741 22457 13603 30042 57034 81200
                   333 30/// 59055 60007 70000 91005
                   555 60005==
202604292000 AAXX 29201 76741 22457 13602 30047 57034 81200
                   333 30/// 59050 60005 70000 91004==
202604291900 AAXX 29191 76741 22457 13602 30059 57020 81200
                   333 30/// 59034 60005 70000 91003==

################################################################################
#  SYNOPS from 76743, Villahermosa, Tab. (Mexico) | 17-58-51N | 092-55-17W | 6 m
################################################################################
202604301800 AAXX 30181 76743 02958 00902 10354 20220 30066 40073 57016 60001
                   333 10355 20245 30/// 59021 60007 70000 91002
                   555 60005==
202604301700 AAXX 30171 76743 22958 03302 10348 20221 30072 40079 57007
                   333 30/// 59019 60005 70000 91002==
202604301600 AAXX 30161 76743 22958 02401 10326 20208 30080 40087 52006
                   333 30/// 60005 70000 91001==
202604301500 AAXX 30151 76743 22958 01002 10300 20200 30082 40089 52012
                   333 30/// 59022 60007 70000 91002
                   555 60005==
202604301400 AAXX 30141 76743 22958 00902 10278 20193 30079 40086 52013
                   333 30/// 59026 60005 70000 91002==
202604301300 AAXX 30131 76743 22950 00902 10258 20182 30074 40081 52012
                   333 30/// 59024 60005 70000 91002==
202604301200 AAXX 30121 76743 02950 01901 10245 20181 30070 40077 52008 60001
                   333 10370 20245 30/// 59018 60007 70000 91001
                   555 60005==
202604301100 AAXX 30111 76743 22940 01101 10250 20169 30066 40073
                   333 30/// 59014 60005 70000 91001==
202604301000 AAXX 30101 76743 22940 00702 10255 20184 30062 40069 57018
                   333 30/// 59015 60005 70000 91002==
202604300900 AAXX 30091 76743 22940 00802 10265 20196 30062 40069 57018
                   333 30/// 59020 60007 70000 91002
                   555 60005==
202604300700 AAXX 30071 76743 22940 00502 10275 20195 30080 40087 52002
                   333 30/// 59014 60005 70000 91002==
202604300600 AAXX 30061 76743 02940 00602 10275 20198 30080 40087 52007 60001
                   333 10370 20255 30/// 55090 59019 60007 70000
                   91002 555 60005==
202604300500 AAXX 30051 76743 22940 00302 10280 20204 30080 40087 52013
                   333 30/// 59021 60005 70000 91002==
202604300400 AAXX 30041 76743 22940 00503 10290 20215 30078 40085 52017
                   333 30/// 59016 60005 70000 91003==
202604300300 AAXX 30031 76743 22940 00302 10305 20216 30073 40080 52016
                   333 30/// 59017 60007 70000 91002
                   555 60005==
202604300200 AAXX 30021 76743 22940 00202 10315 20219 30067 40074 52013
                   333 30/// 59020 60005 70000 91002==
202604300100 AAXX 30011 76743 22940 03502 10330 20229 30061 40068 52006
                   333 30/// 59022 60005 70000 91002==
202604300000 AAXX 30001 76743 02956 00702 10350 20236 30057 40064 57003 60001
                   333 10370 30/// 59020 60007 70000 91002
                   555 60005==
202604292300 AAXX 29231 76743 22958 00604 10360 20247 30054 40061 57013
                   333 30/// 59021 60005 70000 91004==
202604292200 AAXX 29221 76743 22958 00603 10370 20259 30055 40062 57022
                   333 30/// 59021 60005 70000 91003==
202604292100 AAXX 29211 76743 22958 00704 10370 20259 30060 40067 57027
                   333 30/// 59022 60007 70000 91004
                   555 60005==
202604292000 AAXX 29201 76743 22958 00703 10369 20243 30067 40074 57024
                   333 30/// 59023 60005 70000 91003==
202604291900 AAXX 29191 76743 22958 00902 10363 20238 30077 40084
                   333 30/// 59025 60005 70000 91002==

################################################################################
#  SYNOPS from 76750, Chetumal, Q. Roo (Mexico) | 18-30-01N | 088-19-40W | 8 m
################################################################################
202604301800 AAXX 30181 76750 02560 11003 10322 20245 30106 40115 57004 60001 81400
                   333 10322 20268 30/// 59018 60007 70000 91003
                   555 60005==
202604301700 AAXX 30171 76750 22560 11003 10319 20248 30110 40119 52002 81400
                   333 30/// 59022 60005 70000 91003==
202604301600 AAXX 30161 76750 22560 11003 10314 20242 30113 40122 52011 81400
                   333 30/// 59021 60005 70000 91003==
202604301500 AAXX 30151 76750 22560 21002 10304 20247 30110 40119 52013 82400
                   333 30/// 59024 60007 70000 91002
                   555 60005==
202604301400 AAXX 30141 76750 22560 21003 10293 20236 30108 40117 52013 82400
                   333 30/// 59021 60005 70000 91003==
202604301300 AAXX 30131 76750 22560 31003 10279 20237 30102 40111 52008 83400
                   333 30/// 59022 60005 70000 91003==
202604301200 AAXX 30121 76750 02560 31003 10272 20234 30097 40106 52001 60001 83400
                   333 10324 20268 30/// 59023 60007 70000 91003
                   555 60005==
202604301100 AAXX 30111 76750 22558 21002 10270 20235 30095 40104 57008 82400
                   333 30/// 59022 60005 70000 91002==
202604301000 AAXX 30101 76750 22558 10901 10268 20248 30094 40103 57011 81400
                   333 30/// 59016 60005 70000 91001==
202604300900 AAXX 30091 76750 22558 20901 10270 20243 30096 40105 57016 82400
                   333 30/// 59016 60007 70000 91001
                   555 60005==
202604300800 AAXX 30081 76750 22558 21102 10272 20243 30103 40112 57013 82400
                   333 30/// 59012 60005 70000 91002==
202604300700 AAXX 30071 76750 22558 11102 10272 20240 30105 40114 57011 81400
                   333 30/// 59019 60005 70000 91002==
202604300600 AAXX 30061 76750 02558 41102 10274 20241 30112 40121 57001 60001 84400
                   333 10324 20265 30/// 55110 59017 60007 70000
                   91002 555 60005==
202604300500 AAXX 30051 76750 22558 41102 10276 20238 30116 40125 52004 84400
                   333 30/// 59019 60005 70000 91002==
202604300400 AAXX 30041 76750 22558 21202 10278 20239 30116 40125 52009 82400
                   333 30/// 59022 60005 70000 91002==
202604300300 AAXX 30031 76750 22558 41202 10279 20240 30113 40122 52012 84400
                   333 30/// 59021 60007 70000 91002
                   555 60005==
202604300200 AAXX 30021 76750 22558 51202 10282 20239 30112 40121 52014 85400
                   333 30/// 59020 60005 70000 91002==
202604300100 AAXX 30011 76750 22958 01202 10287 20239 30107 40116 52008
                   333 30/// 59021 60005 70000 91002==
202604300000 AAXX 30001 76750 02960 01202 10295 20243 30101 40110 57002 60001
                   333 10324 30/// 59022 60007 70000 91003
                   555 60005==
202604292300 AAXX 29231 76750 22960 01203 10304 20242 30098 40107 57009
                   333 30/// 59023 60005 70000 91003==
202604292200 AAXX 29221 76750 22960 01204 10317 20246 30099 40108 57017
                   333 30/// 59022 60005 70000 91004==
202604292100 AAXX 29211 76750 22960 01204 10319 20239 30103 40112 57021
                   333 30/// 59021 60007 70000 91004
                   555 60005==
202604292000 AAXX 29201 76750 22960 01204 10320 20240 30107 40116 57025
                   333 30/// 59021 60005 70000 91004==
202604291900 AAXX 29191 76750 22960 01204 10323 20240 30116 40125 57018
                   333 30/// 59018 60005 70000 91004==

################################################################################
#  SYNOPS from 76762, Chilpancingo, Gro. (Mexico) | 17-34-18N | 099-30-50W | 1268 m
################################################################################
202604301800 AAXX 30181 76762 02904 01202 10310 20156 38738 40090 57011 60001
                   333 10315 20192 30/// 59006 60007 70000 91002
                   555 60005==
202604301700 AAXX 30171 76762 22904 01303 10300 20151 38739 40095 57010
                   333 30/// 59016 60005 70000 91004==
202604301600 AAXX 30161 76762 22904 01303 10268 20150 38746 40106 52003
                   333 30/// 59017 60005 70000 91004==
202604301500 AAXX 30151 76762 22904 01504 10248 20122 38749 40111
                   333 30/// 59015 60007 70000 91004
                   555 60005==
202604301400 AAXX 30141 76762 22904 01403 10214 20135 38749 40112
                   333 30/// 60005 70000 91003==
202604301300 AAXX 30131 76762 22904 01302 10194 20145 38743 40104 52011
                   333 30/// 60005 70000 91002==
202604301000 AAXX 30101 76762 22904 01503 10196 20146 38733 40081 57010
                   333 30/// 60005 70000 91003==
202604300900 AAXX 30091 76762 22904 01603 10211 20137 38736 40079 57011
                   333 30/// 59017 60007 70000 91003
                   555 60005==
202604300700 AAXX 30071 76762 22904 01402 10214 20157 38743 40077 57003
                   333 30/// 59018 60005 70000 91002==
202604300600 AAXX 30061 76762 02904 01402 10218 20156 38747 40076 52010 60001
                   333 10358 20194 30/// 59019 60007 70000 91002
                   555 60005==
202604300400 AAXX 30041 76762 22904 01403 10230 20161 38746 40065 52024
                   333 30/// 59011 60005 70000 91005==
202604300300 AAXX 30031 76762 22904 01304 10235 20163 38737 40052
                   333 30/// 59010 60007 70000 91005
                   555 60005==
202604300200 AAXX 30021 76762 22904 01304 10250 20170 38729 40042
                   333 30/// 59024 60005 70000 91005==
202604300100 AAXX 30011 76762 22904 01305 10268 20174 38722 40036 52006
                   333 30/// 59018 60005 70000 91006==
202604300000 AAXX 3000/ 76762 02/// ///// 10280 29067 60001
                   333 60007 70000 555 60005==
202604292200 AAXX 29221 76762 22704 11305 10334 20180 38716 40038 57021 81100
                   333 30/// 59020 60005 70000 91006==
202604292100 AAXX 29211 76762 22904 01305 10344 20182 38720 40048 57023
                   333 30/// 59018 60007 70000 91005
                   555 60005==
202604292000 AAXX 29201 76762 22904 01305 10348 20184 38726 40060
                   333 30/// 59021 60005 70000 91005==
202604291900 AAXX 29191 76762 22904 01503 10356 20244 38737 40078 57025
                   333 30/// 59021 60005 70000 91003==

################################################################################
#  SYNOPS from 76773, Huajuapan De Leon, Oax. (Mexico) | 17-47-20N | 097-46-18W | 1603 m
################################################################################
202604301800 AAXX 30181 76773 02970 02801 10332 20114 38386 40075 57019 60001
                   333 10350 20120 30/// 59019 60007 70000 91001
                   555 60005==
202604301700 AAXX 30171 76773 22970 00000 10306 20124 38397 40094 57010
                   333 30/// 59022 60005 70000 91000==
202604301600 AAXX 30161 76773 22970 02101 10270 20125 38398 40100 57006
                   333 30/// 59026 60005 70000 91001==
202604301500 AAXX 30151 76773 22970 02101 10212 20096 38405 40110 52009
                   333 30/// 59022 60007 70000 91001
                   555 60005==
202604301400 AAXX 30141 76773 22962 02100 10166 20086 38406 40109 52011
                   333 30/// 59023 60005 70000 91000==
202604301300 AAXX 30131 76773 22960 00000 10128 20060 38404 40101 52007
                   333 30/// 59019 60005 70000 91000==
202604301200 AAXX 30121 76773 02940 00000 10130 20059 38396 40082 57000 60001
                   333 10375 20120 30/// 59021 60007 70000 91000
                   555 60005==
202604301100 AAXX 30111 76773 22940 00000 10136 20058 38395 40071 57002
                   333 30/// 59019 60005 70000 91000==
202604301000 AAXX 30101 76773 22940 00000 10144 20055 38397 40063 57003
                   333 30/// 60005 70000 91000==
202604300900 AAXX 30091 76773 22930 00000 10156 20082 38396 40052 57007
                   333 30/// 60007 70000 91000
                   555 60005==
202604300800 AAXX 30081 76773 22930 00000 10168 20069 38397 40043 57004
                   333 30/// 60005 70000 91000==
202604300700 AAXX 30071 76773 22930 00000 10184 20077 38400 40037 52001
                   333 30/// 60005 70000 91000==
202604300600 AAXX 30061 76773 02930 00000 10204 20094 38403 40033 52008 60001
                   333 10375 20108 30/// 60007 70000 91000
                   555 60005==
202604300500 AAXX 30051 76773 22930 00000 10218 20088 38401 40025 52016
                   333 30/// 60005 70000 91000==
202604300400 AAXX 30041 76773 22940 00000 10240 20058 38399 40019 52017
                   333 30/// 59011 60005 70000 91000==
202604300300 AAXX 30031 76773 22940 00900 10256 20063 38395 40014 52024
                   333 30/// 59008 60007 70000 91000
                   555 60005==
202604300200 AAXX 30021 76773 22940 00000 10278 20054 38385 40005 52017
                   333 30/// 59013 60005 70000 91000==
202604300100 AAXX 30011 76773 22970 10900 10296 20054 38382 40008 52007 81001
                   333 30/// 59011 60005 70000 91001==
202604300000 AAXX 30001 76773 02970 00903 10330 20057 38371 40003 57005 60001
                   333 10375 30/// 59016 60007 70000 91006
                   555 60005==
202604292300 AAXX 29231 76773 22970 00903 10340 20053 38368 40010 57016
                   333 30/// 59018 60005 70000 91007==
202604292200 AAXX 29221 76773 22970 00907 10348 20068 38375 40028 57019
                   333 30/// 59014 60005 70000 91007==
202604292100 AAXX 29211 76773 22970 00905 10354 20074 38375 40040 57029
                   333 30/// 59017 60007 70000 91005
                   555 60005==
202604292000 AAXX 29201 76773 22970 00503 10356 20106 38385 40062 57034
                   333 30/// 59017 60005 70000 91003==
202604291900 AAXX 29191 76773 22970 02804 10346 20121 38394 40084 57030
                   333 30/// 59017 60005 70000 91004==

################################################################################
#  SYNOPS from 76775, Oaxaca, Oax. (Mexico) | 17-00-08N | 096-43-16W | 1519 m
################################################################################
202604301800 AAXX 30181 76775 02960 02702 10306 20156 38491 40093 57018 60001
                   333 10310 20156 30/// 59016 60007 70000 91002
                   555 60005==
202604301700 AAXX 30171 76775 22960 02702 10284 20162 38501 40109 57009
                   333 30/// 59013 60005 70000 91002==
202604301600 AAXX 30161 76775 22960 02301 10256 20167 38507 40119 54000
                   333 30/// 59015 60005 70000 91002==
202604301500 AAXX 30151 76775 22960 02701 10225 20140 38509 40122 52005
                   333 30/// 59017 60007 70000 91002
                   555 60005==
202604301400 AAXX 30141 76775 22960 00503 10192 20097 38510 40123 52011
                   333 30/// 59018 60005 70000 91003==
202604301300 AAXX 30131 76775 22960 00200 10166 20088 38507 40115 52012
                   333 30/// 59018 60005 70000 91001==
202604301200 AAXX 30121 76775 02986 02500 10170 20099 38504 40105 52007 60001
                   333 10364 20133 30/// 59016 60007 70000 91001
                   555 60005==
202604301100 AAXX 30111 76775 22986 00500 10174 20104 38499 40092 57003
                   333 30/// 59017 60005 70000 91000==
202604301000 AAXX 30101 76775 22986 00501 10184 20116 38495 40079 57015
                   333 30/// 59021 60005 70000 91001==
202604300900 AAXX 30091 76775 22986 02000 10193 20137 38497 40073 57017
                   333 30/// 59019 60007 70000 91001
                   555 60005==
202604300800 AAXX 30081 76775 22986 02500 10200 20138 38502 40071 57008
                   333 30/// 59018 60005 70000 91001==
202604300700 AAXX 30071 76775 22986 01601 10217 20168 38510 40073 52024
                   333 30/// 59014 60005 70000 91001==
202604300600 AAXX 30061 76775 02986 03201 10225 20180 38514 40072 52033 60001
                   333 10364 20133 30/// 55001 20000 59015 60007
                   70000 91001 555 60005==
202604300500 AAXX 30051 76775 22986 03601 10232 20182 38510 40064 52038
                   333 30/// 59021 60005 70000 91001==
202604300400 AAXX 3004/ 76775 22/// ///// 10229 20062 38486 40042 52026
                   333 59040 60005 70000==
202604300300 AAXX 3003/ 76775 22/// ///// 10242 21016 38481 40036 52008
                   333 59039 60007 70000
                   555 60005==
202604300200 AAXX 3002/ 76775 22/// ///// 10273 21046 38472 40028 52007
                   333 59039 60005 70000==
202604300100 AAXX 3001/ 76775 22/// ///// 10299 21050 38460 40019 57007
                   333 59025 60005 70000==
202604300000 AAXX 30001 76775 02568 10503 10326 20104 38473 40028 54000 60001 81100
                   333 10364 30/// 59019 60007 70000 91004
                   555 60005==
202604292300 AAXX 29231 76775 22568 10703 10344 20114 38465 40027 57019 81200
                   333 30/// 59024 60005 70000 91004==
202604292200 AAXX 29221 76775 22565 12701 10360 20152 38467 40038 57029 81200
                   333 30/// 59023 60005 70000 91001==
202604292100 AAXX 29211 76775 22565 11801 10358 20144 38473 40055 57034 81200
                   333 30/// 59022 60007 70000 91002
                   555 60005==
202604292000 AAXX 29201 76775 22965 02301 10352 20142 38484 40076 57030
                   333 30/// 59022 60005 70000 91002==
202604291900 AAXX 29191 76775 22965 02301 10340 20143 38496 40099 57026
                   333 30/// 59015 60005 70000 91001==

################################################################################
#  SYNOPS from 76805, Acapulco, Gro. (Mexico) | 16-45-46N | 099-44-57W | 3 m
################################################################################
202604301800 AAXX 30181 76805 02570 12502 10322 20236 30089 40092 57011 60001 81200
                   333 10332 20233 30/// 59010 60007 70000 91005
                   555 60005==
202604301700 AAXX 30171 76805 22570 12302 10322 20236 30099 40102 52004 81200
                   333 30/// 59007 60005 70000 91005==
202604301600 AAXX 30161 76805 22570 12301 10312 20235 30100 40103 52011 81200
                   333 30/// 59010 60005 70000 91004==
202604301500 AAXX 30151 76805 22570 12701 10298 20244 30100 40103 52015 81200
                   333 30/// 59011 60007 70000 91004
                   555 60005==
202604301400 AAXX 30141 76805 22570 12701 10278 20243 30095 40098 52014 81200
                   333 30/// 59012 60005 70000 91004==
202604301300 AAXX 30131 76805 22570 12901 10248 20239 30089 40092 52011 81200
                   333 30/// 59011 60005 70000 91003==
202604301200 AAXX 30121 76805 02560 43401 10248 20233 30085 40089 52004 60001 81108
                   333 10340 20232 30/// 59010 60007 70000 91001
                   555 60005==
202604301100 AAXX 30111 76805 22560 33301 10252 20237 30081 40084 57003 81108
                   333 30/// 59010 60005 70000 91002==
202604301000 AAXX 30101 76805 22560 23302 10254 20242 30078 40081 57010 81108
                   333 30/// 59012 60005 70000 91002==
202604300900 AAXX 30091 76805 22560 13302 10254 20239 30081 40084 57011 81100
                   333 30/// 59012 60007 70000 91002
                   555 60005==
202604300800 AAXX 30081 76805 22560 23203 10258 20244 30084 40087 57008 81108
                   333 30/// 59014 60005 70000 91003==
202604300700 AAXX 30071 76805 22560 23103 10264 20244 30088 40091 52002 81108
                   333 30/// 59016 60005 70000 91003==
202604300600 AAXX 30061 76805 02560 22903 10268 20245 30092 40095 52013 60001 82100
                   333 10340 20231 30/// 59019 60007 70000 91003
                   555 60005==
202604300500 AAXX 30051 76805 22560 12803 10274 20251 30092 40095 52020 81100
                   333 30/// 59018 60005 70000 91003==
202604300400 AAXX 30041 76805 22560 22603 10282 20251 30086 40089 52021 82100
                   333 30/// 59017 60005 70000 91003==
202604300300 AAXX 30031 76805 22560 22403 10286 20252 30079 40082 52019 82100
                   333 30/// 59018 60007 70000 91003
                   555 60005==
202604300200 AAXX 30021 76805 22560 12303 10290 20244 30072 40075 52015 81100
                   333 30/// 59022 60005 70000 91003==
202604300100 AAXX 30011 76805 22560 12303 10298 20247 30065 40068 52004 81100
                   333 30/// 59023 60005 70000 91003==
202604300000 AAXX 30001 76805 02570 12703 10310 20251 30060 40063 57007 60001 81200
                   333 10340 30/// 59025 60007 70000 91007
                   555 60005==
202604292300 AAXX 29231 76805 22570 12404 10320 20252 30057 40060 57023 81200
                   333 30/// 59027 60005 70000 91008==
202604292200 AAXX 29221 76805 22570 12504 10326 20254 30061 40064 57030 81800
                   333 30/// 59025 60005 70000 91009==
202604292100 AAXX 29211 76805 22570 12204 10327 20254 30067 40070 57032 81200
                   333 30/// 59024 60007 70000 91008
                   555 60005==
202604292000 AAXX 29201 76805 22570 12104 10330 20257 30080 40083 57026 81100
                   333 30/// 59021 60005 70000 91008==
202604291900 AAXX 29191 76805 22970 02803 10327 20258 30091 40094 57019
                   333 30/// 59020 60005 70000 91007==

################################################################################
#  SYNOPS from 76833, Salina Cruz, Oax. (Mexico) | 16-09-43N | 095-13-36W | 6 m
################################################################################
202604301800 AAXX 30181 76833 02870 71803 10352 60001 87010
                   333 10352 20264 30/// 60007 70000 91003
                   555 60005==
202604301700 AAXX 30171 76833 22470 81803 10341 20245 30079 40086 57005 86210
                   333 30/// 59024 60005 70000 91003==
202604301600 AAXX 30161 76833 22470 81802 10335 20244 30085 40092 52007 87210
                   333 30/// 59020 60005 70000 91002==
202604301500 AAXX 30151 76833 22470 81801 10331 20247 30085 40092 52011 87210
                   333 30/// 59019 60007 70000 91001
                   555 60005==
202604301400 AAXX 30141 76833 22470 80000 10313 20243 30084 40091 52014 87210
                   333 30/// 59019 60005 70000 91000==
202604301300 AAXX 30131 76833 22470 80000 10281 20247 30078 40085 52007 87210
                   333 30/// 59021 60005 70000 91000==
202604301200 AAXX 30121 76833 02860 70000 10268 20242 30074 40081 54000 60001 87010
                   333 10268 20264 30/// 59018 60007 70000 91000
                   555 60005==
202604301100 AAXX 30111 76833 22860 70000 10272 20246 30070 40077 57009 87010
                   333 30/// 59019 60005 70000 91000==
202604301000 AAXX 30101 76833 22860 70000 10278 20246 30071 40078 57012 87010
                   333 30/// 59014 60005 70000 91000==
202604300900 AAXX 30091 76833 22/// /3101 30074 40077 57013
                   333 59015 60007 70000 91002==
202604300800 AAXX 30081 76833 22860 60000 10285 20248 30079 40086 57007 86010
                   333 30/// 59012 60005 70000 91000==
202604300700 AAXX 30071 76833 22860 70000 10291 20251 30083 40090 52003 87010
                   333 30/// 59013 60005 70000 91000==
202604300600 AAXX 30061 76833 02860 70501 10291 20241 30087 40094 52013 60001 87010
                   333 10401 20267 30/// 55111 20000 59014 60007
                   70000 91001 555 60005==
202604300500 AAXX 30051 76833 22860 70000 10294 20242 30086 40093 52017 87010
                   333 30/// 59015 60005 70000 91000==
202604300400 AAXX 30041 76833 22860 70000 10295 20242 30080 40087 52020 87010
                   333 30/// 59018 60005 70000 91000==
202604300300 AAXX 30031 76833 22860 61801 10302 20246 30074 40081 52022 86010
                   333 30/// 59016 60007 70000 91001
                   555 60005==
202604300200 AAXX 30021 76833 22860 61803 10302 20255 30069 40076 52018 86010
                   333 30/// 59013 60005 70000 91003==
202604300100 AAXX 30011 76833 22860 61805 10304 20255 30060 40067 52005 86010
                   333 30/// 59015 60005 70000 91005==
202604300000 AAXX 30001 76833 02870 52005 10331 20243 30052 40059 57010 60001 85010
                   333 10401 30/// 59022 60007 70000 91005
                   555 60005==
202604292300 AAXX 29231 76833 22870 72004 10332 20249 30051 40058 57023 87010
                   333 30/// 59024 60005 70000 91004==
202604292200 AAXX 29221 76833 22870 61803 10343 20241 30055 40062 57031 86010
                   333 30/// 59025 60005 70000 91003==
202604292100 AAXX 29211 76833 22870 61801 10352 20241 30062 40069 57034 86010
                   333 30/// 59025 60007 70000 91001
                   555 60005==
202604292000 AAXX 29201 76833 22870 71801 10363 20233 30074 40081 57029 87010
                   333 30/// 59022 60005 70000 91001==
202604291900 AAXX 29191 76833 22470 81802 10364 20244 30086 40093 57019 87410
                   333 30/// 59021 60005 70000 91002==

################################################################################
#  SYNOPS from 76840, Arriaga, Chis. (Mexico) | 16-13-53N | 093-54-16W | 49 m
################################################################################
202604301800 AAXX 30181 76840 02830 40000 10340 60001 84030
                   333 30/// 60007 70000 91004
                   555 60005==
202604301500 AAXX 30151 76840 22530 30000 10292 83500
                   333 30/// 60007 70000 91000
                   555 60005==
202604301200 AAXX 30121 76840 02830 40000 10267 60001 84040
                   333 10375 30/// 60007 70000 91000
                   555 60005==
202604300000 AAXX 30001 76840 02940 02002 10332 20209 30010 40065 52001 60001
                   333 10375 30/// 59018 60007 70000 91002
                   555 60005==
202604292300 AAXX 29231 76840 22940 02203 10349 20203 30005 40060 57012
                   333 30/// 59018 60005 70000 91003==
202604292200 AAXX 29221 76840 22950 02203 10360 20189 30004 40059 57026
                   333 30/// 59020 60005 70000 91004==
202604292100 AAXX 29211 76840 22950 02103 10368 20178 30009 40064 57030
                   333 30/// 59022 60007 70000 91003
                   555 60005==
202604292000 AAXX 29201 76840 22550 22303 10375 20156 30017 40072 57031 82400
                   333 30/// 59025 60005 70000 91004==
202604291900 AAXX 29191 76840 22550 42403 10362 20180 30030 40085 57024 84400
                   333 30/// 59018 60005 70000 91003==

################################################################################
#  SYNOPS from 76843, Tuxtla Gutierrez, Chis. (Mexico) | 16-45-46N | 093-08-50W | 573 m
################################################################################
202604301800 AAXX 3018/ 76843 02563 1//// 10339 39438 40066 57020 60001 81100
                   333 10339 20243 30/// 59017 60007 70000
                   555 60005==
202604301700 AAXX 3017/ 76843 22563 2//// 10329 39450 40080 57008 82100
                   333 30/// 59014 60005 70000==
202604301600 AAXX 3016/ 76843 22563 2//// 10313 39458 40090 52004 82100
                   333 30/// 59014 60005 70000==
202604301500 AAXX 3015/ 76843 22563 2//// 10305 39458 40090 52008 82100
                   333 30/// 59017 60007 70000
                   555 60005==
202604301400 AAXX 3014/ 76843 22960 0//// 10272 39458 40091 52011
                   333 30/// 59015 60005 70000==
202604301300 AAXX 3013/ 76843 22962 0//// 10255 39454 40086 52008
                   333 30/// 59016 60005 70000==
202604301200 AAXX 3012/ 76843 02963 0//// 10243 39450 40081 52001 60001
                   333 10376 20243 30/// 59014 60007 70000
                   555 60005==
202604301100 AAXX 3011/ 76843 22965 0//// 10246 39447 40076 57002
                   333 30/// 59014 60005 70000==
202604301000 AAXX 3010/ 76843 22965 0//// 10250 39446 40074 57005
                   333 30/// 59013 60005 70000==
202604300900 AAXX 3009/ 76843 22965 0//// 10255 39449 40075 57006
                   333 30/// 59010 60007 70000
                   555 60005==
202604300800 AAXX 3008/ 76843 22965 1//// 10258 39449 40073 57006 81003
                   333 30/// 59012 60005 70000==
202604300700 AAXX 3007/ 76843 22965 1//// 10264 39451 40073 52002 81003
                   333 30/// 59012 60005 70000==
202604300600 AAXX 3006/ 76843 02965 1//// 10270 39455 40076 52012 60001 81003
                   333 10376 20243 30/// 55098 59014 60007 70000
                   555 60005==
202604300500 AAXX 3005/ 76843 22965 1//// 10276 39455 40074 52020 81003
                   333 30/// 59015 60005 70000==
202604300400 AAXX 3004/ 76843 22965 0//// 10282 39449 40067 52022
                   333 30/// 59016 60005 70000==
202604300300 AAXX 3003/ 76843 22965 0//// 10289 39443 40060 52025
                   333 30/// 59017 60007 70000
                   555 60005==
202604300200 AAXX 3002/ 76843 22965 0//// 10294 39435 40051 52022
                   333 30/// 59016 60005 70000==
202604300100 AAXX 3001/ 76843 22965 0//// 10303 39427 40043 52012
                   333 30/// 59016 60005 70000==
202604300000 AAXX 3000/ 76843 02965 0//// 10316 39418 40034 57001 60001
                   333 10376 30/// 59020 60007 70000
                   555 60005==
202604292300 AAXX 2923/ 76843 22965 0//// 10338 39413 40030 57016
                   333 30/// 59020 60005 70000==
202604292200 AAXX 2922/ 76843 22565 1//// 10348 39415 40034 57027 81100
                   333 30/// 59021 60005 70000==
202604292100 AAXX 2921/ 76843 22565 1//// 10369 39419 40040 57036 81100
                   333 30/// 59021 60007 70000
                   555 60005==
202604292000 AAXX 2920/ 76843 22565 2//// 10376 39429 40052 57035 82200
                   333 30/// 59019 60005 70000==
202604291900 AAXX 2919/ 76843 22564 3//// 10370 39442 40068 57030 83200
                   333 30/// 59015 60005 70000==

################################################################################
#  SYNOPS from 76845, Sn. Cristobal Las Casas, Chis. (Mexico) | 16-43-28N | 092-38-13W | 2116 m
################################################################################
202604301800 AAXX 30181 76845 02958 00902 10260 20151 37913 40084 57004 60001
                   333 10260 20127 30/// 59010 60007 70000 91003
                   555 60005==
202604301700 AAXX 30171 76845 22958 00902 10256 20148 37916 40095 57002
                   333 30/// 59012 60005 70000 91002==
202604301600 AAXX 30161 76845 22958 00000 10242 20120 37919 40107 52004
                   333 30/// 59012 60005 70000 91000==
202604301500 AAXX 30151 76845 22958 00000 10216 20131 37917 40110 52006
                   333 30/// 59022 60007 70000 91000
                   555 60005==
202604301400 AAXX 30141 76845 22958 00000 10171 20122 37918 40113 52009
                   333 30/// 59017 60005 70000 91000==
202604301300 AAXX 30131 76845 22458 40000 10140 20113 37916 40110 52008 84700
                   333 30/// 59018 60005 70000 91000==
202604301200 AAXX 30121 76845 02457 50000 10127 20101 37911 40100 52003 60001 85700
                   333 10271 20127 30/// 59018 60007 70000 91000
                   555 60005==
202604301100 AAXX 30111 76845 22430 50000 10132 20105 37909 40091 57002 85700
                   333 30/// 59017 60005 70000 91000==
202604301000 AAXX 30101 76845 22430 30000 10135 20108 37908 40082 57009 83700
                   333 30/// 59016 60005 70000 91000==
202604300900 AAXX 30091 76845 22430 40000 10139 20107 37908 40075 57015 84700
                   333 30/// 59020 60007 70000 91000
                   555 60005==
202604300800 AAXX 30081 76845 22430 40000 10143 20110 37911 40070 57015 84700
                   333 30/// 59017 60005 70000 91000==
202604300700 AAXX 30071 76845 22430 50000 10146 20110 37917 40068 57010 85700
                   333 30/// 59017 60005 70000 91000==
202604300600 AAXX 30061 76845 02930 00000 10147 20111 37923 40068 52001 60001
                   333 10271 20089 30/// 55110 20000 59017 60007
                   70000 91000 555 60005==
202604300500 AAXX 30051 76845 22930 00000 10155 20114 37927 40064 52007
                   333 30/// 59017 60005 70000 91000==
202604300400 AAXX 30041 76845 22930 00901 10161 20118 37927 40057 52012
                   333 30/// 59017 60005 70000 91001==
202604300300 AAXX 30031 76845 22930 00000 10173 20121 37922 40047 52015
                   333 30/// 59021 60007 70000 91000
                   555 60005==
202604300200 AAXX 30021 76845 22930 00901 10181 20128 37919 40042 52016
                   333 30/// 59019 60005 70000 91001==
202604300100 AAXX 30011 76845 22530 30901 10196 20132 37914 40038 52010 83700
                   333 30/// 59021 60005 70000 91002==
202604300000 AAXX 30001 76845 02960 02701 10221 20092 37907 40035 57000 60001
                   333 10271 30/// 59021 60007 70000 91002
                   555 60005==
202604292300 AAXX 29231 76845 22960 02701 10241 20046 37903 40039 57007
                   333 30/// 59021 60005 70000 91002==
202604292200 AAXX 29221 76845 22960 02701 10251 20042 37904 40050 57014
                   333 30/// 59022 60005 70000 91001==
202604292100 AAXX 29211 76845 22960 02701 10266 20054 37907 40063 57016
                   333 30/// 59024 60007 70000 91002
                   555 60005==
202604292000 AAXX 29201 76845 22960 02702 10271 20117 37910 40077 57017
                   333 30/// 59024 60005 70000 91002==
202604291900 AAXX 29191 76845 22960 02701 10270 20150 37919 40098 57012
                   333 30/// 59021 60005 70000 91002==

################################################################################
#  SYNOPS from 76848, Comitan, Chis. (Mexico) | 16-13-55N | 092-08-06W | 1645 m
################################################################################
202604301800 AAXX 30181 76848 02768 22302 10280 20126 38351 40071 57009 60001 82100
                   333 10298 20165 30/// 59016 60007 70000 91005
                   555 60005==
202604301700 AAXX 30171 76848 22668 22002 10271 20131 38359 40086 57001 82200
                   333 30/// 59015 60005 70000 91007==
202604301600 AAXX 30161 76848 22668 22303 10259 20148 38361 40093 52004 82200
                   333 30/// 59016 60005 70000 91007==
202604301500 AAXX 30151 76848 22668 22002 10238 20147 38360 40096 52003 82100
                   333 30/// 59019 60007 70000 91004
                   555 60005==
202604301400 AAXX 30141 76848 22668 20701 10216 20126 38360 40098 52004 82500
                   333 30/// 59018 60005 70000 91003==
202604301300 AAXX 30131 76848 22968 03402 10182 20123 38357 40096 52002
                   333 30/// 59019 60005 70000 91003==
202604301200 AAXX 30121 76848 02450 63402 10165 20114 38357 40095 57000 60001 86500
                   333 10310 20165 30/// 59012 60007 70000 91004
                   555 60005==
202604301100 AAXX 30111 76848 22550 83201 10178 20111 38356 40090 88500
                   333 30/// 59012 60005 70000 91003==
202604301000 AAXX 30101 76848 22550 70000 10179 20118 38355 40085 87500
                   333 30/// 59014 60005 70000 91000==
202604300900 AAXX 30091 76848 22550 70000 10178 20121 38357 40082 87500
                   333 30/// 59013 60007 70000 91000
                   555 60005==
202604300400 AAXX 30041 76848 22550 20502 10185 20130 38373 40074 52013 82500
                   333 30/// 59011 60005 70000 91008==
202604300300 AAXX 30031 76848 22950 00503 10189 20135 38369 40065 52021
                   333 30/// 59012 60007 70000 91007
                   555 60005==
202604300200 AAXX 30021 76848 22950 00703 10195 20135 38367 40060 52025
                   333 30/// 59013 60005 70000 91009==
202604300100 AAXX 30011 76848 22570 10704 10207 20126 38360 40051 52018 81200
                   333 30/// 59016 60005 70000 91009==
202604300000 AAXX 30001 76848 02670 10903 10231 20121 38348 40040 52005 60001 81100
                   333 10310 30/// 59018 60007 70000 91008
                   555 60005==
202604292300 AAXX 29231 76848 22770 10903 10259 20110 38341 40036 57008 81100
                   333 30/// 59018 60005 70000 91009==
202604292200 AAXX 29221 76848 22770 10903 10278 20106 38341 40043 57019 81100
                   333 30/// 59017 60005 70000 91008==
202604292100 AAXX 29211 76848 22870 11103 10293 20110 38343 40052 57023 81100
                   333 30/// 59018 60007 70000 91008
                   555 60005==
202604292000 AAXX 29201 76848 22870 12302 10301 20089 38349 40067 57024 81100
                   333 30/// 59019 60005 70000 91006==
202604291900 AAXX 29191 76848 22870 11102 10289 20075 38360 40087 57017 81100
                   333 30/// 59015 60005 70000 91007==

################################################################################
#  SYNOPS from 76855, Puerto Angel, Oax. (Mexico) | 15-40-04N | 096-29-23W | 43 m
################################################################################
202604292200 AAXX 29221 76855 22970 00103 10320 20249 30037 40085
                   333 30/// 60005 70000 91003==
202604292100 AAXX 29211 76855 22970 03602 10336 20242 30042 40090
                   333 30/// 59005 60007 70000 91002
                   555 60005==

################################################################################
#  SYNOPS from 76903, Tapachula, Chis (Mexico) | 14-53-13N | 092-17-47W | 114 m
################################################################################
202604301800 AAXX 30181 76903 02680 32602 10354 20250 39961 40090 57012 60001 83000
                   333 10366 20255 30/// 59011 60007 70000 91005
                   555 60005==
202604301700 AAXX 30171 76903 22680 42302 10341 20246 39968 40097 57001 84000
                   333 30/// 59010 60005 70000 91004==
202604301600 AAXX 30161 76903 22680 42502 10329 20247 39974 40103 52013 84000
                   333 30/// 59011 60005 70000 91004==
202604301500 AAXX 30151 76903 22680 42802 10321 20253 39973 40102 52017 84100
                   333 30/// 59012 60007 70000 91004
                   555 60005==
202604301400 AAXX 30141 76903 22981 03501 10303 20244 39968 40098 52015
                   333 30/// 59015 60005 70000 91003==
202604301300 AAXX 30131 76903 22981 00101 10278 20233 39961 40091
                   333 30/// 59015 60005 70000 91003==
202604301200 AAXX 30121 76903 02980 23601 10261 20228 39957 40086 60001 82030
                   333 10365 20255 30/// 59015 60007 70000 91003
                   555 60005==
202604301100 AAXX 30111 76903 22975 20201 10259 20230 39954 40082 57012 82030
                   333 30/// 59017 60005 70000 91002==
202604300800 AAXX 30081 76903 22975 42302 10275 20238 39966 40094 57017 84030
                   333 30/// 60005 70000 91006==
202604300700 AAXX 30071 76903 22975 40201 10273 20242 39969 40097 57009 84030
                   333 30/// 59012 60005 70000 91003==
202604300600 AAXX 30061 76903 02975 40302 10275 20242 39973 40101 57001 60001 84030
                   333 10365 20250 30/// 59012 60007 70000 91003
                   555 60005==
202604300500 AAXX 30051 76903 22670 60502 10280 20236 39983 40110 52019 86100
                   333 30/// 59009 60005 70000 91004==
202604300400 AAXX 30041 76903 22670 63401 10283 20238 39978 40106 52023 86100
                   333 30/// 59012 60005 70000 91002==
202604300300 AAXX 30031 76903 22670 63301 10287 20241 39974 40101 52030 86100
                   333 30/// 59013 60007 70000 91002
                   555 60005==
202604300200 AAXX 30021 76903 22675 42801 10292 20245 39964 40090 52023 84100
                   333 30/// 60005 70000 91003==
202604300100 AAXX 30011 76903 22670 62502 10299 20242 39955 40082 52015 86100
                   333 30/// 59014 60005 70000 91005==
202604300000 AAXX 30001 76903 02675 62403 10313 20244 39944 40071 57000 60001 86100
                   333 10365 30/// 59021 60007 70000 91006
                   555 60005==
202604292300 AAXX 29231 76903 22975 02304 10319 20248 39941 40068 57011
                   333 30/// 59008 60005 70000 91006==
202604292200 AAXX 29221 76903 22675 52104 10337 20242 39940 40067 57023 85100
                   333 30/// 59006 60005 70000 91008==
202604292100 AAXX 29211 76903 22675 52504 10341 20248 39945 40072 57028 85100
                   333 30/// 59003 60007 70000 91007
                   555 60005==
202604292000 AAXX 29201 76903 22680 42304 10355 20246 39952 40079 57027 84100
                   333 30/// 59009 60005 70000 91008==
202604291900 AAXX 29191 76903 22680 42404 10359 20241 39963 40092 57021 84100
                   333 30/// 59016 60005 70000 91007==

</pre>


</body></html>